{"type":"FeatureCollection","features":[{"type":"Feature","id":"windfarms.365","geometry":{"type":"Point","coordinates":[-2.692,58.304]},"geometry_name":"the_geom","properties":{"country":"United Kingdom","name":"Beatrice Demonstration","n_turbines":2,"power_mw":10.0,"status":"Dismantled","type_inst":null,"updateyear":"2025","year":"2007","dist_coast":25483.2452912,"notes":"Decommission: 2016"}},{"type":"Feature","id":"windfarms.392","geometry":{"type":"Point","coordinates":[-4.907,53.81]},"geometry_name":"the_geom","properties":{"country":"United Kingdom","name":"Walney Phase 1","n_turbines":51,"power_mw":183.6,"status":"Production","type_inst":null,"updateyear":"2025","year":"2011","dist_coast":26837.1109156,"notes":null}},{"type":"Feature","id":"windfarms.591","geometry":{"type":"Point","coordinates":[-1.37,55.17]},"geometry_name":"the_geom","properties":{"country":"United Kingdom","name":"Blyth Offshore NaREC Offshore Wind Demonstration Project","n_turbines":5,"power_mw":41.5,"status":"Production","type_inst":null,"updateyear":"2026","year":"2017","dist_coast":8416.18422552,"notes":null}},{"type":"Feature","id":"windfarms.120","geometry":{"type":"Point","coordinates":[-6.37,51.84]},"geometry_name":"the_geom","properties":{"country":"Ireland","name":"Blackwater","n_turbines":null,"power_mw":1500.0,"status":"Planned","type_inst":"Floating","updateyear":"2026","year":"2030","dist_coast":34688.5850973,"notes":null}},{"type":"Feature","id":"windfarms.136","geometry":{"type":"Point","coordinates":[-7.59,51.61]},"geometry_name":"the_geom","properties":{"country":"Ireland","name":"Inis Ealga FOW","n_turbines":null,"power_mw":1000.0,"status":"Planned","type_inst":"Floating","updateyear":"2026","year":"2030","dist_coast":35343.0657165,"notes":null}},{"type":"Feature","id":"windfarms.140","geometry":{"type":"Point","coordinates":[-8.26,51.47]},"geometry_name":"the_geom","properties":{"country":"Ireland","name":"Kinsale","n_turbines":null,"power_mw":1000.0,"status":"Planned","type_inst":"Floating","updateyear":"2026","year":"2030","dist_coast":24161.7979172,"notes":null}},{"type":"Feature","id":"windfarms.141","geometry":{"type":"Point","coordinates":[-5.78,52.81]},"geometry_name":"the_geom","properties":{"country":"Ireland","name":"Latitude 52","n_turbines":null,"power_mw":1000.0,"status":"Planned","type_inst":"Grounded","updateyear":"2026","year":"2030","dist_coast":19402.0947406,"notes":null}},{"type":"Feature","id":"windfarms.144","geometry":{"type":"Point","coordinates":[-5.78,52.65]},"geometry_name":"the_geom","properties":{"country":"Ireland","name":"Mac Lir Offshore Wind","n_turbines":null,"power_mw":1000.0,"status":"Planned","type_inst":"Grounded","updateyear":"2026","year":"2030","dist_coast":26066.330415,"notes":null}},{"type":"Feature","id":"windfarms.145","geometry":{"type":"Point","coordinates":[-7.38,55.75]},"geometry_name":"the_geom","properties":{"country":"Ireland","name":"Malin Wind","n_turbines":null,"power_mw":1000.0,"status":"Planned","type_inst":"Grounded","updateyear":"2026","year":"2030","dist_coast":34479.736302,"notes":null}},{"type":"Feature","id":"windfarms.146","geometry":{"type":"Point","coordinates":[-10.33,52.45]},"geometry_name":"the_geom","properties":{"country":"Ireland","name":"Moneypoint Offshore One","n_turbines":null,"power_mw":400.0,"status":"Planned","type_inst":"Floating","updateyear":"2026","year":"2030","dist_coast":20416.3185178,"notes":null}},{"type":"Feature","id":"windfarms.147","geometry":{"type":"Point","coordinates":[-10.58,52.56]},"geometry_name":"the_geom","properties":{"country":"Ireland","name":"Moneypoint Offshore Two","n_turbines":null,"power_mw":1100.0,"status":"Planned","type_inst":"Floating","updateyear":"2026","year":"2030","dist_coast":38973.072091,"notes":null}},{"type":"Feature","id":"windfarms.152","geometry":{"type":"Point","coordinates":[-5.91,53.27]},"geometry_name":"the_geom","properties":{"country":"Ireland","name":"Sea Stacks","n_turbines":null,"power_mw":800.0,"status":"Planned","type_inst":"Grounded","updateyear":"2026","year":"2030","dist_coast":11416.6036788,"notes":null}},{"type":"Feature","id":"windfarms.153","geometry":{"type":"Point","coordinates":[-6.06,52.39]},"geometry_name":"the_geom","properties":{"country":"Ireland","name":"Shelmalere","n_turbines":null,"power_mw":1000.0,"status":"Planned","type_inst":"Grounded","updateyear":"2026","year":"2030","dist_coast":17654.7551243,"notes":null}},{"type":"Feature","id":"windfarms.166","geometry":{"type":"Point","coordinates":[-10.25,52.84]},"geometry_name":"the_geom","properties":{"country":"Ireland","name":"Western Star Floating Wind","n_turbines":null,"power_mw":1350.0,"status":"Planned","type_inst":"Floating","updateyear":"2026","year":"2032","dist_coast":21255.3770951,"notes":null}},{"type":"Feature","id":"windfarms.168","geometry":{"type":"Point","coordinates":[-5.7,52.86]},"geometry_name":"the_geom","properties":{"country":"Ireland","name":"Wicklow","n_turbines":null,"power_mw":500.0,"status":"Planned","type_inst":"Floating","updateyear":"2026","year":"2030","dist_coast":22755.1189981,"notes":null}},{"type":"Feature","id":"windfarms.483","geometry":{"type":"Point","coordinates":[-6.5569,51.7257]},"geometry_name":"the_geom","properties":{"country":"Ireland","name":"Danu offshore wind farm","n_turbines":null,"power_mw":1000.0,"status":"Planned","type_inst":"Floating","updateyear":"2026","year":"2031","dist_coast":43085.9305522,"notes":null}},{"type":"Feature","id":"windfarms.510","geometry":{"type":"Point","coordinates":[-8.9983,51.4316]},"geometry_name":"the_geom","properties":{"country":"Ireland","name":"Floating Cork Offshore Wind","n_turbines":null,"power_mw":1000.0,"status":"Planned","type_inst":"Floating","updateyear":"2026","year":"2031","dist_coast":11412.9438719,"notes":null}},{"type":"Feature","id":"windfarms.522","geometry":{"type":"Point","coordinates":[-10.1478,52.5136]},"geometry_name":"the_geom","properties":{"country":"Ireland","name":"Tarbert Offshore wind farm","n_turbines":null,"power_mw":1000.0,"status":"Planned","type_inst":null,"updateyear":"2026","year":"2030","dist_coast":15040.1639498,"notes":null}},{"type":"Feature","id":"windfarms.523","geometry":{"type":"Point","coordinates":[-5.7523,53.5026]},"geometry_name":"the_geom","properties":{"country":"Ireland","name":"South Irish Sea Offshore wind farm","n_turbines":null,"power_mw":1330.0,"status":"Planned","type_inst":"Floating","updateyear":"2026","year":"2030","dist_coast":16105.4265031,"notes":null}},{"type":"Feature","id":"windfarms.524","geometry":{"type":"Point","coordinates":[-6.9112,51.5734]},"geometry_name":"the_geom","properties":{"country":"Ireland","name":"Muirgen Offshore wind farm","n_turbines":null,"power_mw":1000.0,"status":"Planned","type_inst":"Floating","updateyear":"2026","year":"2031","dist_coast":61465.6424809,"notes":null}},{"type":"Feature","id":"windfarms.525","geometry":{"type":"Point","coordinates":[-5.9743,53.1228]},"geometry_name":"the_geom","properties":{"country":"Ireland","name":"Leinster Offshore wind farm","n_turbines":null,"power_mw":500.0,"status":"Planned","type_inst":"Floating","updateyear":"2026","year":"2030","dist_coast":4547.67441257,"notes":null}},{"type":"Feature","id":"windfarms.373","geometry":{"type":"Point","coordinates":[2.5,52.7]},"geometry_name":"the_geom","properties":{"country":"United Kingdom","name":"East Anglia Two","n_turbines":75,"power_mw":900.0,"status":"Approved","type_inst":null,"updateyear":"2025","year":null,"dist_coast":51624.2767506,"notes":null}},{"type":"Feature","id":"windfarms.375","geometry":{"type":"Point","coordinates":[-3.02,56.14]},"geometry_name":"the_geom","properties":{"country":"United Kingdom","name":"Forthwind Offshore Wind Demonstration Project - 2","n_turbines":7,"power_mw":53.0,"status":"Planned","type_inst":null,"updateyear":"2024","year":null,"dist_coast":3147.54814398,"notes":null}},{"type":"Feature","id":"windfarms.592","geometry":{"type":"Point","coordinates":[-1.35,55.19]},"geometry_name":"the_geom","properties":{"country":"United Kingdom","name":"Blyth Offshore - 3A-4","n_turbines":10,"power_mw":58.4,"status":"Approved","type_inst":null,"updateyear":"2026","year":null,"dist_coast":9522.39647098,"notes":null}},{"type":"Feature","id":"windfarms.115","geometry":{"type":"Point","coordinates":[-8.87,54.42]},"geometry_name":"the_geom","properties":{"country":"Ireland","name":"Aniar Offshore Array Phase 1","n_turbines":null,"power_mw":500.0,"status":"Planned","type_inst":"Grounded","updateyear":"2026","year":null,"dist_coast":12758.7601381,"notes":null}},{"type":"Feature","id":"windfarms.116","geometry":{"type":"Point","coordinates":[-9.11,54.59]},"geometry_name":"the_geom","properties":{"country":"Ireland","name":"Aniar Offshore Array Phase 2","n_turbines":null,"power_mw":500.0,"status":"Planned","type_inst":"Floating","updateyear":"2026","year":null,"dist_coast":19210.4766561,"notes":null}},{"type":"Feature","id":"windfarms.117","geometry":{"type":"Point","coordinates":[-8.9,54.9]},"geometry_name":"the_geom","properties":{"country":"Ireland","name":"Arranmore Wind","n_turbines":null,"power_mw":1000.0,"status":"Planned","type_inst":"Floating","updateyear":"2026","year":null,"dist_coast":20102.2274743,"notes":null}},{"type":"Feature","id":"windfarms.118","geometry":{"type":"Point","coordinates":[-10.26,54.27]},"geometry_name":"the_geom","properties":{"country":"Ireland","name":"Atlantic Marine Energy Test Site","n_turbines":null,"power_mw":10.0,"status":"Approved","type_inst":"Floating","updateyear":"2026","year":null,"dist_coast":10314.8881111,"notes":null}},{"type":"Feature","id":"windfarms.119","geometry":{"type":"Point","coordinates":[-5.8,52.99]},"geometry_name":"the_geom","properties":{"country":"Ireland","name":"Banba Wind","n_turbines":null,"power_mw":1000.0,"status":"Planned","type_inst":null,"updateyear":"2024","year":null,"dist_coast":13553.6273078,"notes":null}},{"type":"Feature","id":"windfarms.121","geometry":{"type":"Point","coordinates":[-6.51,51.98]},"geometry_name":"the_geom","properties":{"country":"Ireland","name":"Bore Array","n_turbines":null,"power_mw":500.0,"status":"Planned","type_inst":null,"updateyear":"2024","year":null,"dist_coast":16347.5124233,"notes":null}},{"type":"Feature","id":"windfarms.122","geometry":{"type":"Point","coordinates":[-6.55,51.99]},"geometry_name":"the_geom","properties":{"country":"Ireland","name":"Celtic Horizon","n_turbines":null,"power_mw":700.0,"status":"Planned","type_inst":null,"updateyear":"2024","year":null,"dist_coast":14206.1470882,"notes":null}},{"type":"Feature","id":"windfarms.123","geometry":{"type":"Point","coordinates":[-6.76,51.51]},"geometry_name":"the_geom","properties":{"country":"Ireland","name":"Celtic Offshore Renewable Energy","n_turbines":null,"power_mw":1680.0,"status":"Planned","type_inst":"Floating","updateyear":"2026","year":null,"dist_coast":67589.9825052,"notes":null}},{"type":"Feature","id":"windfarms.124","geometry":{"type":"Point","coordinates":[-7.46,51.81]},"geometry_name":"the_geom","properties":{"country":"Ireland","name":"Celtic One","n_turbines":null,"power_mw":800.0,"status":"Planned","type_inst":null,"updateyear":"2024","year":null,"dist_coast":21928.7593977,"notes":null}},{"type":"Feature","id":"windfarms.125","geometry":{"type":"Point","coordinates":[-7.1,51.5]},"geometry_name":"the_geom","properties":{"country":"Ireland","name":"Celtic Two","n_turbines":null,"power_mw":800.0,"status":"Planned","type_inst":null,"updateyear":"2024","year":null,"dist_coast":64429.0986643,"notes":null}},{"type":"Feature","id":"windfarms.126","geometry":{"type":"Point","coordinates":[-10.27,52.71]},"geometry_name":"the_geom","properties":{"country":"Ireland","name":"Clarus","n_turbines":null,"power_mw":1000.0,"status":"Planned","type_inst":"Floating","updateyear":"2026","year":null,"dist_coast":27917.5702481,"notes":null}},{"type":"Feature","id":"windfarms.127","geometry":{"type":"Point","coordinates":[-8.98,51.25]},"geometry_name":"the_geom","properties":{"country":"Ireland","name":"Cork Offshore Wind","n_turbines":null,"power_mw":1000.0,"status":"Planned","type_inst":null,"updateyear":"2024","year":null,"dist_coast":31014.5951518,"notes":null}},{"type":"Feature","id":"windfarms.128","geometry":{"type":"Point","coordinates":[-6.1,53.75]},"geometry_name":"the_geom","properties":{"country":"Ireland","name":"Dublin North East Wind","n_turbines":null,"power_mw":2500.0,"status":"Planned","type_inst":null,"updateyear":"2024","year":null,"dist_coast":9205.84180921,"notes":null}},{"type":"Feature","id":"windfarms.129","geometry":{"type":"Point","coordinates":[-6.88,51.95]},"geometry_name":"the_geom","properties":{"country":"Ireland","name":"East Celtic","n_turbines":null,"power_mw":900.0,"status":"Planned","type_inst":"Grounded","updateyear":"2026","year":null,"dist_coast":19662.6163231,"notes":null}},{"type":"Feature","id":"windfarms.130","geometry":{"type":"Point","coordinates":[-8.08,51.36]},"geometry_name":"the_geom","properties":{"country":"Ireland","name":"Emerald - Commercial","n_turbines":null,"power_mw":700.0,"status":"Planned","type_inst":null,"updateyear":"2024","year":null,"dist_coast":41647.6605013,"notes":null}},{"type":"Feature","id":"windfarms.131","geometry":{"type":"Point","coordinates":[-8.08,51.36]},"geometry_name":"the_geom","properties":{"country":"Ireland","name":"Emerald - Demonstration","n_turbines":null,"power_mw":300.0,"status":"Planned","type_inst":null,"updateyear":"2024","year":null,"dist_coast":41647.6605013,"notes":null}},{"type":"Feature","id":"windfarms.132","geometry":{"type":"Point","coordinates":[-5.72,53.25]},"geometry_name":"the_geom","properties":{"country":"Ireland","name":"Greystones","n_turbines":null,"power_mw":1000.0,"status":"Planned","type_inst":"Grounded","updateyear":"2026","year":null,"dist_coast":24171.7865079,"notes":null}},{"type":"Feature","id":"windfarms.134","geometry":{"type":"Point","coordinates":[-7.28,51.97]},"geometry_name":"the_geom","properties":{"country":"Ireland","name":"Helvick Head","n_turbines":null,"power_mw":800.0,"status":"Planned","type_inst":null,"updateyear":"2024","year":null,"dist_coast":18322.4778003,"notes":null}},{"type":"Feature","id":"windfarms.135","geometry":{"type":"Point","coordinates":[-10.06,52.45]},"geometry_name":"the_geom","properties":{"country":"Ireland","name":"Ilen Array","n_turbines":null,"power_mw":1500.0,"status":"Planned","type_inst":null,"updateyear":"2024","year":null,"dist_coast":8416.23575012,"notes":null}},{"type":"Feature","id":"windfarms.137","geometry":{"type":"Point","coordinates":[-10.25,52.37]},"geometry_name":"the_geom","properties":{"country":"Ireland","name":"Inis Offshore Wind Kerry","n_turbines":null,"power_mw":1000.0,"status":"Planned","type_inst":null,"updateyear":"2024","year":null,"dist_coast":10083.5262971,"notes":null}},{"type":"Feature","id":"windfarms.138","geometry":{"type":"Point","coordinates":[-5.67,53.25]},"geometry_name":"the_geom","properties":{"country":"Ireland","name":"Inis Offshore Wind Leinster","n_turbines":null,"power_mw":500.0,"status":"Planned","type_inst":null,"updateyear":"2024","year":null,"dist_coast":27481.8217716,"notes":null}},{"type":"Feature","id":"windfarms.139","geometry":{"type":"Point","coordinates":[-9.88,52.78]},"geometry_name":"the_geom","properties":{"country":"Ireland","name":"Inis Offshore Wind Munster","n_turbines":null,"power_mw":1000.0,"status":"Planned","type_inst":null,"updateyear":"2024","year":null,"dist_coast":17174.9341662,"notes":null}},{"type":"Feature","id":"windfarms.142","geometry":{"type":"Point","coordinates":[-5.8,53.56]},"geometry_name":"the_geom","properties":{"country":"Ireland","name":"Lir Offshore Array","n_turbines":null,"power_mw":2000.0,"status":"Planned","type_inst":null,"updateyear":"2024","year":null,"dist_coast":13995.8286245,"notes":null}},{"type":"Feature","id":"windfarms.143","geometry":{"type":"Point","coordinates":[-6.09,52.54]},"geometry_name":"the_geom","properties":{"country":"Ireland","name":"Loch Garman","n_turbines":null,"power_mw":750.0,"status":"Planned","type_inst":"Grounded","updateyear":"2026","year":null,"dist_coast":7505.28456867,"notes":null}},{"type":"Feature","id":"windfarms.148","geometry":{"type":"Point","coordinates":[-6.9,51.66]},"geometry_name":"the_geom","properties":{"country":"Ireland","name":"P\u00e9arla Offshore Windfarm","n_turbines":null,"power_mw":1000.0,"status":"Planned","type_inst":null,"updateyear":"2024","year":null,"dist_coast":51821.3894014,"notes":null}},{"type":"Feature","id":"windfarms.149","geometry":{"type":"Point","coordinates":[-5.84,52.92]},"geometry_name":"the_geom","properties":{"country":"Ireland","name":"R\u00e9alt na Mara","n_turbines":null,"power_mw":1600.0,"status":"Planned","type_inst":"Grounded","updateyear":"2026","year":null,"dist_coast":11667.7352692,"notes":null}},{"type":"Feature","id":"windfarms.150","geometry":{"type":"Point","coordinates":[-11.06,52.46]},"geometry_name":"the_geom","properties":{"country":"Ireland","name":"Rian Offshore Array Phase 1","n_turbines":null,"power_mw":2500.0,"status":"Planned","type_inst":"Floating","updateyear":"2026","year":null,"dist_coast":48923.5473201,"notes":null}},{"type":"Feature","id":"windfarms.155","geometry":{"type":"Point","coordinates":[-6.99,51.98]},"geometry_name":"the_geom","properties":{"country":"Ireland","name":"SSE Renewables Celtic Sea","n_turbines":null,"power_mw":800.0,"status":"Planned","type_inst":null,"updateyear":"2024","year":null,"dist_coast":16514.8521641,"notes":null}},{"type":"Feature","id":"windfarms.157","geometry":{"type":"Point","coordinates":[-5.83,53.24]},"geometry_name":"the_geom","properties":{"country":"Ireland","name":"Sunrise Wind (IE)","n_turbines":null,"power_mw":1330.0,"status":"Planned","type_inst":"Grounded","updateyear":"2026","year":null,"dist_coast":17107.5464336,"notes":null}},{"type":"Feature","id":"windfarms.158","geometry":{"type":"Point","coordinates":[-9.97,52.56]},"geometry_name":"the_geom","properties":{"country":"Ireland","name":"Tralee South West Wind","n_turbines":null,"power_mw":2500.0,"status":"Planned","type_inst":null,"updateyear":"2024","year":null,"dist_coast":2140.10689903,"notes":null}},{"type":"Feature","id":"windfarms.159","geometry":{"type":"Point","coordinates":[-8.85,51.38]},"geometry_name":"the_geom","properties":{"country":"Ireland","name":"Tulca Offshore Array Phase 1","n_turbines":null,"power_mw":1650.0,"status":"Planned","type_inst":"Floating","updateyear":"2026","year":null,"dist_coast":18193.8532338,"notes":null}},{"type":"Feature","id":"windfarms.160","geometry":{"type":"Point","coordinates":[-8.82,51.38]},"geometry_name":"the_geom","properties":{"country":"Ireland","name":"Tulca Offshore Array Phase 2","n_turbines":null,"power_mw":2240.0,"status":"Planned","type_inst":"Floating","updateyear":"2026","year":null,"dist_coast":19099.287358,"notes":null}},{"type":"Feature","id":"windfarms.161","geometry":{"type":"Point","coordinates":[-10.06,51.43]},"geometry_name":"the_geom","properties":{"country":"Ireland","name":"Urban Sea","n_turbines":null,"power_mw":4000.0,"status":"Planned","type_inst":null,"updateyear":"2024","year":null,"dist_coast":16354.1655606,"notes":null}},{"type":"Feature","id":"windfarms.162","geometry":{"type":"Point","coordinates":[-10.81,51.83]},"geometry_name":"the_geom","properties":{"country":"Ireland","name":"Valentia Phase 1","n_turbines":null,"power_mw":920.0,"status":"Planned","type_inst":"Floating","updateyear":"2026","year":null,"dist_coast":19409.6034373,"notes":null}},{"type":"Feature","id":"windfarms.163","geometry":{"type":"Point","coordinates":[-10.95,51.96]},"geometry_name":"the_geom","properties":{"country":"Ireland","name":"Valentia Phase 2","n_turbines":null,"power_mw":620.0,"status":"Planned","type_inst":"Floating","updateyear":"2026","year":null,"dist_coast":23496.5012982,"notes":null}},{"type":"Feature","id":"windfarms.164","geometry":{"type":"Point","coordinates":[-7.35,51.36]},"geometry_name":"the_geom","properties":{"country":"Ireland","name":"Voyage Offshore Array","n_turbines":null,"power_mw":2900.0,"status":"Planned","type_inst":null,"updateyear":"2024","year":null,"dist_coast":67873.235712,"notes":null}},{"type":"Feature","id":"windfarms.165","geometry":{"type":"Point","coordinates":[-8.93,55.54]},"geometry_name":"the_geom","properties":{"country":"Ireland","name":"West Ireland","n_turbines":null,"power_mw":2000.0,"status":"Planned","type_inst":null,"updateyear":"2024","year":null,"dist_coast":52006.7606684,"notes":null}},{"type":"Feature","id":"windfarms.167","geometry":{"type":"Point","coordinates":[-6.74,51.57]},"geometry_name":"the_geom","properties":{"country":"Ireland","name":"Wexford South East Wind","n_turbines":null,"power_mw":2500.0,"status":"Planned","type_inst":null,"updateyear":"2024","year":null,"dist_coast":60765.5432913,"notes":null}},{"type":"Feature","id":"windfarms.363","geometry":{"type":"Point","coordinates":[-3.24,60.15]},"geometry_name":"the_geom","properties":{"country":"United Kingdom","name":"Aspen","n_turbines":null,"power_mw":1500.0,"status":"Planned","type_inst":null,"updateyear":"2024","year":null,"dist_coast":62514.2018025,"notes":null}},{"type":"Feature","id":"windfarms.364","geometry":{"type":"Point","coordinates":[-0.43,58.23]},"geometry_name":"the_geom","properties":{"country":"United Kingdom","name":"Avalon","n_turbines":null,"power_mw":1500.0,"status":"Planned","type_inst":null,"updateyear":"2024","year":null,"dist_coast":107727.605862,"notes":null}},{"type":"Feature","id":"windfarms.366","geometry":{"type":"Point","coordinates":[1.4,56.67]},"geometry_name":"the_geom","properties":{"country":"United Kingdom","name":"Beech South","n_turbines":null,"power_mw":1500.0,"status":"Planned","type_inst":null,"updateyear":"2024","year":null,"dist_coast":211714.8314,"notes":null}},{"type":"Feature","id":"windfarms.367","geometry":{"type":"Point","coordinates":[0.51,57.58]},"geometry_name":"the_geom","properties":{"country":"United Kingdom","name":"Cenos","n_turbines":null,"power_mw":1400.0,"status":"Planned","type_inst":null,"updateyear":"2024","year":null,"dist_coast":136577.19715,"notes":null}},{"type":"Feature","id":"windfarms.368","geometry":{"type":"Point","coordinates":[1.96,57.11]},"geometry_name":"the_geom","properties":{"country":"United Kingdom","name":"Central North Sea Electrification","n_turbines":null,"power_mw":250.0,"status":"Planned","type_inst":null,"updateyear":"2024","year":null,"dist_coast":228547.925475,"notes":null}},{"type":"Feature","id":"windfarms.369","geometry":{"type":"Point","coordinates":[-2.09,59.56]},"geometry_name":"the_geom","properties":{"country":"United Kingdom","name":"Dolphyn (commercial)","n_turbines":null,"power_mw":300.0,"status":"Planned","type_inst":null,"updateyear":"2024","year":null,"dist_coast":24726.4025488,"notes":null}},{"type":"Feature","id":"windfarms.370","geometry":{"type":"Point","coordinates":[-2.09,59.54]},"geometry_name":"the_geom","properties":{"country":"United Kingdom","name":"Dolphyn (full scale)","n_turbines":null,"power_mw":2000.0,"status":"Planned","type_inst":null,"updateyear":"2024","year":null,"dist_coast":23149.1157203,"notes":null}},{"type":"Feature","id":"windfarms.371","geometry":{"type":"Point","coordinates":[-1.88,56.97]},"geometry_name":"the_geom","properties":{"country":"United Kingdom","name":"Dolphyn (precommercial)","n_turbines":null,"power_mw":10.0,"status":"Planned","type_inst":null,"updateyear":"2024","year":null,"dist_coast":16774.3742274,"notes":null}},{"type":"Feature","id":"windfarms.372","geometry":{"type":"Point","coordinates":[-4.77,53.19]},"geometry_name":"the_geom","properties":{"country":"United Kingdom","name":"Draig Y M\u00f4r","n_turbines":null,"power_mw":100.0,"status":"Planned","type_inst":null,"updateyear":"2024","year":null,"dist_coast":11892.9628275,"notes":null}},{"type":"Feature","id":"windfarms.374","geometry":{"type":"Point","coordinates":[-5.6,51.38]},"geometry_name":"the_geom","properties":{"country":"United Kingdom","name":"Erebus (Commercial) Blue Gem Wind","n_turbines":null,"power_mw":600.0,"status":"Planned","type_inst":null,"updateyear":"2025","year":null,"dist_coast":41129.0283058,"notes":null}},{"type":"Feature","id":"windfarms.376","geometry":{"type":"Point","coordinates":[-1.24,57.88]},"geometry_name":"the_geom","properties":{"country":"United Kingdom","name":"Harbour Energy North (INTOG)","n_turbines":null,"power_mw":15.0,"status":"Planned","type_inst":null,"updateyear":"2024","year":null,"dist_coast":45857.6586329,"notes":null}},{"type":"Feature","id":"windfarms.377","geometry":{"type":"Point","coordinates":[-5.45,51.34]},"geometry_name":"the_geom","properties":{"country":"United Kingdom","name":"Llyr 1","n_turbines":null,"power_mw":100.0,"status":"Planned","type_inst":null,"updateyear":"2024","year":null,"dist_coast":41039.1264196,"notes":null}},{"type":"Feature","id":"windfarms.378","geometry":{"type":"Point","coordinates":[-5.27,51.34]},"geometry_name":"the_geom","properties":{"country":"United Kingdom","name":"Llyr 2","n_turbines":null,"power_mw":100.0,"status":"Planned","type_inst":null,"updateyear":"2024","year":null,"dist_coast":34555.9439051,"notes":null}},{"type":"Feature","id":"windfarms.379","geometry":{"type":"Point","coordinates":[-5.8,51.11]},"geometry_name":"the_geom","properties":{"country":"United Kingdom","name":"Llywelyn","n_turbines":null,"power_mw":300.0,"status":"Planned","type_inst":null,"updateyear":"2024","year":null,"dist_coast":74172.563433,"notes":null}},{"type":"Feature","id":"windfarms.380","geometry":{"type":"Point","coordinates":[1.53,58.15]},"geometry_name":"the_geom","properties":{"country":"United Kingdom","name":"Neos","n_turbines":null,"power_mw":25.0,"status":"Planned","type_inst":null,"updateyear":"2024","year":null,"dist_coast":208004.426183,"notes":null}},{"type":"Feature","id":"windfarms.381","geometry":{"type":"Point","coordinates":[-6.52,55.58]},"geometry_name":"the_geom","properties":{"country":"United Kingdom","name":"Nomadic Offshore Wind","n_turbines":null,"power_mw":400.0,"status":"Planned","type_inst":null,"updateyear":"2024","year":null,"dist_coast":10269.3057712,"notes":null}},{"type":"Feature","id":"windfarms.382","geometry":{"type":"Point","coordinates":[-5.66,55.04]},"geometry_name":"the_geom","properties":{"country":"United Kingdom","name":"North Channel Wind 1","n_turbines":null,"power_mw":300.0,"status":"Planned","type_inst":null,"updateyear":"2024","year":null,"dist_coast":10570.3330422,"notes":null}},{"type":"Feature","id":"windfarms.383","geometry":{"type":"Point","coordinates":[-5.35,54.76]},"geometry_name":"the_geom","properties":{"country":"United Kingdom","name":"North Channel Wind 2","n_turbines":null,"power_mw":100.0,"status":"Planned","type_inst":null,"updateyear":"2024","year":null,"dist_coast":12367.9192192,"notes":null}},{"type":"Feature","id":"windfarms.384","geometry":{"type":"Point","coordinates":[-5.53,54.27]},"geometry_name":"the_geom","properties":{"country":"United Kingdom","name":"Olympic Wind (GB)","n_turbines":null,"power_mw":1300.0,"status":"Planned","type_inst":null,"updateyear":"2024","year":null,"dist_coast":2638.98948833,"notes":null}},{"type":"Feature","id":"windfarms.385","geometry":{"type":"Point","coordinates":[-0.56,58.12]},"geometry_name":"the_geom","properties":{"country":"United Kingdom","name":"Orcadian Microgrid","n_turbines":null,"power_mw":105.0,"status":"Planned","type_inst":null,"updateyear":"2024","year":null,"dist_coast":94125.8368375,"notes":null}},{"type":"Feature","id":"windfarms.386","geometry":{"type":"Point","coordinates":[-5.49,50.94]},"geometry_name":"the_geom","properties":{"country":"United Kingdom","name":"Petroc","n_turbines":null,"power_mw":300.0,"status":"Planned","type_inst":null,"updateyear":"2024","year":null,"dist_coast":53405.1485951,"notes":null}},{"type":"Feature","id":"windfarms.387","geometry":{"type":"Point","coordinates":[-1.86,57.05]},"geometry_name":"the_geom","properties":{"country":"United Kingdom","name":"SENSE Wind Pelastar Full-Scale Prototype","n_turbines":null,"power_mw":15.0,"status":"Planned","type_inst":null,"updateyear":"2024","year":null,"dist_coast":13953.9707152,"notes":null}},{"type":"Feature","id":"windfarms.388","geometry":{"type":"Point","coordinates":[-2.03,57.17]},"geometry_name":"the_geom","properties":{"country":"United Kingdom","name":"SENSEWind Demonstrator","n_turbines":null,"power_mw":2.0,"status":"Planned","type_inst":null,"updateyear":"2024","year":null,"dist_coast":2899.16825561,"notes":null}},{"type":"Feature","id":"windfarms.389","geometry":{"type":"Point","coordinates":[-6.92,55.57]},"geometry_name":"the_geom","properties":{"country":"United Kingdom","name":"Shearwater One","n_turbines":null,"power_mw":3000.0,"status":"Planned","type_inst":null,"updateyear":"2024","year":null,"dist_coast":24266.7172481,"notes":null}},{"type":"Feature","id":"windfarms.390","geometry":{"type":"Point","coordinates":[-0.679,58.41]},"geometry_name":"the_geom","properties":{"country":"United Kingdom","name":"Spiorad na Mara","n_turbines":null,"power_mw":840.0,"status":"Planned","type_inst":null,"updateyear":"2024","year":null,"dist_coast":110292.138228,"notes":null}},{"type":"Feature","id":"windfarms.391","geometry":{"type":"Point","coordinates":[-4.85,51.62]},"geometry_name":"the_geom","properties":{"country":"United Kingdom","name":"Trivane Demonstrator","n_turbines":null,"power_mw":1.0,"status":"Planned","type_inst":null,"updateyear":"2024","year":null,"dist_coast":2287.98315766,"notes":null}},{"type":"Feature","id":"windfarms.393","geometry":{"type":"Point","coordinates":[-5.02,50.91]},"geometry_name":"the_geom","properties":{"country":"United Kingdom","name":"Whitecross","n_turbines":null,"power_mw":100.0,"status":"Planned","type_inst":null,"updateyear":"2024","year":null,"dist_coast":31697.6422517,"notes":null}},{"type":"Feature","id":"windfarms.488","geometry":{"type":"Point","coordinates":[-8.2376,51.7071]},"geometry_name":"the_geom","properties":{"country":"Ireland","name":"Knockraha wind farm","n_turbines":null,"power_mw":378.0,"status":"Planned","type_inst":null,"updateyear":"2026","year":null,"dist_coast":5868.59185686,"notes":null}},{"type":"Feature","id":"windfarms.511","geometry":{"type":"Point","coordinates":[-6.4717,52.0978]},"geometry_name":"the_geom","properties":{"country":"Ireland","name":"Great Island wind farm","n_turbines":null,"power_mw":378.0,"status":"Planned","type_inst":null,"updateyear":"2026","year":null,"dist_coast":8683.92916065,"notes":null}},{"type":"Feature","id":"windfarms.512","geometry":{"type":"Point","coordinates":[-8.0801,51.3601]},"geometry_name":"the_geom","properties":{"country":"Ireland","name":"Emerald floating wind farm 2","n_turbines":null,"power_mw":1000.0,"status":"Planned","type_inst":"Floating","updateyear":"2026","year":null,"dist_coast":41635.0455,"notes":null}},{"type":"Feature","id":"windfarms.513","geometry":{"type":"Point","coordinates":[-8.0801,51.3601]},"geometry_name":"the_geom","properties":{"country":"Ireland","name":"Emerald floating wind farm 1","n_turbines":null,"power_mw":300.0,"status":"Planned","type_inst":"Floating","updateyear":"2026","year":null,"dist_coast":41635.0455,"notes":null}},{"type":"Feature","id":"windfarms.514","geometry":{"type":"Point","coordinates":[-9.4782,52.6809]},"geometry_name":"the_geom","properties":{"country":"Ireland","name":"Cureeny wind farm","n_turbines":null,"power_mw":378.0,"status":"Planned","type_inst":null,"updateyear":"2026","year":null,"dist_coast":4498.97696731,"notes":null}},{"type":"Feature","id":"windfarms.526","geometry":{"type":"Point","coordinates":[-10.0371,52.5897]},"geometry_name":"the_geom","properties":{"country":"Ireland","name":"Kerry Offshore wind farm","n_turbines":null,"power_mw":1000.0,"status":"Planned","type_inst":"Floating","updateyear":"2026","year":null,"dist_coast":7427.91167046,"notes":null}},{"type":"Feature","id":"windfarms.597","geometry":{"type":"Point","coordinates":[-3.7,50]},"geometry_name":"the_geom","properties":{"country":"United Kingdom","name":"Portwind","n_turbines":null,"power_mw":2000.0,"status":"Planned","type_inst":null,"updateyear":"2026","year":null,"dist_coast":22610.9815185,"notes":null}},{"type":"Feature","id":"windfarms.631","geometry":{"type":"Point","coordinates":[-3.8,58.9]},"geometry_name":"the_geom","properties":{"country":"United Kingdom","name":"Floating Wind Test Site","n_turbines":null,"power_mw":60.0,"status":"Planned","type_inst":null,"updateyear":"2026","year":null,"dist_coast":21158.2023917,"notes":null}},{"type":"Feature","id":"windfarms.133","geometry":{"type":"Point","coordinates":[-7.43,55.69]},"geometry_name":"the_geom","properties":{"country":"Ireland","name":"Haven Offshore Array","n_turbines":null,"power_mw":null,"status":"Planned","type_inst":null,"updateyear":"2024","year":null,"dist_coast":29137.5840165,"notes":null}},{"type":"Feature","id":"windfarms.151","geometry":{"type":"Point","coordinates":[-11.33,52.29]},"geometry_name":"the_geom","properties":{"country":"Ireland","name":"Rian Offshore Array Phase 2","n_turbines":null,"power_mw":null,"status":"Planned","type_inst":null,"updateyear":"2024","year":null,"dist_coast":51419.3408888,"notes":null}},{"type":"Feature","id":"windfarms.154","geometry":{"type":"Point","coordinates":[-9.27,53.23]},"geometry_name":"the_geom","properties":{"country":"Ireland","name":"SmartBay","n_turbines":null,"power_mw":null,"status":"Planned","type_inst":null,"updateyear":"2024","year":null,"dist_coast":1424.28016512,"notes":null}},{"type":"Feature","id":"windfarms.156","geometry":{"type":"Point","coordinates":[-10.1,52.61]},"geometry_name":"the_geom","properties":{"country":"Ireland","name":"SSE Tarbert","n_turbines":null,"power_mw":null,"status":"Planned","type_inst":null,"updateyear":"2024","year":null,"dist_coast":12236.5494075,"notes":null}}],"numberReturned":101,"timeStamp":"2026-10-07T13:53:15.646Z","crs":{"type":"name","properties":{"name":"urn:ogc:def:crs:EPSG::4326"}},"helmlore_source":{"provider":"EMODnet Human Activities / CETMAR","metadata":"https://emodnet.ec.europa.eu/geonetwork/srv/api/records/8201070b-4b0b-4d54-8910-abcea5dce57f","licence":"CC BY 4.0","retrieved":"2026-10-07","changes":"Filtered to UK and Ireland country records intersecting study bounds [-12,49,3,61]; geometries not clipped. Points and polygons may represent the same site. Not a complete turbine or hazard inventory."}}