{"type":"FeatureCollection","features":[{"type":"Feature","id":"user-chart-1343","geometry":{"type":"Point","coordinates":[-3.6,54.55833333333333]},"properties":{"name":"Whitey Rock","mark_type":"special","structure":"can","colour":"yellow","light":null,"source_file":"IMG_1343.png","source":"User-supplied TimeZero chartplotter screenshot","position_status":"Current position confirmed by Clifton Taylor on 7 October 2026; not independently surveyed","confirmed_on":"2026-10-07","raw_position":"54\u00b033.500\u2032N, 003\u00b036.000\u2032W","area":"Cumbria coast","chart_edition":null,"datum":null}},{"type":"Feature","id":"user-chart-1344","geometry":{"type":"Point","coordinates":[-3.6101833333333335,54.54808333333333]},"properties":{"name":"Outer Limit Mark","mark_type":"special","structure":"can","colour":"yellow","light":null,"source_file":"IMG_1344.png","source":"User-supplied TimeZero chartplotter screenshot","position_status":"Current position confirmed by Clifton Taylor on 7 October 2026; not independently surveyed","confirmed_on":"2026-10-07","raw_position":"54\u00b032.885\u2032N, 003\u00b036.611\u2032W","area":"Cumbria coast","chart_edition":null,"datum":null}},{"type":"Feature","id":"user-chart-1345","geometry":{"type":"Point","coordinates":[-3.6333333333333333,54.53]},"properties":{"name":"Saltom Bay","mark_type":"special","structure":"can","colour":"yellow","light":null,"source_file":"IMG_1345.png","source":"User-supplied TimeZero chartplotter screenshot","position_status":"Current position confirmed by Clifton Taylor on 7 October 2026; not independently surveyed","confirmed_on":"2026-10-07","raw_position":"54\u00b031.800\u2032N, 003\u00b038.000\u2032W","area":"Cumbria coast","chart_edition":null,"datum":null}},{"type":"Feature","id":"user-chart-1346","geometry":{"type":"Point","coordinates":[-3.5951500000000003,54.67158333333333]},"properties":{"name":null,"mark_type":"starboard","structure":"buoy","colour":"green","light":"Fl(2) G 6s","source_file":"IMG_1346.png","source":"User-supplied TimeZero chartplotter screenshot","position_status":"Current position confirmed by Clifton Taylor on 7 October 2026; not independently surveyed","confirmed_on":"2026-10-07","raw_position":"54\u00b040.295\u2032N, 003\u00b035.709\u2032W","area":"Cumbria coast","chart_edition":null,"datum":null}},{"type":"Feature","id":"user-chart-1348","geometry":{"type":"Point","coordinates":[-3.5505,54.40605]},"properties":{"name":"BNF 2","mark_type":"starboard","structure":"buoy","colour":"green","light":null,"source_file":"IMG_1348.png","source":"User-supplied TimeZero chartplotter screenshot","position_status":"Current position confirmed by Clifton Taylor on 7 October 2026; not independently surveyed","confirmed_on":"2026-10-07","raw_position":"54\u00b024.363\u2032N, 003\u00b033.030\u2032W","area":"Cumbria coast","chart_edition":null,"datum":null}},{"type":"Feature","id":"user-chart-1349","geometry":{"type":"Point","coordinates":[-3.5482833333333335,54.40125]},"properties":{"name":"BNF 1","mark_type":"starboard","structure":"buoy","colour":"green","light":null,"source_file":"IMG_1349.png","source":"User-supplied TimeZero chartplotter screenshot","position_status":"Current position confirmed by Clifton Taylor on 7 October 2026; not independently surveyed","confirmed_on":"2026-10-07","raw_position":"54\u00b024.075\u2032N, 003\u00b032.897\u2032W","area":"Cumbria coast","chart_edition":null,"datum":null}},{"type":"Feature","id":"user-chart-1350","geometry":{"type":"Point","coordinates":[-3.5546,54.42093333333333]},"properties":{"name":null,"mark_type":"starboard","structure":"buoy","colour":"green","light":null,"source_file":"IMG_1350.png","source":"User-supplied TimeZero chartplotter screenshot","position_status":"Current position confirmed by Clifton Taylor on 7 October 2026; not independently surveyed","confirmed_on":"2026-10-07","raw_position":"54\u00b025.256\u2032N, 003\u00b033.276\u2032W","area":"Cumbria coast","chart_edition":null,"datum":null}},{"type":"Feature","id":"user-chart-1351","geometry":{"type":"Point","coordinates":[-3.541,54.429066666666664]},"properties":{"name":null,"mark_type":"starboard","structure":"buoy","colour":"green","light":null,"source_file":"IMG_1351.png","source":"User-supplied TimeZero chartplotter screenshot","position_status":"Current position confirmed by Clifton Taylor on 7 October 2026; not independently surveyed","confirmed_on":"2026-10-07","raw_position":"54\u00b025.744\u2032N, 003\u00b032.460\u2032W","area":"Cumbria coast","chart_edition":null,"datum":null}},{"type":"Feature","id":"user-chart-1352","geometry":{"type":"Point","coordinates":[-3.4940166666666665,54.269016666666666]},"properties":{"name":"Selker","mark_type":"starboard","structure":"buoy","colour":"green","light":"Fl(3) G 10s","source_file":"IMG_1352.png","source":"User-supplied TimeZero chartplotter screenshot","position_status":"Current position confirmed by Clifton Taylor on 7 October 2026; not independently surveyed","confirmed_on":"2026-10-07","raw_position":"54\u00b016.141\u2032N, 003\u00b029.641\u2032W","area":"Cumbria coast","chart_edition":null,"datum":null}},{"type":"Feature","id":"user-chart-1353","geometry":{"type":"Point","coordinates":[-3.2333333333333334,53.994166666666665]},"properties":{"name":null,"mark_type":"special","structure":"sphere","colour":"yellow","light":"Fl(5) Y 20s","source_file":"IMG_1353.png","source":"User-supplied TimeZero chartplotter screenshot","position_status":"Current position confirmed by Clifton Taylor on 7 October 2026; not independently surveyed","confirmed_on":"2026-10-07","raw_position":"53\u00b059.650\u2032N, 003\u00b014.000\u2032W","area":"Cumbria coast","chart_edition":null,"datum":null}},{"type":"Feature","id":"user-chart-1354","geometry":{"type":"Point","coordinates":[-3.1689333333333334,54.046083333333335]},"properties":{"name":"Walney","mark_type":"port","structure":"buoy","colour":"red","light":"Fl(4) R 10s","source_file":"IMG_1354.png","source":"User-supplied TimeZero chartplotter screenshot","position_status":"Current position confirmed by Clifton Taylor on 7 October 2026; not independently surveyed","confirmed_on":"2026-10-07","raw_position":"54\u00b002.765\u2032N, 003\u00b010.136\u2032W","area":"Barrow & Piel","chart_edition":null,"datum":null}},{"type":"Feature","id":"user-chart-1355","geometry":{"type":"Point","coordinates":[-3.1657333333333333,54.04591666666666]},"properties":{"name":"SEA 11","mark_type":"starboard","structure":"buoy","colour":"green","light":"Fl(5) G 10s","source_file":"IMG_1355.png","source":"User-supplied TimeZero chartplotter screenshot","position_status":"Current position confirmed by Clifton Taylor on 7 October 2026; not independently surveyed","confirmed_on":"2026-10-07","raw_position":"54\u00b002.755\u2032N, 003\u00b009.944\u2032W","area":"Barrow & Piel","chart_edition":null,"datum":null}},{"type":"Feature","id":"user-chart-1357","geometry":{"type":"Point","coordinates":[-3.1684833333333335,54.04996666666667]},"properties":{"name":"Hawes Point West","mark_type":"special","structure":"beacon","colour":"black","light":"Q R","source_file":"IMG_1357.png","source":"User-supplied TimeZero chartplotter screenshot","position_status":"Current position confirmed by Clifton Taylor on 7 October 2026; not independently surveyed","confirmed_on":"2026-10-07","raw_position":"54\u00b002.998\u2032N, 003\u00b010.109\u2032W","area":"Barrow & Piel","chart_edition":null,"datum":null}},{"type":"Feature","id":"user-chart-1358","geometry":{"type":"Point","coordinates":[-3.1641833333333333,54.05665]},"properties":{"name":"East Scar","mark_type":"starboard","structure":"buoy","colour":"green","light":"Fl G 5s","source_file":"IMG_1358.png","source":"User-supplied TimeZero chartplotter screenshot","position_status":"Current position confirmed by Clifton Taylor on 7 October 2026; not independently surveyed","confirmed_on":"2026-10-07","raw_position":"54\u00b003.399\u2032N, 003\u00b009.851\u2032W","area":"Barrow & Piel","chart_edition":null,"datum":null}},{"type":"Feature","id":"user-chart-1359","geometry":{"type":"Point","coordinates":[-3.16725,54.05681666666667]},"properties":{"name":"West Scar","mark_type":"port","structure":"buoy","colour":"red","light":"Fl R 5s","source_file":"IMG_1359.png","source":"User-supplied TimeZero chartplotter screenshot","position_status":"Current position confirmed by Clifton Taylor on 7 October 2026; not independently surveyed","confirmed_on":"2026-10-07","raw_position":"54\u00b003.409\u2032N, 003\u00b010.035\u2032W","area":"Barrow & Piel","chart_edition":null,"datum":null}},{"type":"Feature","id":"user-chart-1360","geometry":{"type":"Point","coordinates":[-3.1632333333333333,54.06321666666667]},"properties":{"name":"Foulney","mark_type":"starboard","structure":"buoy","colour":"green","light":"Fl(3) G 10s","source_file":"IMG_1360.png","source":"User-supplied TimeZero chartplotter screenshot","position_status":"Current position confirmed by Clifton Taylor on 7 October 2026; not independently surveyed","confirmed_on":"2026-10-07","raw_position":"54\u00b003.793\u2032N, 003\u00b009.794\u2032W","area":"Barrow & Piel","chart_edition":null,"datum":null}},{"type":"Feature","id":"user-chart-1361","geometry":{"type":"Point","coordinates":[-3.166333333333333,54.06335]},"properties":{"name":"Castle","mark_type":"port","structure":"buoy","colour":"red","light":"Fl(4) R 10s","source_file":"IMG_1361.png","source":"User-supplied TimeZero chartplotter screenshot","position_status":"Current position confirmed by Clifton Taylor on 7 October 2026; not independently surveyed","confirmed_on":"2026-10-07","raw_position":"54\u00b003.801\u2032N, 003\u00b009.980\u2032W","area":"Barrow & Piel","chart_edition":null,"datum":null}},{"type":"Feature","id":"user-chart-1362","geometry":{"type":"Point","coordinates":[-3.16405,54.06731666666666]},"properties":{"name":"Piel East","mark_type":"starboard","structure":"buoy","colour":"green","light":"Fl(5) G 10s","source_file":"IMG_1362.png","source":"User-supplied TimeZero chartplotter screenshot","position_status":"Current position confirmed by Clifton Taylor on 7 October 2026; not independently surveyed","confirmed_on":"2026-10-07","raw_position":"54\u00b004.039\u2032N, 003\u00b009.843\u2032W","area":"Barrow & Piel","chart_edition":null,"datum":null}},{"type":"Feature","id":"user-chart-1363","geometry":{"type":"Point","coordinates":[-3.167316666666667,54.06625]},"properties":{"name":"Piel West","mark_type":"port","structure":"buoy","colour":"red","light":"Fl R 2.5s","source_file":"IMG_1363.png","source":"User-supplied TimeZero chartplotter screenshot","position_status":"Current position confirmed by Clifton Taylor on 7 October 2026; not independently surveyed","confirmed_on":"2026-10-07","raw_position":"54\u00b003.975\u2032N, 003\u00b010.039\u2032W","area":"Barrow & Piel","chart_edition":null,"datum":null}},{"type":"Feature","id":"user-chart-1364","geometry":{"type":"Point","coordinates":[-3.1704333333333334,54.07033333333333]},"properties":{"name":"Roa","mark_type":"starboard","structure":"buoy","colour":"green","light":"Fl G 2.5s","source_file":"IMG_1364.png","source":"User-supplied TimeZero chartplotter screenshot","position_status":"Current position confirmed by Clifton Taylor on 7 October 2026; not independently surveyed","confirmed_on":"2026-10-07","raw_position":"54\u00b004.220\u2032N, 003\u00b010.226\u2032W","area":"Barrow & Piel","chart_edition":null,"datum":null}},{"type":"Feature","id":"user-chart-1365","geometry":{"type":"Point","coordinates":[-3.1719,54.068783333333336]},"properties":{"name":"Ridge","mark_type":"port","structure":"buoy","colour":"red","light":"Fl(2) R 5s","source_file":"IMG_1365.png","source":"User-supplied TimeZero chartplotter screenshot","position_status":"Current position confirmed by Clifton Taylor on 7 October 2026; not independently surveyed","confirmed_on":"2026-10-07","raw_position":"54\u00b004.127\u2032N, 003\u00b010.314\u2032W","area":"Barrow & Piel","chart_edition":null,"datum":null}},{"type":"Feature","id":"user-chart-1366","geometry":{"type":"Point","coordinates":[-3.1797833333333334,54.071266666666666]},"properties":{"name":"Number 2","mark_type":"port","structure":"buoy","colour":"red","light":"Fl R 10s","source_file":"IMG_1366.png","source":"User-supplied TimeZero chartplotter screenshot","position_status":"Current position confirmed by Clifton Taylor on 7 October 2026; not independently surveyed","confirmed_on":"2026-10-07","raw_position":"54\u00b004.276\u2032N, 003\u00b010.787\u2032W","area":"Barrow & Piel","chart_edition":null,"datum":null}},{"type":"Feature","id":"user-chart-1367","geometry":{"type":"Point","coordinates":[-3.1784333333333334,54.07281666666667]},"properties":{"name":"Number 1","mark_type":"starboard","structure":"buoy","colour":"green","light":"Fl(3) G 10s","source_file":"IMG_1367.png","source":"User-supplied TimeZero chartplotter screenshot","position_status":"Current position confirmed by Clifton Taylor on 7 October 2026; not independently surveyed","confirmed_on":"2026-10-07","raw_position":"54\u00b004.369\u2032N, 003\u00b010.706\u2032W","area":"Barrow & Piel","chart_edition":null,"datum":null}},{"type":"Feature","id":"user-chart-1368","geometry":{"type":"Point","coordinates":[-3.18775,54.0737]},"properties":{"name":"Pickle Scar","mark_type":"port","structure":"beacon","colour":"red","light":"Q R","source_file":"IMG_1368.png","source":"User-supplied TimeZero chartplotter screenshot","position_status":"Current position confirmed by Clifton Taylor on 7 October 2026; not independently surveyed","confirmed_on":"2026-10-07","raw_position":"54\u00b004.422\u2032N, 003\u00b011.265\u2032W","area":"Barrow & Piel","chart_edition":null,"datum":null}},{"type":"Feature","id":"user-chart-1369","geometry":{"type":"Point","coordinates":[-3.1864,54.07523333333334]},"properties":{"name":"Head Scar","mark_type":"starboard","structure":"beacon","colour":"green","light":"Q G","source_file":"IMG_1369.png","source":"User-supplied TimeZero chartplotter screenshot","position_status":"Current position confirmed by Clifton Taylor on 7 October 2026; not independently surveyed","confirmed_on":"2026-10-07","raw_position":"54\u00b004.514\u2032N, 003\u00b011.184\u2032W","area":"Barrow & Piel","chart_edition":null,"datum":null}},{"type":"Feature","id":"user-chart-1370","geometry":{"type":"Point","coordinates":[-2.7741333333333333,53.753683333333335]},"properties":{"name":null,"mark_type":"starboard","structure":"beacon","colour":null,"light":"Fl G 10s","source_file":"IMG_1370.png","source":"User-supplied TimeZero chartplotter screenshot","position_status":"Current position confirmed by Clifton Taylor on 7 October 2026; not independently surveyed","confirmed_on":"2026-10-07","raw_position":"53\u00b045.221\u2032N, 002\u00b046.448\u2032W","area":"Ribble & Preston","chart_edition":null,"datum":null}},{"type":"Feature","id":"user-chart-1371","geometry":{"type":"Point","coordinates":[-2.8214,53.7445]},"properties":{"name":null,"mark_type":"starboard","structure":"beacon","colour":null,"light":"Fl G 5s","source_file":"IMG_1371.png","source":"User-supplied TimeZero chartplotter screenshot","position_status":"Current position confirmed by Clifton Taylor on 7 October 2026; not independently surveyed","confirmed_on":"2026-10-07","raw_position":"53\u00b044.670\u2032N, 002\u00b049.284\u2032W","area":"Ribble & Preston","chart_edition":null,"datum":null}},{"type":"Feature","id":"user-chart-1372","geometry":{"type":"Point","coordinates":[-2.8627666666666665,53.735216666666666]},"properties":{"name":null,"mark_type":"starboard","structure":"beacon","colour":null,"light":"Fl(2) G 10s","source_file":"IMG_1372.png","source":"User-supplied TimeZero chartplotter screenshot","position_status":"Current position confirmed by Clifton Taylor on 7 October 2026; not independently surveyed","confirmed_on":"2026-10-07","raw_position":"53\u00b044.113\u2032N, 002\u00b051.766\u2032W","area":"Ribble & Preston","chart_edition":null,"datum":null}},{"type":"Feature","id":"user-chart-1373","geometry":{"type":"Point","coordinates":[-2.8901333333333334,53.73108333333333]},"properties":{"name":null,"mark_type":"starboard","structure":"beacon","colour":null,"light":"Fl G 5s","source_file":"IMG_1373.png","source":"User-supplied TimeZero chartplotter screenshot","position_status":"Current position confirmed by Clifton Taylor on 7 October 2026; not independently surveyed","confirmed_on":"2026-10-07","raw_position":"53\u00b043.865\u2032N, 002\u00b053.408\u2032W","area":"Ribble & Preston","chart_edition":null,"datum":null}},{"type":"Feature","id":"user-chart-1374","geometry":{"type":"Point","coordinates":[-2.936183333333333,53.727066666666666]},"properties":{"name":null,"mark_type":"starboard","structure":"beacon","colour":null,"light":"Fl G 5s","source_file":"IMG_1374.png","source":"User-supplied TimeZero chartplotter screenshot","position_status":"Current position confirmed by Clifton Taylor on 7 October 2026; not independently surveyed","confirmed_on":"2026-10-07","raw_position":"53\u00b043.624\u2032N, 002\u00b056.171\u2032W","area":"Ribble & Preston","chart_edition":null,"datum":null}},{"type":"Feature","id":"user-chart-1375","geometry":{"type":"Point","coordinates":[-2.9543833333333334,53.72925]},"properties":{"name":null,"mark_type":"port","structure":"beacon","colour":null,"light":"Fl R 5s","source_file":"IMG_1375.png","source":"User-supplied TimeZero chartplotter screenshot","position_status":"Current position confirmed by Clifton Taylor on 7 October 2026; not independently surveyed","confirmed_on":"2026-10-07","raw_position":"53\u00b043.755\u2032N, 002\u00b057.263\u2032W","area":"Ribble & Preston","chart_edition":null,"datum":null}},{"type":"Feature","id":"user-chart-1376","geometry":{"type":"Point","coordinates":[-2.96,53.73246666666667]},"properties":{"name":null,"mark_type":"port","structure":"beacon","colour":"red","light":null,"source_file":"IMG_1376.png","source":"User-supplied TimeZero chartplotter screenshot","position_status":"Current position confirmed by Clifton Taylor on 7 October 2026; not independently surveyed","confirmed_on":"2026-10-07","raw_position":"53\u00b043.948\u2032N, 002\u00b057.600\u2032W","area":"Ribble & Preston","chart_edition":null,"datum":null}},{"type":"Feature","id":"user-chart-1377","geometry":{"type":"Point","coordinates":[-2.9621166666666667,53.733266666666665]},"properties":{"name":null,"mark_type":"port","structure":"beacon","colour":"red","light":null,"source_file":"IMG_1377.png","source":"User-supplied TimeZero chartplotter screenshot","position_status":"Current position confirmed by Clifton Taylor on 7 October 2026; not independently surveyed","confirmed_on":"2026-10-07","raw_position":"53\u00b043.996\u2032N, 002\u00b057.727\u2032W","area":"Ribble & Preston","chart_edition":null,"datum":null}},{"type":"Feature","id":"user-chart-1378","geometry":{"type":"Point","coordinates":[-2.9720333333333335,53.7285]},"properties":{"name":null,"mark_type":"starboard","structure":"beacon","colour":null,"light":"Fl G 5s","source_file":"IMG_1378.png","source":"User-supplied TimeZero chartplotter screenshot","position_status":"Current position confirmed by Clifton Taylor on 7 October 2026; not independently surveyed","confirmed_on":"2026-10-07","raw_position":"53\u00b043.710\u2032N, 002\u00b058.322\u2032W","area":"Ribble & Preston","chart_edition":null,"datum":null}},{"type":"Feature","id":"user-chart-1379","geometry":{"type":"Point","coordinates":[-2.983216666666667,53.73023333333333]},"properties":{"name":null,"mark_type":"port","structure":"buoy","colour":"red","light":"Fl R 5s","source_file":"IMG_1379.png","source":"User-supplied TimeZero chartplotter screenshot","position_status":"Current position confirmed by Clifton Taylor on 7 October 2026; not independently surveyed","confirmed_on":"2026-10-07","raw_position":"53\u00b043.814\u2032N, 002\u00b058.993\u2032W","area":"Ribble & Preston","chart_edition":null,"datum":null}},{"type":"Feature","id":"user-chart-1381","geometry":{"type":"Point","coordinates":[-3.0252666666666665,53.725233333333335]},"properties":{"name":null,"mark_type":"cardinal_south","structure":"beacon","colour":"yellow_black","light":"Q(6)+LFl W 15s","source_file":"IMG_1381.png","source":"User-supplied TimeZero chartplotter screenshot","position_status":"Current position confirmed by Clifton Taylor on 7 October 2026; not independently surveyed","confirmed_on":"2026-10-07","raw_position":"53\u00b043.514\u2032N, 003\u00b001.516\u2032W","area":"Ribble & Preston","chart_edition":null,"datum":null}},{"type":"Feature","id":"user-chart-1382","geometry":{"type":"Point","coordinates":[-3.048566666666667,53.72011666666667]},"properties":{"name":null,"mark_type":"landmark","structure":"tower","colour":"black","light":"Fl(2) G 10s","source_file":"IMG_1382.png","source":"User-supplied TimeZero chartplotter screenshot","position_status":"Current position confirmed by Clifton Taylor on 7 October 2026; not independently surveyed","confirmed_on":"2026-10-07","raw_position":"53\u00b043.207\u2032N, 003\u00b002.914\u2032W","area":"Ribble & Preston","chart_edition":null,"datum":null}},{"type":"Feature","id":"user-chart-1383","geometry":{"type":"Point","coordinates":[-3.0573,53.72278333333333]},"properties":{"name":null,"mark_type":"landmark","structure":"tower","colour":"red","light":"Fl R 5s","source_file":"IMG_1383.png","source":"User-supplied TimeZero chartplotter screenshot","position_status":"Current position confirmed by Clifton Taylor on 7 October 2026; not independently surveyed","confirmed_on":"2026-10-07","raw_position":"53\u00b043.367\u2032N, 003\u00b003.438\u2032W","area":"Ribble & Preston","chart_edition":null,"datum":null}},{"type":"Feature","id":"user-chart-1384","geometry":{"type":"Point","coordinates":[-3.0655666666666668,53.71685]},"properties":{"name":null,"mark_type":"landmark","structure":"tower","colour":"black","light":"Fl G 5s","source_file":"IMG_1384.png","source":"User-supplied TimeZero chartplotter screenshot","position_status":"Current position confirmed by Clifton Taylor on 7 October 2026; not independently surveyed","confirmed_on":"2026-10-07","raw_position":"53\u00b043.011\u2032N, 003\u00b003.934\u2032W","area":"Ribble & Preston","chart_edition":null,"datum":null}},{"type":"Feature","id":"user-chart-1385","geometry":{"type":"Point","coordinates":[-3.08135,53.71273333333333]},"properties":{"name":null,"mark_type":"starboard","structure":"beacon","colour":null,"light":"Fl G 5s","source_file":"IMG_1385.png","source":"User-supplied TimeZero chartplotter screenshot","position_status":"Current position confirmed by Clifton Taylor on 7 October 2026; not independently surveyed","confirmed_on":"2026-10-07","raw_position":"53\u00b042.764\u2032N, 003\u00b004.881\u2032W","area":"Ribble & Preston","chart_edition":null,"datum":null}},{"type":"Feature","id":"user-chart-1386","geometry":{"type":"Point","coordinates":[-3.1496666666666666,53.69606666666667]},"properties":{"name":"Gut","mark_type":"safe_water","structure":"pillar","colour":"red_white","light":"LFl W 10s","source_file":"IMG_1386.png","source":"User-supplied TimeZero chartplotter screenshot","position_status":"Current position confirmed by Clifton Taylor on 7 October 2026; not independently surveyed","confirmed_on":"2026-10-07","raw_position":"53\u00b041.764\u2032N, 003\u00b008.980\u2032W","area":"Ribble & Preston","chart_edition":null,"datum":null}}]}