{"type":"FeatureCollection","source_sha256":"1bdb5187c40faeaca79a9daa97d8e09cc540e915489aa331ff6c6328351afb9d","imported_at":"2026-10-08","input_count":53,"excluded_outside_windfarms":6,"features":[{"type":"Feature","id":"user-windlight-3bdf3d550d262e1e","geometry":{"type":"Point","coordinates":[-3.38959523059086,53.9793634537358]},"properties":{"name":"West of Duddon Sands · imported light 01","name_status":"Generated display label; official name not exported","mark_type":"wind_farm_light","structure":"Not specified in export","colour":"yellow","light":"Fl Y 5s 5M","wind_farm":"West of Duddon Sands","source_file":"TZiBoatData_2026-10-8_1729.gpx","source":"User-supplied TimeZero GPX export","position_status":"User-selected chart position exported 8 October 2026; not independently surveyed","confirmed_on":"2026-10-08","captured_at":"2026-10-08T16:24:47.498176Z","raw_position":"53.9793635, -3.3895952","description_status":"Fl Y 5s 5M confirmed for all selected wind-farm lights by Clifton Taylor on 8 October 2026; A06 also shown in IMG_1409.png"}},{"type":"Feature","id":"user-windlight-881b409b0f3af1fb","geometry":{"type":"Point","coordinates":[-3.38951022631971,53.9674201888706]},"properties":{"name":"West of Duddon Sands · imported light 02","name_status":"Generated display label; official name not exported","mark_type":"wind_farm_light","structure":"Not specified in export","colour":"yellow","light":"Fl Y 5s 5M","wind_farm":"West of Duddon Sands","source_file":"TZiBoatData_2026-10-8_1729.gpx","source":"User-supplied TimeZero GPX export","position_status":"User-selected chart position exported 8 October 2026; not independently surveyed","confirmed_on":"2026-10-08","captured_at":"2026-10-08T16:24:50.908773Z","raw_position":"53.9674202, -3.3895102","description_status":"Fl Y 5s 5M confirmed for all selected wind-farm lights by Clifton Taylor on 8 October 2026; A06 also shown in IMG_1409.png"}},{"type":"Feature","id":"user-windlight-cb6f318e98fc47a1","geometry":{"type":"Point","coordinates":[-3.4046451671217,53.9574848610564]},"properties":{"name":"West of Duddon Sands · imported light 03","name_status":"Generated display label; official name not exported","mark_type":"wind_farm_light","structure":"Not specified in export","colour":"yellow","light":"Fl Y 5s 5M","wind_farm":"West of Duddon Sands","source_file":"TZiBoatData_2026-10-8_1729.gpx","source":"User-supplied TimeZero GPX export","position_status":"User-selected chart position exported 8 October 2026; not independently surveyed","confirmed_on":"2026-10-08","captured_at":"2026-10-08T16:24:53.78293Z","raw_position":"53.9574849, -3.4046452","description_status":"Fl Y 5s 5M confirmed for all selected wind-farm lights by Clifton Taylor on 8 October 2026; A06 also shown in IMG_1409.png"}},{"type":"Feature","id":"user-windlight-7596ece81aa49dea","geometry":{"type":"Point","coordinates":[-3.41978010792369,53.9474815062264]},"properties":{"name":"West of Duddon Sands · imported light 04","name_status":"Generated display label; official name not exported","mark_type":"wind_farm_light","structure":"Not specified in export","colour":"yellow","light":"Fl Y 5s 5M","wind_farm":"West of Duddon Sands","source_file":"TZiBoatData_2026-10-8_1729.gpx","source":"User-supplied TimeZero GPX export","position_status":"User-selected chart position exported 8 October 2026; not independently surveyed","confirmed_on":"2026-10-08","captured_at":"2026-10-08T16:24:57.265942Z","raw_position":"53.9474815, -3.4197801","description_status":"Fl Y 5s 5M confirmed for all selected wind-farm lights by Clifton Taylor on 8 October 2026; A06 also shown in IMG_1409.png"}},{"type":"Feature","id":"user-windlight-2bc897d70240ab48","geometry":{"type":"Point","coordinates":[-3.43035985048608,53.9450934298543]},"properties":{"name":"West of Duddon Sands · imported light 05","name_status":"Generated display label; official name not exported","mark_type":"wind_farm_light","structure":"Not specified in export","colour":"yellow","light":"Fl Y 5s 5M","wind_farm":"West of Duddon Sands","source_file":"TZiBoatData_2026-10-8_1729.gpx","source":"User-supplied TimeZero GPX export","position_status":"User-selected chart position exported 8 October 2026; not independently surveyed","confirmed_on":"2026-10-08","captured_at":"2026-10-08T16:24:59.813184Z","raw_position":"53.9450934, -3.4303599","description_status":"Fl Y 5s 5M confirmed for all selected wind-farm lights by Clifton Taylor on 8 October 2026; A06 also shown in IMG_1409.png"}},{"type":"Feature","id":"user-windlight-2202783428b9d27c","geometry":{"type":"Point","coordinates":[-3.48805495222217,53.9461851389546]},"properties":{"name":"West of Duddon Sands · imported light 06","name_status":"Generated display label; official name not exported","mark_type":"wind_farm_light","structure":"Not specified in export","colour":"yellow","light":"Fl Y 5s 5M","wind_farm":"West of Duddon Sands","source_file":"TZiBoatData_2026-10-8_1729.gpx","source":"User-supplied TimeZero GPX export","position_status":"User-selected chart position exported 8 October 2026; not independently surveyed","confirmed_on":"2026-10-08","captured_at":"2026-10-08T16:25:03.747206Z","raw_position":"53.9461851, -3.4880550","description_status":"Fl Y 5s 5M confirmed for all selected wind-farm lights by Clifton Taylor on 8 October 2026; A06 also shown in IMG_1409.png"}},{"type":"Feature","id":"user-windlight-908b840a60195cee","geometry":{"type":"Point","coordinates":[-3.50595671237435,53.9608966857992]},"properties":{"name":"West of Duddon Sands · imported light 07","name_status":"Generated display label; official name not exported","mark_type":"wind_farm_light","structure":"Not specified in export","colour":"yellow","light":"Fl Y 5s 5M","wind_farm":"West of Duddon Sands","source_file":"TZiBoatData_2026-10-8_1729.gpx","source":"User-supplied TimeZero GPX export","position_status":"User-selected chart position exported 8 October 2026; not independently surveyed","confirmed_on":"2026-10-08","captured_at":"2026-10-08T16:25:07.042203Z","raw_position":"53.9608967, -3.5059567","description_status":"Fl Y 5s 5M confirmed for all selected wind-farm lights by Clifton Taylor on 8 October 2026; A06 also shown in IMG_1409.png"}},{"type":"Feature","id":"user-windlight-dd392edb811d469d","geometry":{"type":"Point","coordinates":[-3.52328802368598,53.975139999211]},"properties":{"name":"A06","name_status":"Screenshot identification","mark_type":"wind_farm_light","structure":"wind_turbine","colour":"yellow","light":"Fl Y 5s 5M","wind_farm":"West of Duddon Sands","source_file":"TZiBoatData_2026-10-8_1729.gpx","source":"User-supplied TimeZero GPX export","position_status":"User-selected chart position exported 8 October 2026; not independently surveyed","confirmed_on":"2026-10-08","captured_at":"2026-10-08T16:25:55.82948Z","raw_position":"53.9751400, -3.5232880","description_status":"Fl Y 5s 5M confirmed for all selected wind-farm lights by Clifton Taylor on 8 October 2026; A06 also shown in IMG_1409.png"}},{"type":"Feature","id":"user-windlight-d0e07ec6e261495b","geometry":{"type":"Point","coordinates":[-3.54063516580674,53.9893748418798]},"properties":{"name":"West of Duddon Sands · imported light 09","name_status":"Generated display label; official name not exported","mark_type":"wind_farm_light","structure":"Not specified in export","colour":"yellow","light":"Fl Y 5s 5M","wind_farm":"West of Duddon Sands","source_file":"TZiBoatData_2026-10-8_1729.gpx","source":"User-supplied TimeZero GPX export","position_status":"User-selected chart position exported 8 October 2026; not independently surveyed","confirmed_on":"2026-10-08","captured_at":"2026-10-08T16:25:12.900298Z","raw_position":"53.9893748, -3.5406352","description_status":"Fl Y 5s 5M confirmed for all selected wind-farm lights by Clifton Taylor on 8 October 2026; A06 also shown in IMG_1409.png"}},{"type":"Feature","id":"user-windlight-327a73d8e733db22","geometry":{"type":"Point","coordinates":[-3.4126097886256,53.9997552013625]},"properties":{"name":"West of Duddon Sands · imported light 10","name_status":"Generated display label; official name not exported","mark_type":"wind_farm_light","structure":"Not specified in export","colour":"yellow","light":"Fl Y 5s 5M","wind_farm":"West of Duddon Sands","source_file":"TZiBoatData_2026-10-8_1729.gpx","source":"User-supplied TimeZero GPX export","position_status":"User-selected chart position exported 8 October 2026; not independently surveyed","confirmed_on":"2026-10-08","captured_at":"2026-10-08T16:25:18.953371Z","raw_position":"53.9997552, -3.4126098","description_status":"Fl Y 5s 5M confirmed for all selected wind-farm lights by Clifton Taylor on 8 October 2026; A06 also shown in IMG_1409.png"}},{"type":"Feature","id":"user-windlight-2d8dadca9d4d0f4c","geometry":{"type":"Point","coordinates":[-3.43456825866414,54.0192215354356]},"properties":{"name":"West of Duddon Sands · imported light 11","name_status":"Generated display label; official name not exported","mark_type":"wind_farm_light","structure":"Not specified in export","colour":"yellow","light":"Fl Y 5s 5M","wind_farm":"West of Duddon Sands","source_file":"TZiBoatData_2026-10-8_1729.gpx","source":"User-supplied TimeZero GPX export","position_status":"User-selected chart position exported 8 October 2026; not independently surveyed","confirmed_on":"2026-10-08","captured_at":"2026-10-08T16:25:23.053916Z","raw_position":"54.0192215, -3.4345683","description_status":"Fl Y 5s 5M confirmed for all selected wind-farm lights by Clifton Taylor on 8 October 2026; A06 also shown in IMG_1409.png"}},{"type":"Feature","id":"user-windlight-9f8220c9e265b152","geometry":{"type":"Point","coordinates":[-3.44731342295456,54.02992498393]},"properties":{"name":"Walney 1 · imported light 01","name_status":"Generated display label; official name not exported","mark_type":"wind_farm_light","structure":"Not specified in export","colour":"yellow","light":"Fl Y 5s 5M","wind_farm":"Walney 1","source_file":"TZiBoatData_2026-10-8_1729.gpx","source":"User-supplied TimeZero GPX export","position_status":"User-selected chart position exported 8 October 2026; not independently surveyed","confirmed_on":"2026-10-08","captured_at":"2026-10-08T16:26:30.743903Z","raw_position":"54.0299250, -3.4473134","description_status":"Fl Y 5s 5M confirmed for all selected wind-farm lights by Clifton Taylor on 8 October 2026; A06 also shown in IMG_1409.png"}},{"type":"Feature","id":"user-windlight-96a647fd143413ba","geometry":{"type":"Point","coordinates":[-3.47305160144759,54.0433218226011]},"properties":{"name":"Walney 1 · imported light 02","name_status":"Generated display label; official name not exported","mark_type":"wind_farm_light","structure":"Not specified in export","colour":"yellow","light":"Fl Y 5s 5M","wind_farm":"Walney 1","source_file":"TZiBoatData_2026-10-8_1729.gpx","source":"User-supplied TimeZero GPX export","position_status":"User-selected chart position exported 8 October 2026; not independently surveyed","confirmed_on":"2026-10-08","captured_at":"2026-10-08T16:26:33.30781Z","raw_position":"54.0433218, -3.4730516","description_status":"Fl Y 5s 5M confirmed for all selected wind-farm lights by Clifton Taylor on 8 October 2026; A06 also shown in IMG_1409.png"}},{"type":"Feature","id":"user-windlight-0e52201a95d9406f","geometry":{"type":"Point","coordinates":[-3.50739332699075,54.0611706644785]},"properties":{"name":"Walney 1 · imported light 03","name_status":"Generated display label; official name not exported","mark_type":"wind_farm_light","structure":"Not specified in export","colour":"yellow","light":"Fl Y 5s 5M","wind_farm":"Walney 1","source_file":"TZiBoatData_2026-10-8_1729.gpx","source":"User-supplied TimeZero GPX export","position_status":"User-selected chart position exported 8 October 2026; not independently surveyed","confirmed_on":"2026-10-08","captured_at":"2026-10-08T16:26:35.484621Z","raw_position":"54.0611707, -3.5073933","description_status":"Fl Y 5s 5M confirmed for all selected wind-farm lights by Clifton Taylor on 8 October 2026; A06 also shown in IMG_1409.png"}},{"type":"Feature","id":"user-windlight-f6f39568d65afd0a","geometry":{"type":"Point","coordinates":[-3.53316951949761,54.074556338611]},"properties":{"name":"Walney 1 · imported light 04","name_status":"Generated display label; official name not exported","mark_type":"wind_farm_light","structure":"Not specified in export","colour":"yellow","light":"Fl Y 5s 5M","wind_farm":"Walney 1","source_file":"TZiBoatData_2026-10-8_1729.gpx","source":"User-supplied TimeZero GPX export","position_status":"User-selected chart position exported 8 October 2026; not independently surveyed","confirmed_on":"2026-10-08","captured_at":"2026-10-08T16:26:38.894945Z","raw_position":"54.0745563, -3.5331695","description_status":"Fl Y 5s 5M confirmed for all selected wind-farm lights by Clifton Taylor on 8 October 2026; A06 also shown in IMG_1409.png"}},{"type":"Feature","id":"user-windlight-4fba9fb03d13ab77","geometry":{"type":"Point","coordinates":[-3.55953338516678,54.0882336551241]},"properties":{"name":"Walney 2 · imported light 01","name_status":"Generated display label; official name not exported","mark_type":"wind_farm_light","structure":"Not specified in export","colour":"yellow","light":"Fl Y 5s 5M","wind_farm":"Walney 2","source_file":"TZiBoatData_2026-10-8_1729.gpx","source":"User-supplied TimeZero GPX export","position_status":"User-selected chart position exported 8 October 2026; not independently surveyed","confirmed_on":"2026-10-08","captured_at":"2026-10-08T16:26:41.337256Z","raw_position":"54.0882337, -3.5595334","description_status":"Fl Y 5s 5M confirmed for all selected wind-farm lights by Clifton Taylor on 8 October 2026; A06 also shown in IMG_1409.png"}},{"type":"Feature","id":"user-windlight-5de3bff538bb582c","geometry":{"type":"Point","coordinates":[-3.57731739350073,54.0974335615928]},"properties":{"name":"Walney 2 · imported light 02","name_status":"Generated display label; official name not exported","mark_type":"wind_farm_light","structure":"Not specified in export","colour":"yellow","light":"Fl Y 5s 5M","wind_farm":"Walney 2","source_file":"TZiBoatData_2026-10-8_1729.gpx","source":"User-supplied TimeZero GPX export","position_status":"User-selected chart position exported 8 October 2026; not independently surveyed","confirmed_on":"2026-10-08","captured_at":"2026-10-08T16:26:43.788596Z","raw_position":"54.0974336, -3.5773174","description_status":"Fl Y 5s 5M confirmed for all selected wind-farm lights by Clifton Taylor on 8 October 2026; A06 also shown in IMG_1409.png"}},{"type":"Feature","id":"user-windlight-055108956f4ae79b","geometry":{"type":"Point","coordinates":[-3.62974172825568,54.0242383986278]},"properties":{"name":"Walney Extension 4 · imported light 01","name_status":"Generated display label; official name not exported","mark_type":"wind_farm_light","structure":"Not specified in export","colour":"yellow","light":"Fl Y 5s 5M","wind_farm":"Walney Extension 4","source_file":"TZiBoatData_2026-10-8_1729.gpx","source":"User-supplied TimeZero GPX export","position_status":"User-selected chart position exported 8 October 2026; not independently surveyed","confirmed_on":"2026-10-08","captured_at":"2026-10-08T16:26:47.171986Z","raw_position":"54.0242384, -3.6297417","description_status":"Fl Y 5s 5M confirmed for all selected wind-farm lights by Clifton Taylor on 8 October 2026; A06 also shown in IMG_1409.png"}},{"type":"Feature","id":"user-windlight-79ed0068bbb3c1d0","geometry":{"type":"Point","coordinates":[-3.66860122178338,54.0364329371826]},"properties":{"name":"Walney Extension 4 · imported light 02","name_status":"Generated display label; official name not exported","mark_type":"wind_farm_light","structure":"Not specified in export","colour":"yellow","light":"Fl Y 5s 5M","wind_farm":"Walney Extension 4","source_file":"TZiBoatData_2026-10-8_1729.gpx","source":"User-supplied TimeZero GPX export","position_status":"User-selected chart position exported 8 October 2026; not independently surveyed","confirmed_on":"2026-10-08","captured_at":"2026-10-08T16:26:50.380655Z","raw_position":"54.0364329, -3.6686012","description_status":"Fl Y 5s 5M confirmed for all selected wind-farm lights by Clifton Taylor on 8 October 2026; A06 also shown in IMG_1409.png"}},{"type":"Feature","id":"user-windlight-3ebf9653ecd472ae","geometry":{"type":"Point","coordinates":[-3.44471711506853,54.1071643907116]},"properties":{"name":"Ormonde · imported light 01","name_status":"Generated display label; official name not exported","mark_type":"wind_farm_light","structure":"Not specified in export","colour":"yellow","light":"Fl Y 5s 5M","wind_farm":"Ormonde","source_file":"TZiBoatData_2026-10-8_1729.gpx","source":"User-supplied TimeZero GPX export","position_status":"User-selected chart position exported 8 October 2026; not independently surveyed","confirmed_on":"2026-10-08","captured_at":"2026-10-08T16:27:00.467913Z","raw_position":"54.1071644, -3.4447171","description_status":"Fl Y 5s 5M confirmed for all selected wind-farm lights by Clifton Taylor on 8 October 2026; A06 also shown in IMG_1409.png"}},{"type":"Feature","id":"user-windlight-98ec74cfa97d5724","geometry":{"type":"Point","coordinates":[-3.46198273669975,54.0969993418075]},"properties":{"name":"Ormonde · imported light 02","name_status":"Generated display label; official name not exported","mark_type":"wind_farm_light","structure":"Not specified in export","colour":"yellow","light":"Fl Y 5s 5M","wind_farm":"Ormonde","source_file":"TZiBoatData_2026-10-8_1729.gpx","source":"User-supplied TimeZero GPX export","position_status":"User-selected chart position exported 8 October 2026; not independently surveyed","confirmed_on":"2026-10-08","captured_at":"2026-10-08T16:27:03.231657Z","raw_position":"54.0969993, -3.4619827","description_status":"Fl Y 5s 5M confirmed for all selected wind-farm lights by Clifton Taylor on 8 October 2026; A06 also shown in IMG_1409.png"}},{"type":"Feature","id":"user-windlight-a95538270c45befe","geometry":{"type":"Point","coordinates":[-3.44935193811497,54.0808293671221]},"properties":{"name":"Ormonde · imported light 03","name_status":"Generated display label; official name not exported","mark_type":"wind_farm_light","structure":"Not specified in export","colour":"yellow","light":"Fl Y 5s 5M","wind_farm":"Ormonde","source_file":"TZiBoatData_2026-10-8_1729.gpx","source":"User-supplied TimeZero GPX export","position_status":"User-selected chart position exported 8 October 2026; not independently surveyed","confirmed_on":"2026-10-08","captured_at":"2026-10-08T16:27:05.681574Z","raw_position":"54.0808294, -3.4493519","description_status":"Fl Y 5s 5M confirmed for all selected wind-farm lights by Clifton Taylor on 8 October 2026; A06 also shown in IMG_1409.png"}},{"type":"Feature","id":"user-windlight-847e2a81050896cc","geometry":{"type":"Point","coordinates":[-3.41991816409604,54.0743605879491]},"properties":{"name":"Ormonde · imported light 04","name_status":"Generated display label; official name not exported","mark_type":"wind_farm_light","structure":"Not specified in export","colour":"yellow","light":"Fl Y 5s 5M","wind_farm":"Ormonde","source_file":"TZiBoatData_2026-10-8_1729.gpx","source":"User-supplied TimeZero GPX export","position_status":"User-selected chart position exported 8 October 2026; not independently surveyed","confirmed_on":"2026-10-08","captured_at":"2026-10-08T16:27:09.107648Z","raw_position":"54.0743606, -3.4199182","description_status":"Fl Y 5s 5M confirmed for all selected wind-farm lights by Clifton Taylor on 8 October 2026; A06 also shown in IMG_1409.png"}},{"type":"Feature","id":"user-windlight-afdb5cbbc63d6e6d","geometry":{"type":"Point","coordinates":[-3.40363078833932,54.0834759153796]},"properties":{"name":"Ormonde · imported light 05","name_status":"Generated display label; official name not exported","mark_type":"wind_farm_light","structure":"Not specified in export","colour":"yellow","light":"Fl Y 5s 5M","wind_farm":"Ormonde","source_file":"TZiBoatData_2026-10-8_1729.gpx","source":"User-supplied TimeZero GPX export","position_status":"User-selected chart position exported 8 October 2026; not independently surveyed","confirmed_on":"2026-10-08","captured_at":"2026-10-08T16:27:11.658397Z","raw_position":"54.0834759, -3.4036308","description_status":"Fl Y 5s 5M confirmed for all selected wind-farm lights by Clifton Taylor on 8 October 2026; A06 also shown in IMG_1409.png"}},{"type":"Feature","id":"user-windlight-22e8d6ce3d55f987","geometry":{"type":"Point","coordinates":[-3.42120019572644,54.0936180812072]},"properties":{"name":"Ormonde · imported light 06","name_status":"Generated display label; official name not exported","mark_type":"wind_farm_light","structure":"Not specified in export","colour":"yellow","light":"Fl Y 5s 5M","wind_farm":"Ormonde","source_file":"TZiBoatData_2026-10-8_1729.gpx","source":"User-supplied TimeZero GPX export","position_status":"User-selected chart position exported 8 October 2026; not independently surveyed","confirmed_on":"2026-10-08","captured_at":"2026-10-08T16:27:13.978Z","raw_position":"54.0936181, -3.4212002","description_status":"Fl Y 5s 5M confirmed for all selected wind-farm lights by Clifton Taylor on 8 October 2026; A06 also shown in IMG_1409.png"}},{"type":"Feature","id":"user-windlight-135a6de4c4b7fb3b","geometry":{"type":"Point","coordinates":[-3.60399917539026,54.1112503429011]},"properties":{"name":"Walney 2 · imported light 03","name_status":"Generated display label; official name not exported","mark_type":"wind_farm_light","structure":"Not specified in export","colour":"yellow","light":"Fl Y 5s 5M","wind_farm":"Walney 2","source_file":"TZiBoatData_2026-10-8_1729.gpx","source":"User-supplied TimeZero GPX export","position_status":"User-selected chart position exported 8 October 2026; not independently surveyed","confirmed_on":"2026-10-08","captured_at":"2026-10-08T16:27:22.753646Z","raw_position":"54.1112503, -3.6039992","description_status":"Fl Y 5s 5M confirmed for all selected wind-farm lights by Clifton Taylor on 8 October 2026; A06 also shown in IMG_1409.png"}},{"type":"Feature","id":"user-windlight-b6a0b5b6bd58acfb","geometry":{"type":"Point","coordinates":[-3.75692960509093,54.0675137563538]},"properties":{"name":"Walney Extension 4 · imported light 03","name_status":"Generated display label; official name not exported","mark_type":"wind_farm_light","structure":"Not specified in export","colour":"yellow","light":"Fl Y 5s 5M","wind_farm":"Walney Extension 4","source_file":"TZiBoatData_2026-10-8_1729.gpx","source":"User-supplied TimeZero GPX export","position_status":"User-selected chart position exported 8 October 2026; not independently surveyed","confirmed_on":"2026-10-08","captured_at":"2026-10-08T16:27:28.130299Z","raw_position":"54.0675138, -3.7569296","description_status":"Fl Y 5s 5M confirmed for all selected wind-farm lights by Clifton Taylor on 8 October 2026; A06 also shown in IMG_1409.png"}},{"type":"Feature","id":"user-windlight-67f6c342c28b11dd","geometry":{"type":"Point","coordinates":[-3.74144489261586,54.1311617259977]},"properties":{"name":"Walney Extension 4 · imported light 04","name_status":"Generated display label; official name not exported","mark_type":"wind_farm_light","structure":"Not specified in export","colour":"yellow","light":"Fl Y 5s 5M","wind_farm":"Walney Extension 4","source_file":"TZiBoatData_2026-10-8_1729.gpx","source":"User-supplied TimeZero GPX export","position_status":"User-selected chart position exported 8 October 2026; not independently surveyed","confirmed_on":"2026-10-08","captured_at":"2026-10-08T16:27:33.219635Z","raw_position":"54.1311617, -3.7414449","description_status":"Fl Y 5s 5M confirmed for all selected wind-farm lights by Clifton Taylor on 8 October 2026; A06 also shown in IMG_1409.png"}},{"type":"Feature","id":"user-windlight-5b5ff4fc129aeaa4","geometry":{"type":"Point","coordinates":[-3.75557232377787,54.1355529860556]},"properties":{"name":"Walney Extension 3 · imported light 01","name_status":"Generated display label; official name not exported","mark_type":"wind_farm_light","structure":"Not specified in export","colour":"yellow","light":"Fl Y 5s 5M","wind_farm":"Walney Extension 3","source_file":"TZiBoatData_2026-10-8_1729.gpx","source":"User-supplied TimeZero GPX export","position_status":"User-selected chart position exported 8 October 2026; not independently surveyed","confirmed_on":"2026-10-08","captured_at":"2026-10-08T16:27:35.589338Z","raw_position":"54.1355530, -3.7555723","description_status":"Fl Y 5s 5M confirmed for all selected wind-farm lights by Clifton Taylor on 8 October 2026; A06 also shown in IMG_1409.png"}},{"type":"Feature","id":"user-windlight-64417981cca6a0c2","geometry":{"type":"Point","coordinates":[-3.78384390825359,54.1443280151964]},"properties":{"name":"Walney Extension 3 · imported light 02","name_status":"Generated display label; official name not exported","mark_type":"wind_farm_light","structure":"Not specified in export","colour":"yellow","light":"Fl Y 5s 5M","wind_farm":"Walney Extension 3","source_file":"TZiBoatData_2026-10-8_1729.gpx","source":"User-supplied TimeZero GPX export","position_status":"User-selected chart position exported 8 October 2026; not independently surveyed","confirmed_on":"2026-10-08","captured_at":"2026-10-08T16:27:37.92956Z","raw_position":"54.1443280, -3.7838439","description_status":"Fl Y 5s 5M confirmed for all selected wind-farm lights by Clifton Taylor on 8 October 2026; A06 also shown in IMG_1409.png"}},{"type":"Feature","id":"user-windlight-f0e6b529cc78fd53","geometry":{"type":"Point","coordinates":[-3.82626522009358,54.1574945503738]},"properties":{"name":"Walney Extension 3 · imported light 03","name_status":"Generated display label; official name not exported","mark_type":"wind_farm_light","structure":"Not specified in export","colour":"yellow","light":"Fl Y 5s 5M","wind_farm":"Walney Extension 3","source_file":"TZiBoatData_2026-10-8_1729.gpx","source":"User-supplied TimeZero GPX export","position_status":"User-selected chart position exported 8 October 2026; not independently surveyed","confirmed_on":"2026-10-08","captured_at":"2026-10-08T16:27:40.466781Z","raw_position":"54.1574946, -3.8262652","description_status":"Fl Y 5s 5M confirmed for all selected wind-farm lights by Clifton Taylor on 8 October 2026; A06 also shown in IMG_1409.png"}},{"type":"Feature","id":"user-windlight-926bce4e9187799d","geometry":{"type":"Point","coordinates":[-3.862251290554,54.1435786002668]},"properties":{"name":"Walney Extension 3 · imported light 04","name_status":"Generated display label; official name not exported","mark_type":"wind_farm_light","structure":"Not specified in export","colour":"yellow","light":"Fl Y 5s 5M","wind_farm":"Walney Extension 3","source_file":"TZiBoatData_2026-10-8_1729.gpx","source":"User-supplied TimeZero GPX export","position_status":"User-selected chart position exported 8 October 2026; not independently surveyed","confirmed_on":"2026-10-08","captured_at":"2026-10-08T16:27:42.700491Z","raw_position":"54.1435786, -3.8622513","description_status":"Fl Y 5s 5M confirmed for all selected wind-farm lights by Clifton Taylor on 8 October 2026; A06 also shown in IMG_1409.png"}},{"type":"Feature","id":"user-windlight-e5a1605d4f27a3dd","geometry":{"type":"Point","coordinates":[-3.88794844201279,54.1336315604445]},"properties":{"name":"Walney Extension 3 · imported light 05","name_status":"Generated display label; official name not exported","mark_type":"wind_farm_light","structure":"Not specified in export","colour":"yellow","light":"Fl Y 5s 5M","wind_farm":"Walney Extension 3","source_file":"TZiBoatData_2026-10-8_1729.gpx","source":"User-supplied TimeZero GPX export","position_status":"User-selected chart position exported 8 October 2026; not independently surveyed","confirmed_on":"2026-10-08","captured_at":"2026-10-08T16:27:45.870019Z","raw_position":"54.1336316, -3.8879484","description_status":"Fl Y 5s 5M confirmed for all selected wind-farm lights by Clifton Taylor on 8 October 2026; A06 also shown in IMG_1409.png"}},{"type":"Feature","id":"user-windlight-462b062e5c11ef41","geometry":{"type":"Point","coordinates":[-3.91732926255134,54.1350292673381]},"properties":{"name":"Walney Extension 3 · imported light 06","name_status":"Generated display label; official name not exported","mark_type":"wind_farm_light","structure":"Not specified in export","colour":"yellow","light":"Fl Y 5s 5M","wind_farm":"Walney Extension 3","source_file":"TZiBoatData_2026-10-8_1729.gpx","source":"User-supplied TimeZero GPX export","position_status":"User-selected chart position exported 8 October 2026; not independently surveyed","confirmed_on":"2026-10-08","captured_at":"2026-10-08T16:27:48.049959Z","raw_position":"54.1350293, -3.9173293","description_status":"Fl Y 5s 5M confirmed for all selected wind-farm lights by Clifton Taylor on 8 October 2026; A06 also shown in IMG_1409.png"}},{"type":"Feature","id":"user-windlight-b4f18b8111c6eaf4","geometry":{"type":"Point","coordinates":[-3.91682759800031,54.1137246447288]},"properties":{"name":"Walney Extension 3 · imported light 07","name_status":"Generated display label; official name not exported","mark_type":"wind_farm_light","structure":"Not specified in export","colour":"yellow","light":"Fl Y 5s 5M","wind_farm":"Walney Extension 3","source_file":"TZiBoatData_2026-10-8_1729.gpx","source":"User-supplied TimeZero GPX export","position_status":"User-selected chart position exported 8 October 2026; not independently surveyed","confirmed_on":"2026-10-08","captured_at":"2026-10-08T16:27:50.335456Z","raw_position":"54.1137246, -3.9168276","description_status":"Fl Y 5s 5M confirmed for all selected wind-farm lights by Clifton Taylor on 8 October 2026; A06 also shown in IMG_1409.png"}},{"type":"Feature","id":"user-windlight-ab87c70b90974a04","geometry":{"type":"Point","coordinates":[-3.88631803222195,54.1041901526964]},"properties":{"name":"Walney Extension 3 · imported light 08","name_status":"Generated display label; official name not exported","mark_type":"wind_farm_light","structure":"Not specified in export","colour":"yellow","light":"Fl Y 5s 5M","wind_farm":"Walney Extension 3","source_file":"TZiBoatData_2026-10-8_1729.gpx","source":"User-supplied TimeZero GPX export","position_status":"User-selected chart position exported 8 October 2026; not independently surveyed","confirmed_on":"2026-10-08","captured_at":"2026-10-08T16:27:52.754309Z","raw_position":"54.1041902, -3.8863180","description_status":"Fl Y 5s 5M confirmed for all selected wind-farm lights by Clifton Taylor on 8 October 2026; A06 also shown in IMG_1409.png"}},{"type":"Feature","id":"user-windlight-cd139301a52048c7","geometry":{"type":"Point","coordinates":[-3.85482944222407,54.0947468370689]},"properties":{"name":"Walney Extension 3 · imported light 09","name_status":"Generated display label; official name not exported","mark_type":"wind_farm_light","structure":"Not specified in export","colour":"yellow","light":"Fl Y 5s 5M","wind_farm":"Walney Extension 3","source_file":"TZiBoatData_2026-10-8_1729.gpx","source":"User-supplied TimeZero GPX export","position_status":"User-selected chart position exported 8 October 2026; not independently surveyed","confirmed_on":"2026-10-08","captured_at":"2026-10-08T16:27:56.380942Z","raw_position":"54.0947468, -3.8548294","description_status":"Fl Y 5s 5M confirmed for all selected wind-farm lights by Clifton Taylor on 8 October 2026; A06 also shown in IMG_1409.png"}},{"type":"Feature","id":"user-windlight-699d8ad085c7364c","geometry":{"type":"Point","coordinates":[-3.32918676515503,53.9952567079343]},"properties":{"name":"Barrow · imported light 01","name_status":"Generated display label; official name not exported","mark_type":"wind_farm_light","structure":"Not specified in export","colour":"yellow","light":"Fl Y 5s 5M","wind_farm":"Barrow","source_file":"TZiBoatData_2026-10-8_1729.gpx","source":"User-supplied TimeZero GPX export","position_status":"User-selected chart position exported 8 October 2026; not independently surveyed","confirmed_on":"2026-10-08","captured_at":"2026-10-08T16:28:12.923653Z","raw_position":"53.9952567, -3.3291868","description_status":"Fl Y 5s 5M confirmed for all selected wind-farm lights by Clifton Taylor on 8 October 2026; A06 also shown in IMG_1409.png"}},{"type":"Feature","id":"user-windlight-c3dad990351e689d","geometry":{"type":"Point","coordinates":[-3.31800034242343,53.9893333710629]},"properties":{"name":"Barrow · imported light 02","name_status":"Generated display label; official name not exported","mark_type":"wind_farm_light","structure":"Not specified in export","colour":"yellow","light":"Fl Y 5s 5M","wind_farm":"Barrow","source_file":"TZiBoatData_2026-10-8_1729.gpx","source":"User-supplied TimeZero GPX export","position_status":"User-selected chart position exported 8 October 2026; not independently surveyed","confirmed_on":"2026-10-08","captured_at":"2026-10-08T16:28:15.186208Z","raw_position":"53.9893334, -3.3180003","description_status":"Fl Y 5s 5M confirmed for all selected wind-farm lights by Clifton Taylor on 8 October 2026; A06 also shown in IMG_1409.png"}},{"type":"Feature","id":"user-windlight-3363fbcab0108755","geometry":{"type":"Point","coordinates":[-3.30123499183059,53.9804427621922]},"properties":{"name":"Barrow · imported light 03","name_status":"Generated display label; official name not exported","mark_type":"wind_farm_light","structure":"Not specified in export","colour":"yellow","light":"Fl Y 5s 5M","wind_farm":"Barrow","source_file":"TZiBoatData_2026-10-8_1729.gpx","source":"User-supplied TimeZero GPX export","position_status":"User-selected chart position exported 8 October 2026; not independently surveyed","confirmed_on":"2026-10-08","captured_at":"2026-10-08T16:28:17.646978Z","raw_position":"53.9804428, -3.3012350","description_status":"Fl Y 5s 5M confirmed for all selected wind-farm lights by Clifton Taylor on 8 October 2026; A06 also shown in IMG_1409.png"}},{"type":"Feature","id":"user-windlight-149ed369ea33c9b1","geometry":{"type":"Point","coordinates":[-3.29004837451273,53.9745320952129]},"properties":{"name":"Barrow · imported light 04","name_status":"Generated display label; official name not exported","mark_type":"wind_farm_light","structure":"Not specified in export","colour":"yellow","light":"Fl Y 5s 5M","wind_farm":"Barrow","source_file":"TZiBoatData_2026-10-8_1729.gpx","source":"User-supplied TimeZero GPX export","position_status":"User-selected chart position exported 8 October 2026; not independently surveyed","confirmed_on":"2026-10-08","captured_at":"2026-10-08T16:28:20.120361Z","raw_position":"53.9745321, -3.2900484","description_status":"Fl Y 5s 5M confirmed for all selected wind-farm lights by Clifton Taylor on 8 October 2026; A06 also shown in IMG_1409.png"}},{"type":"Feature","id":"user-windlight-7f05e5fe87349bda","geometry":{"type":"Point","coordinates":[-3.27445845183321,53.9847861112153]},"properties":{"name":"Barrow · imported light 05","name_status":"Generated display label; official name not exported","mark_type":"wind_farm_light","structure":"Not specified in export","colour":"yellow","light":"Fl Y 5s 5M","wind_farm":"Barrow","source_file":"TZiBoatData_2026-10-8_1729.gpx","source":"User-supplied TimeZero GPX export","position_status":"User-selected chart position exported 8 October 2026; not independently surveyed","confirmed_on":"2026-10-08","captured_at":"2026-10-08T16:28:22.699132Z","raw_position":"53.9847861, -3.2744585","description_status":"Fl Y 5s 5M confirmed for all selected wind-farm lights by Clifton Taylor on 8 October 2026; A06 also shown in IMG_1409.png"}},{"type":"Feature","id":"user-windlight-f8d6125f94a8dd9f","geometry":{"type":"Point","coordinates":[-3.27020684476325,53.9875361256052]},"properties":{"name":"Barrow · imported light 06","name_status":"Generated display label; official name not exported","mark_type":"wind_farm_light","structure":"Not specified in export","colour":"yellow","light":"Fl Y 5s 5M","wind_farm":"Barrow","source_file":"TZiBoatData_2026-10-8_1729.gpx","source":"User-supplied TimeZero GPX export","position_status":"User-selected chart position exported 8 October 2026; not independently surveyed","confirmed_on":"2026-10-08","captured_at":"2026-10-08T16:28:25.142568Z","raw_position":"53.9875361, -3.2702068","description_status":"Fl Y 5s 5M confirmed for all selected wind-farm lights by Clifton Taylor on 8 October 2026; A06 also shown in IMG_1409.png"}},{"type":"Feature","id":"user-windlight-2a70177b92d46dd4","geometry":{"type":"Point","coordinates":[-3.269437625785,53.9913748356868]},"properties":{"name":"Barrow · imported light 07","name_status":"Generated display label; official name not exported","mark_type":"wind_farm_light","structure":"Not specified in export","colour":"yellow","light":"Fl Y 5s 5M","wind_farm":"Barrow","source_file":"TZiBoatData_2026-10-8_1729.gpx","source":"User-supplied TimeZero GPX export","position_status":"User-selected chart position exported 8 October 2026; not independently surveyed","confirmed_on":"2026-10-08","captured_at":"2026-10-08T16:28:27.234627Z","raw_position":"53.9913748, -3.2694376","description_status":"Fl Y 5s 5M confirmed for all selected wind-farm lights by Clifton Taylor on 8 October 2026; A06 also shown in IMG_1409.png"}},{"type":"Feature","id":"user-windlight-8ec505be878efc66","geometry":{"type":"Point","coordinates":[-3.28613051372047,54.0002806368932]},"properties":{"name":"Barrow · imported light 08","name_status":"Generated display label; official name not exported","mark_type":"wind_farm_light","structure":"Not specified in export","colour":"yellow","light":"Fl Y 5s 5M","wind_farm":"Barrow","source_file":"TZiBoatData_2026-10-8_1729.gpx","source":"User-supplied TimeZero GPX export","position_status":"User-selected chart position exported 8 October 2026; not independently surveyed","confirmed_on":"2026-10-08","captured_at":"2026-10-08T16:28:29.49927Z","raw_position":"54.0002806, -3.2861305","description_status":"Fl Y 5s 5M confirmed for all selected wind-farm lights by Clifton Taylor on 8 October 2026; A06 also shown in IMG_1409.png"}},{"type":"Feature","id":"user-windlight-f0d13c55c50fcdac","geometry":{"type":"Point","coordinates":[-3.30294552859833,54.0091098304409]},"properties":{"name":"Barrow · imported light 09","name_status":"Generated display label; official name not exported","mark_type":"wind_farm_light","structure":"Not specified in export","colour":"yellow","light":"Fl Y 5s 5M","wind_farm":"Barrow","source_file":"TZiBoatData_2026-10-8_1729.gpx","source":"User-supplied TimeZero GPX export","position_status":"User-selected chart position exported 8 October 2026; not independently surveyed","confirmed_on":"2026-10-08","captured_at":"2026-10-08T16:28:31.62796Z","raw_position":"54.0091098, -3.3029455","description_status":"Fl Y 5s 5M confirmed for all selected wind-farm lights by Clifton Taylor on 8 October 2026; A06 also shown in IMG_1409.png"}},{"type":"Feature","id":"user-windlight-90eaab43656dae86","geometry":{"type":"Point","coordinates":[-3.31353204413767,54.0054796264995]},"properties":{"name":"Barrow · imported light 10","name_status":"Generated display label; official name not exported","mark_type":"wind_farm_light","structure":"Not specified in export","colour":"yellow","light":"Fl Y 5s 5M","wind_farm":"Barrow","source_file":"TZiBoatData_2026-10-8_1729.gpx","source":"User-supplied TimeZero GPX export","position_status":"User-selected chart position exported 8 October 2026; not independently surveyed","confirmed_on":"2026-10-08","captured_at":"2026-10-08T16:28:33.785258Z","raw_position":"54.0054796, -3.3135320","description_status":"Fl Y 5s 5M confirmed for all selected wind-farm lights by Clifton Taylor on 8 October 2026; A06 also shown in IMG_1409.png"}}]}
