{"type":"FeatureCollection","features":[{"type":"Feature","id":"portlocations.312","geometry":{"type":"Point","coordinates":[-0.690979,53.65887451]},"geometry_name":"the_geom","properties":{"port_id":"GB203","data_src_c":"9998","port_coor_":"8","country":"UK","portname":"Trent River","port":"Trent River","source":"GISCO","pointx":-0.690979004,"pointy":53.658874512,"traffic":"1"}},{"type":"Feature","id":"portlocations.313","geometry":{"type":"Point","coordinates":[-0.2704047,53.73930533]},"geometry_name":"the_geom","properties":{"port_id":"GB221","data_src_c":"9998","port_coor_":"1","country":"UK","portname":"River Hull & Humber","port":"River Hull & Humber","source":"GISCO","pointx":-0.270404703,"pointy":53.73930533,"traffic":"1"}},{"type":"Feature","id":"portlocations.314","geometry":{"type":"Point","coordinates":[-2.07537842,57.14147949]},"geometry_name":"the_geom","properties":{"port_id":"GBABD","data_src_c":"2109","port_coor_":"2","country":"UK","portname":"Aberdeen","port":"Aberdeen","source":"GISCO","pointx":-2.075378418,"pointy":57.141479492,"traffic":"1"}},{"type":"Feature","id":"portlocations.315","geometry":{"type":"Point","coordinates":[-5.874521,54.638546]},"geometry_name":"the_geom","properties":{"port_id":"GBBEL","data_src_c":"2110","port_coor_":"1","country":"UK","portname":"Belfast","port":"Belfast","source":"GISCO","pointx":-5.874521,"pointy":54.638546,"traffic":"1"}},{"type":"Feature","id":"portlocations.316","geometry":{"type":"Point","coordinates":[-3.23217773,54.0993042]},"geometry_name":"the_geom","properties":{"port_id":"GBBIF","data_src_c":"2110","port_coor_":"3","country":"UK","portname":"Barrow-In-Furness","port":"Barrow-In-Furness","source":"GISCO","pointx":-3.232177734,"pointy":54.099304199,"traffic":"1"}},{"type":"Feature","id":"portlocations.317","geometry":{"type":"Point","coordinates":[-5.783333,54.833333]},"geometry_name":"the_geom","properties":{"port_id":"GBBLR","data_src_c":"0","port_coor_":null,"country":"GB","portname":null,"port":"Ballylumford","source":"UN/LOCODE","pointx":-5.783333,"pointy":54.833333,"traffic":"1"}},{"type":"Feature","id":"portlocations.318","geometry":{"type":"Point","coordinates":[-0.0158081,52.96807861]},"geometry_name":"the_geom","properties":{"port_id":"GBBOS","data_src_c":"2109","port_coor_":"5","country":"UK","portname":"Boston","port":"Boston","source":"GISCO","pointx":-0.015808105,"pointy":52.968078613,"traffic":"1"}},{"type":"Feature","id":"portlocations.319","geometry":{"type":"Point","coordinates":[-2.62402344,51.44970703]},"geometry_name":"the_geom","properties":{"port_id":"GBBRS","data_src_c":"2110","port_coor_":"1","country":"UK","portname":"Bristol","port":"Bristol","source":"GISCO","pointx":-2.624023438,"pointy":51.449707031,"traffic":"1"}},{"type":"Feature","id":"portlocations.320","geometry":{"type":"Point","coordinates":[-3.15960693,51.45330811]},"geometry_name":"the_geom","properties":{"port_id":"GBCDF","data_src_c":"2109","port_coor_":"1","country":"UK","portname":"Cardiff","port":"Cardiff","source":"GISCO","pointx":-3.159606934,"pointy":51.453308105,"traffic":"1"}},{"type":"Feature","id":"portlocations.321","geometry":{"type":"Point","coordinates":[-3.26300049,53.31988525]},"geometry_name":"the_geom","properties":{"port_id":"GBCHE","data_src_c":"2109","port_coor_":"2","country":"UK","portname":"Mostyn","port":"Mostyn","source":"GISCO","pointx":-3.263000488,"pointy":53.319885254,"traffic":"1"}},{"type":"Feature","id":"portlocations.322","geometry":{"type":"Point","coordinates":[-4.03808594,57.68249512]},"geometry_name":"the_geom","properties":{"port_id":"GBCRN","data_src_c":"5106","port_coor_":"6","country":"UK","portname":"Cromarty Firth","port":"Cromarty Firth","source":"GISCO","pointx":-4.038085938,"pointy":57.682495117,"traffic":"1"}},{"type":"Feature","id":"portlocations.323","geometry":{"type":"Point","coordinates":[-5.0178833,54.96710205]},"geometry_name":"the_geom","properties":{"port_id":"GBCYN","data_src_c":"9998","port_coor_":"1","country":"UK","portname":"Cairnryan","port":"Cairnryan","source":"GISCO","pointx":-5.017883301,"pointy":54.967102051,"traffic":"1"}},{"type":"Feature","id":"portlocations.324","geometry":{"type":"Point","coordinates":[-4.32117351,55.86755563]},"geometry_name":"the_geom","properties":{"port_id":"GBCYP","data_src_c":"9998","port_coor_":"1","country":"UK","portname":"Clydeport","port":"Clydeport","source":"GISCO","pointx":-4.321173512,"pointy":55.867555628,"traffic":"1"}},{"type":"Feature","id":"portlocations.325","geometry":{"type":"Point","coordinates":[-3.583333,50.35]},"geometry_name":"the_geom","properties":{"port_id":"GBDTM","data_src_c":"0","port_coor_":null,"country":"GB","portname":null,"port":"Dartmouth","source":"UN/LOCODE","pointx":-3.583333,"pointy":50.35,"traffic":"1"}},{"type":"Feature","id":"portlocations.326","geometry":{"type":"Point","coordinates":[-2.91949463,56.46588135]},"geometry_name":"the_geom","properties":{"port_id":"GBDUN","data_src_c":"2109","port_coor_":"6","country":"UK","portname":"Dundee","port":"Dundee","source":"GISCO","pointx":-2.919494629,"pointy":56.465881348,"traffic":"1"}},{"type":"Feature","id":"portlocations.327","geometry":{"type":"Point","coordinates":[1.317476,51.123089]},"geometry_name":"the_geom","properties":{"port_id":"GBDVR","data_src_c":"2110","port_coor_":"1","country":"UK","portname":"Dover","port":"Dover","source":"GISCO","pointx":1.317476,"pointy":51.123089,"traffic":"1"}},{"type":"Feature","id":"portlocations.328","geometry":{"type":"Point","coordinates":[-5.05999756,50.15350342]},"geometry_name":"the_geom","properties":{"port_id":"GBFAL","data_src_c":"2110","port_coor_":"2","country":"UK","portname":"Falmouth","port":"Falmouth","source":"GISCO","pointx":-5.059997559,"pointy":50.153503418,"traffic":"1"}},{"type":"Feature","id":"portlocations.329","geometry":{"type":"Point","coordinates":[-4.98260498,52.01470947]},"geometry_name":"the_geom","properties":{"port_id":"GBFIS","data_src_c":"2109","port_coor_":"1","country":"UK","portname":"Fishguard","port":"Fishguard","source":"GISCO","pointx":-4.98260498,"pointy":52.014709473,"traffic":"1"}},{"type":"Feature","id":"portlocations.330","geometry":{"type":"Point","coordinates":[-3.00567627,53.9216919]},"geometry_name":"the_geom","properties":{"port_id":"GBFLE","data_src_c":"2108","port_coor_":"8","country":"UK","portname":"Fleetwood","port":"Fleetwood","source":"GISCO","pointx":-3.00567627,"pointy":53.921691895,"traffic":"1"}},{"type":"Feature","id":"portlocations.331","geometry":{"type":"Point","coordinates":[1.15,51.083333]},"geometry_name":"the_geom","properties":{"port_id":"GBFOL","data_src_c":"0","port_coor_":null,"country":"GB","portname":null,"port":"Folkestone","source":"UN/LOCODE","pointx":1.15,"pointy":51.083333,"traffic":"1"}},{"type":"Feature","id":"portlocations.332","geometry":{"type":"Point","coordinates":[-3.238245,56.0549125]},"geometry_name":"the_geom","properties":{"port_id":"GBFOR","data_src_c":"9998","port_coor_":"1","country":"UK","portname":"Forth","port":"Forth","source":"GISCO","pointx":-3.238245,"pointy":56.0549125,"traffic":"1"}},{"type":"Feature","id":"portlocations.333","geometry":{"type":"Point","coordinates":[-4.63421631,50.33532715]},"geometry_name":"the_geom","properties":{"port_id":"GBFOY","data_src_c":"5106","port_coor_":"6","country":"UK","portname":"Fowey","port":"Fowey","source":"GISCO","pointx":-4.634216309,"pointy":50.335327148,"traffic":"1"}},{"type":"Feature","id":"portlocations.334","geometry":{"type":"Point","coordinates":[1.31342449,51.94996896]},"geometry_name":"the_geom","properties":{"port_id":"GBFXT","data_src_c":"2110","port_coor_":"1","country":"UK","portname":"Felixstowe","port":"Felixstowe","source":"GISCO","pointx":1.313424492,"pointy":51.949968955,"traffic":"1"}},{"type":"Feature","id":"portlocations.335","geometry":{"type":"Point","coordinates":[-0.86688232,53.70007324]},"geometry_name":"the_geom","properties":{"port_id":"GBGOO","data_src_c":"2110","port_coor_":"3","country":"UK","portname":"Goole","port":"Goole","source":"GISCO","pointx":-0.866882324,"pointy":53.700073242,"traffic":"1"}},{"type":"Feature","id":"portlocations.336","geometry":{"type":"Point","coordinates":[-5.53240967,56.56829834]},"geometry_name":"the_geom","properties":{"port_id":"GBGSA","data_src_c":"2109","port_coor_":"6","country":"UK","portname":"Glensanda","port":"Glensanda","source":"GISCO","pointx":-5.532409668,"pointy":56.56829834,"traffic":"1"}},{"type":"Feature","id":"portlocations.337","geometry":{"type":"Point","coordinates":[1.73547363,52.57110596]},"geometry_name":"the_geom","properties":{"port_id":"GBGTY","data_src_c":"5106","port_coor_":"7","country":"UK","portname":"Great Yarmouth","port":"Great Yarmouth","source":"GISCO","pointx":1.735473633,"pointy":52.571105957,"traffic":"1"}},{"type":"Feature","id":"portlocations.338","geometry":{"type":"Point","coordinates":[-4.62359619,53.31268311]},"geometry_name":"the_geom","properties":{"port_id":"GBHLY","data_src_c":"2110","port_coor_":"1","country":"UK","portname":"Holyhead","port":"Holyhead","source":"GISCO","pointx":-4.623596191,"pointy":53.312683105,"traffic":"1"}},{"type":"Feature","id":"portlocations.339","geometry":{"type":"Point","coordinates":[1.28833008,51.94927979]},"geometry_name":"the_geom","properties":{"port_id":"GBHRW","data_src_c":"5106","port_coor_":"1","country":"UK","portname":"Harwich","port":"Harwich","source":"GISCO","pointx":1.288330078,"pointy":51.949279785,"traffic":"1"}},{"type":"Feature","id":"portlocations.340","geometry":{"type":"Point","coordinates":[-0.2969155,53.7426985]},"geometry_name":"the_geom","properties":{"port_id":"GBHUL","data_src_c":"9998","port_coor_":"1","country":"UK","portname":"Hull","port":"Hull","source":"GISCO","pointx":-0.2969155,"pointy":53.7426985,"traffic":"1"}},{"type":"Feature","id":"portlocations.341","geometry":{"type":"Point","coordinates":[-2.9229126,54.03289795]},"geometry_name":"the_geom","properties":{"port_id":"GBHYM","data_src_c":"2110","port_coor_":"1","country":"UK","portname":"Heysham","port":"Heysham","source":"GISCO","pointx":-2.922912598,"pointy":54.032897949,"traffic":"1"}},{"type":"Feature","id":"portlocations.342","geometry":{"type":"Point","coordinates":[-0.18801562,53.63088962]},"geometry_name":"the_geom","properties":{"port_id":"GBIMM","data_src_c":"2110","port_coor_":"1","country":"UK","portname":"Immingham","port":"Immingham","source":"GISCO","pointx":-0.188015619,"pointy":53.630889615,"traffic":"1"}},{"type":"Feature","id":"portlocations.343","geometry":{"type":"Point","coordinates":[1.16052246,52.04608154]},"geometry_name":"the_geom","properties":{"port_id":"GBIPS","data_src_c":"2109","port_coor_":"6","country":"UK","portname":"Ipswich","port":"Ipswich","source":"GISCO","pointx":1.160522461,"pointy":52.046081543,"traffic":"1"}},{"type":"Feature","id":"portlocations.344","geometry":{"type":"Point","coordinates":[-5.76538086,54.72027588]},"geometry_name":"the_geom","properties":{"port_id":"GBKLR","data_src_c":"2109","port_coor_":"8","country":"UK","portname":"Kilroot","port":"Kilroot","source":"GISCO","pointx":-5.765380859,"pointy":54.720275879,"traffic":"1"}},{"type":"Feature","id":"portlocations.345","geometry":{"type":"Point","coordinates":[-5.76538086,54.72027588]},"geometry_name":"the_geom","properties":{"port_id":"GBKPS","data_src_c":"2109","port_coor_":"8","country":"UK","portname":"Kilroot Power Station Jetty","port":"Kilroot Power Station Jetty","source":"GISCO","pointx":-5.765380859,"pointy":54.720275879,"traffic":"1"}},{"type":"Feature","id":"portlocations.346","geometry":{"type":"Point","coordinates":[-2.961851,58.9883575]},"geometry_name":"the_geom","properties":{"port_id":"GBKWL","data_src_c":"2109","port_coor_":"1","country":"UK","portname":"Kirkwall","port":"Kirkwall","source":"GISCO","pointx":-2.961851,"pointy":58.9883575,"traffic":"1"}},{"type":"Feature","id":"portlocations.347","geometry":{"type":"Point","coordinates":[-5.79669189,54.85150147]},"geometry_name":"the_geom","properties":{"port_id":"GBLAR","data_src_c":"2110","port_coor_":"1","country":"UK","portname":"Larne","port":"Larne","source":"GISCO","pointx":-5.796691895,"pointy":54.851501465,"traffic":"1"}},{"type":"Feature","id":"portlocations.348","geometry":{"type":"Point","coordinates":[-3.82,53.31]},"geometry_name":"the_geom","properties":{"port_id":"GBLDO","data_src_c":"0","port_coor_":null,"country":"GB","portname":null,"port":"Llandudno","source":"Marine Traffic","pointx":-3.82,"pointy":53.31,"traffic":"1"}},{"type":"Feature","id":"portlocations.349","geometry":{"type":"Point","coordinates":[-7.31860352,54.99847412]},"geometry_name":"the_geom","properties":{"port_id":"GBLDY","data_src_c":"5106","port_coor_":"5","country":"UK","portname":"Londonderry","port":"Londonderry","source":"GISCO","pointx":-7.318603516,"pointy":54.998474121,"traffic":"1"}},{"type":"Feature","id":"portlocations.350","geometry":{"type":"Point","coordinates":[-1.13970947,60.15429688]},"geometry_name":"the_geom","properties":{"port_id":"GBLER","data_src_c":"2109","port_coor_":"6","country":"UK","portname":"Lerwick (Shetland Islands)","port":"Lerwick (Shetland Islands)","source":"GISCO","pointx":-1.139709473,"pointy":60.154296875,"traffic":"1"}},{"type":"Feature","id":"portlocations.351","geometry":{"type":"Point","coordinates":[-3.01351072,53.44506331]},"geometry_name":"the_geom","properties":{"port_id":"GBLIV","data_src_c":"2110","port_coor_":"1","country":"UK","portname":"Liverpool","port":"Liverpool","source":"GISCO","pointx":-3.013510721,"pointy":53.445063312,"traffic":"1"}},{"type":"Feature","id":"portlocations.352","geometry":{"type":"Point","coordinates":[-0.079138,51.5054245]},"geometry_name":"the_geom","properties":{"port_id":"GBLON","data_src_c":"2109","port_coor_":"1","country":"UK","portname":"London","port":"London","source":"GISCO","pointx":-0.079138,"pointy":51.5054245,"traffic":"1"}},{"type":"Feature","id":"portlocations.353","geometry":{"type":"Point","coordinates":[-5.03333333,54.98333333]},"geometry_name":"the_geom","properties":{"port_id":"GBLRP","data_src_c":"0","port_coor_":null,"country":"GB","portname":null,"port":"Loch Ryan Pt","source":"UN/LOCODE","pointx":-5.0333333333,"pointy":54.983333333,"traffic":"1"}},{"type":"Feature","id":"portlocations.354","geometry":{"type":"Point","coordinates":[0.55290863,51.40056149]},"geometry_name":"the_geom","properties":{"port_id":"GBMED","data_src_c":"9998","port_coor_":"1","country":"UK","portname":"Medway","port":"Medway","source":"GISCO","pointx":0.552908627,"pointy":51.400561494,"traffic":"1"}},{"type":"Feature","id":"portlocations.355","geometry":{"type":"Point","coordinates":[-5.02986324,51.70950802]},"geometry_name":"the_geom","properties":{"port_id":"GBMLF","data_src_c":"2109","port_coor_":"1","country":"UK","portname":"Milford Haven","port":"Milford Haven","source":"GISCO","pointx":-5.029863244,"pointy":51.709508015,"traffic":"1"}},{"type":"Feature","id":"portlocations.356","geometry":{"type":"Point","coordinates":[-1.15883832,54.61794644]},"geometry_name":"the_geom","properties":{"port_id":"GBMME","data_src_c":"9998","port_coor_":"1","country":"UK","portname":"Tees & Hartlepool","port":"Tees & Hartlepool","source":"GISCO","pointx":-1.15883832,"pointy":54.617946439,"traffic":"1"}},{"type":"Feature","id":"portlocations.357","geometry":{"type":"Point","coordinates":[-2.296875,53.47113037]},"geometry_name":"the_geom","properties":{"port_id":"GBMNC","data_src_c":"2109","port_coor_":"1","country":"UK","portname":"Manchester","port":"Manchester","source":"GISCO","pointx":-2.296875,"pointy":53.471130371,"traffic":"1"}},{"type":"Feature","id":"portlocations.358","geometry":{"type":"Point","coordinates":[0.05889893,50.7824707]},"geometry_name":"the_geom","properties":{"port_id":"GBNHV","data_src_c":"5106","port_coor_":"1","country":"UK","portname":"Newhaven","port":"Newhaven","source":"GISCO","pointx":0.058898926,"pointy":50.782470703,"traffic":"1"}},{"type":"Feature","id":"portlocations.359","geometry":{"type":"Point","coordinates":[-2.98608398,51.56750488]},"geometry_name":"the_geom","properties":{"port_id":"GBNPT","data_src_c":"2110","port_coor_":"3","country":"UK","portname":"Newport, Gwent","port":"Newport, Gwent","source":"GISCO","pointx":-2.986083984,"pointy":51.567504883,"traffic":"1"}},{"type":"Feature","id":"portlocations.360","geometry":{"type":"Point","coordinates":[-5.4743042,56.41467285]},"geometry_name":"the_geom","properties":{"port_id":"GBOBA","data_src_c":"2109","port_coor_":"5","country":"UK","portname":"Oban","port":"Oban","source":"GISCO","pointx":-5.474304199,"pointy":56.414672852,"traffic":"1"}},{"type":"Feature","id":"portlocations.361","geometry":{"type":"Point","coordinates":[-1.77191162,57.50109863]},"geometry_name":"the_geom","properties":{"port_id":"GBPHD","data_src_c":"5106","port_coor_":"6","country":"UK","portname":"Peterhead","port":"Peterhead","source":"GISCO","pointx":-1.771911621,"pointy":57.501098633,"traffic":"1"}},{"type":"Feature","id":"portlocations.362","geometry":{"type":"Point","coordinates":[-4.13519287,50.36309815]},"geometry_name":"the_geom","properties":{"port_id":"GBPLY","data_src_c":"2110","port_coor_":"1","country":"UK","portname":"Plymouth","port":"Plymouth","source":"GISCO","pointx":-4.135192871,"pointy":50.363098145,"traffic":"1"}},{"type":"Feature","id":"portlocations.363","geometry":{"type":"Point","coordinates":[-1.10620117,50.80889893]},"geometry_name":"the_geom","properties":{"port_id":"GBPME","data_src_c":"2110","port_coor_":"1","country":"UK","portname":"Portsmouth","port":"Portsmouth","source":"GISCO","pointx":-1.106201172,"pointy":50.808898926,"traffic":"1"}},{"type":"Feature","id":"portlocations.364","geometry":{"type":"Point","coordinates":[-1.98278809,50.71209717]},"geometry_name":"the_geom","properties":{"port_id":"GBPOO","data_src_c":"2109","port_coor_":"1","country":"UK","portname":"Poole","port":"Poole","source":"GISCO","pointx":-1.982788086,"pointy":50.712097168,"traffic":"1"}},{"type":"Feature","id":"portlocations.365","geometry":{"type":"Point","coordinates":[-3.79769,51.5763205]},"geometry_name":"the_geom","properties":{"port_id":"GBPTB","data_src_c":"2110","port_coor_":"1","country":"UK","portname":"Port Talbot","port":"Port Talbot","source":"GISCO","pointx":-3.79769,"pointy":51.5763205,"traffic":"1"}},{"type":"Feature","id":"portlocations.366","geometry":{"type":"Point","coordinates":[1.42028809,51.32769775]},"geometry_name":"the_geom","properties":{"port_id":"GBRMG","data_src_c":"2110","port_coor_":"1","country":"UK","portname":"Ramsgate","port":"Ramsgate","source":"GISCO","pointx":1.420288086,"pointy":51.327697754,"traffic":"1"}},{"type":"Feature","id":"portlocations.367","geometry":{"type":"Point","coordinates":[-0.25091553,50.83068848]},"geometry_name":"the_geom","properties":{"port_id":"GBSHO","data_src_c":"2110","port_coor_":"1","country":"UK","portname":"Shoreham","port":"Shoreham","source":"GISCO","pointx":-0.250915527,"pointy":50.830688477,"traffic":"1"}},{"type":"Feature","id":"portlocations.368","geometry":{"type":"Point","coordinates":[-1.40591094,50.89632164]},"geometry_name":"the_geom","properties":{"port_id":"GBSOU","data_src_c":"2110","port_coor_":"1","country":"UK","portname":"Southampton","port":"Southampton","source":"GISCO","pointx":-1.405910939,"pointy":50.89632164,"traffic":"1"}},{"type":"Feature","id":"portlocations.369","geometry":{"type":"Point","coordinates":[-5.02502441,54.90808106]},"geometry_name":"the_geom","properties":{"port_id":"GBSTR","data_src_c":"2109","port_coor_":"1","country":"UK","portname":"Stranraer","port":"Stranraer","source":"GISCO","pointx":-5.025024414,"pointy":54.908081055,"traffic":"1"}},{"type":"Feature","id":"portlocations.370","geometry":{"type":"Point","coordinates":[-1.281773,60.456764]},"geometry_name":"the_geom","properties":{"port_id":"GBSUL","data_src_c":"2110","port_coor_":"1","country":"UK","portname":"Sullom Voe","port":"Sullom Voe","source":"GISCO","pointx":-1.281773,"pointy":60.456764,"traffic":"1"}},{"type":"Feature","id":"portlocations.371","geometry":{"type":"Point","coordinates":[-1.36132812,54.91729736]},"geometry_name":"the_geom","properties":{"port_id":"GBSUN","data_src_c":"2110","port_coor_":"3","country":"UK","portname":"Sunderland","port":"Sunderland","source":"GISCO","pointx":-1.361328125,"pointy":54.917297363,"traffic":"1"}},{"type":"Feature","id":"portlocations.372","geometry":{"type":"Point","coordinates":[-3.92980957,51.61547852]},"geometry_name":"the_geom","properties":{"port_id":"GBSWA","data_src_c":"2110","port_coor_":"1","country":"UK","portname":"Swansea","port":"Swansea","source":"GISCO","pointx":-3.92980957,"pointy":51.615478516,"traffic":"1"}},{"type":"Feature","id":"portlocations.373","geometry":{"type":"Point","coordinates":[-4.6685791,55.54650879]},"geometry_name":"the_geom","properties":{"port_id":"GBTRN","data_src_c":"2110","port_coor_":"1","country":"UK","portname":"Troon","port":"Troon","source":"GISCO","pointx":-4.668579102,"pointy":55.546508789,"traffic":"1"}},{"type":"Feature","id":"portlocations.374","geometry":{"type":"Point","coordinates":[-1.44598389,54.99090576]},"geometry_name":"the_geom","properties":{"port_id":"GBTYN","data_src_c":"2110","port_coor_":"1","country":"UK","portname":"Tyne","port":"Tyne","source":"GISCO","pointx":-1.445983887,"pointy":54.990905762,"traffic":"1"}},{"type":"Feature","id":"portlocations.375","geometry":{"type":"Point","coordinates":[-2.44641113,50.605896]},"geometry_name":"the_geom","properties":{"port_id":"GBWEY","data_src_c":"2110","port_coor_":"1","country":"UK","portname":"Weymouth","port":"Weymouth","source":"GISCO","pointx":-2.446411133,"pointy":50.605895996,"traffic":"1"}},{"type":"Feature","id":"portlocations.376","geometry":{"type":"Point","coordinates":[-3.5927124,54.55090332]},"geometry_name":"the_geom","properties":{"port_id":"GBWHV","data_src_c":"2111","port_coor_":"3","country":"UK","portname":"Whitehaven","port":"Whitehaven","source":"GISCO","pointx":-3.592712402,"pointy":54.55090332,"traffic":"1"}},{"type":"Feature","id":"portlocations.377","geometry":{"type":"Point","coordinates":[-6.25079346,54.09790039]},"geometry_name":"the_geom","properties":{"port_id":"GBWPT","data_src_c":"2109","port_coor_":"5","country":"UK","portname":"Warrenpoint","port":"Warrenpoint","source":"GISCO","pointx":-6.250793457,"pointy":54.097900391,"traffic":"1"}},{"type":"Feature","id":"portlocations.612","geometry":{"type":"Point","coordinates":[-9.45898437,51.68109131]},"geometry_name":"the_geom","properties":{"port_id":"IEBYT","data_src_c":"2107","port_coor_":"7","country":"IE","portname":"Bantry Bay","port":"Bantry Bay","source":"GISCO","pointx":-9.458984375,"pointy":51.681091309,"traffic":"1"}},{"type":"Feature","id":"portlocations.613","geometry":{"type":"Point","coordinates":[-6.38769531,54.00769043]},"geometry_name":"the_geom","properties":{"port_id":"IEDDK","data_src_c":"2108","port_coor_":"6","country":"IE","portname":"Dundalk","port":"Dundalk","source":"GISCO","pointx":-6.387695313,"pointy":54.00769043,"traffic":"1"}},{"type":"Feature","id":"portlocations.614","geometry":{"type":"Point","coordinates":[-6.1329956,53.29730225]},"geometry_name":"the_geom","properties":{"port_id":"IEDLG","data_src_c":"2109","port_coor_":"1","country":"IE","portname":"Dun Laoghaire","port":"Dun Laoghaire","source":"GISCO","pointx":-6.132995605,"pointy":53.297302246,"traffic":"1"}},{"type":"Feature","id":"portlocations.615","geometry":{"type":"Point","coordinates":[-6.33331299,53.71667481]},"geometry_name":"the_geom","properties":{"port_id":"IEDRO","data_src_c":"2109","port_coor_":"5","country":"IE","portname":"Drogheda","port":"Drogheda","source":"GISCO","pointx":-6.333312988,"pointy":53.716674805,"traffic":"1"}},{"type":"Feature","id":"portlocations.616","geometry":{"type":"Point","coordinates":[-6.22392966,53.34784039]},"geometry_name":"the_geom","properties":{"port_id":"IEDUB","data_src_c":"2110","port_coor_":"1","country":"IE","portname":"Dublin","port":"Dublin","source":"GISCO","pointx":-6.223929664,"pointy":53.34784039,"traffic":"1"}},{"type":"Feature","id":"portlocations.617","geometry":{"type":"Point","coordinates":[-9.04400635,53.26867676]},"geometry_name":"the_geom","properties":{"port_id":"IEGWY","data_src_c":"5106","port_coor_":"5","country":"IE","portname":"Galway","port":"Galway","source":"GISCO","pointx":-9.044006348,"pointy":53.268676758,"traffic":"1"}},{"type":"Feature","id":"portlocations.618","geometry":{"type":"Point","coordinates":[-8.51770019,51.70147705]},"geometry_name":"the_geom","properties":{"port_id":"IEKLN","data_src_c":"2110","port_coor_":"3","country":"IE","portname":"Kinsale","port":"Kinsale","source":"GISCO","pointx":-8.517700195,"pointy":51.701477051,"traffic":"1"}},{"type":"Feature","id":"portlocations.619","geometry":{"type":"Point","coordinates":[-8.62538719,52.66807284]},"geometry_name":"the_geom","properties":{"port_id":"IELMK","data_src_c":"2108","port_coor_":"1","country":"IE","portname":"Limerick","port":"Limerick","source":"GISCO","pointx":-8.625387188,"pointy":52.66807284,"traffic":"1"}},{"type":"Feature","id":"portlocations.620","geometry":{"type":"Point","coordinates":[-6.9454956,52.39428711]},"geometry_name":"the_geom","properties":{"port_id":"IENRS","data_src_c":"2109","port_coor_":"5","country":"IE","portname":"New Ross","port":"New Ross","source":"GISCO","pointx":-6.945495605,"pointy":52.394287109,"traffic":"1"}},{"type":"Feature","id":"portlocations.621","geometry":{"type":"Point","coordinates":[-8.43548584,51.90167236]},"geometry_name":"the_geom","properties":{"port_id":"IEORK","data_src_c":"2110","port_coor_":"1","country":"IE","portname":"Cork","port":"Cork","source":"GISCO","pointx":-8.43548584,"pointy":51.901672363,"traffic":"1"}},{"type":"Feature","id":"portlocations.622","geometry":{"type":"Point","coordinates":[-6.33862305,52.25549316]},"geometry_name":"the_geom","properties":{"port_id":"IEROS","data_src_c":"9998","port_coor_":"1","country":"IE","portname":"Rosslare Harbour","port":"Rosslare Harbour","source":"GISCO","pointx":-6.338623047,"pointy":52.255493164,"traffic":"1"}},{"type":"Feature","id":"portlocations.623","geometry":{"type":"Point","coordinates":[-7.11218262,52.26208496]},"geometry_name":"the_geom","properties":{"port_id":"IEWAT","data_src_c":"2108","port_coor_":"6","country":"IE","portname":"Waterford","port":"Waterford","source":"GISCO","pointx":-7.112182617,"pointy":52.262084961,"traffic":"1"}}],"numberReturned":78,"timeStamp":"2026-10-07T14:03:06.108Z","crs":{"type":"name","properties":{"name":"urn:ogc:def:crs:EPSG::4326"}},"helmlore_source":{"provider":"EMODnet Human Activities","metadata":"https://emodnet.ec.europa.eu/geonetwork/srv/api/records/379d0425-8924-4a41-a088-1a002d2ea748","retrieved":"2026-10-07","query_bounds":[-20,48,10,63],"scope":"UK and Ireland surrounding seas study extent, including neighbouring countries. Features intersect extent; not clipped or country filtered. Not a complete hazard inventory.","changes":"Spatial query subset; geometry unchanged. Country filtered to UK and Ireland (UK fibre cables layer retained as supplied).","licence":"CC BY 4.0"}}