{"type":"FeatureCollection","features":[{"type":"Feature","id":"ukfibrecables.1","geometry":{"type":"MultiLineString","coordinates":[[[1.15990669,61.35640985],[1.16059372,61.35617685],[1.16124373,61.35626586],[1.16232074,61.35668489],[1.16254874,61.35692991],[1.1621377,61.35737992],[1.08910753,61.41183113],[0.95671714,61.50990231],[0.94948665,61.51493342],[0.94921665,61.51475241],[0.94942269,61.51412739]]]},"geometry_name":"the_geom","properties":{"id":500005560,"pipe_dtino":null,"pipe_name":"OTTER POWER CABLE P1","desc_":"EIDER PLATFORM TO OTTER TEMPLATE POWER CABLE P1","diameter":0.0,"units":null,"fluid":"FIBRE","status":"ACTIVE","exposed":null,"untrenched":null,"operator":"TAQA","start_date":"2001-12-01T00:00:00.000Z","end_date":null,"ins_date":"2003-06-20T00:00:00.000Z","upd_date":"2017-01-19T00:00:00.000Z","size_in":0.0,"year":"2001","location":"Offshore"}},{"type":"Feature","id":"ukfibrecables.2","geometry":{"type":"MultiLineString","coordinates":[[[1.15990669,61.35640685],[1.16063473,61.35608785],[1.16137974,61.35617686],[1.16289073,61.35717992],[1.05781629,61.43546967],[0.96585177,61.50354618],[0.94998066,61.51493343],[0.94923064,61.51491042],[0.94940869,61.51412739]]]},"geometry_name":"the_geom","properties":{"id":500005561,"pipe_dtino":null,"pipe_name":"OTTER POWER CABLE P2","desc_":"EIDER PLATFORM TO OTTER TEMPLATE POWER CABLE P2","diameter":0.0,"units":null,"fluid":"FIBRE","status":"ACTIVE","exposed":null,"untrenched":null,"operator":"TAQA","start_date":"2002-01-01T00:00:00.000Z","end_date":null,"ins_date":"2003-06-20T00:00:00.000Z","upd_date":"2017-01-19T00:00:00.000Z","size_in":0.0,"year":"2002","location":"Offshore"}},{"type":"Feature","id":"ukfibrecables.3","geometry":{"type":"MultiLineString","coordinates":[[[1.15990669,61.35640985],[1.16060472,61.35608185],[1.16125974,61.35613486],[1.16326574,61.35733793],[1.08120692,61.4185693],[0.99152557,61.48487677],[0.96895996,61.50174115],[0.95097271,61.51456642],[0.94922264,61.51487441],[0.94941669,61.51411939]]]},"geometry_name":"the_geom","properties":{"id":500005562,"pipe_dtino":null,"pipe_name":"OTTER POWER CABLE P3","desc_":"EIDER PLATFORM TO OTTER TEMPLATE POWER CABLE P3","diameter":0.0,"units":null,"fluid":"FIBRE","status":"ACTIVE","exposed":null,"untrenched":null,"operator":"TAQA","start_date":"2002-04-01T00:00:00.000Z","end_date":null,"ins_date":"2003-06-20T00:00:00.000Z","upd_date":"2017-01-19T00:00:00.000Z","size_in":0.0,"year":"2002","location":"Offshore"}},{"type":"Feature","id":"ukfibrecables.4","geometry":{"type":"MultiLineString","coordinates":[[[-2.4963634,60.73536623],[-2.4927732,60.73357221],[-2.53813814,60.69225602],[-2.5404821,60.69044492],[-2.54057309,60.69014891],[-2.53953697,60.68847486]]]},"geometry_name":"the_geom","properties":{"id":510001421,"pipe_dtino":null,"pipe_name":"CLAIR RIDGE FIBRE OPTIC TELECOMS CABLE","desc_":"CLAIR RIDGE FIBRE OPTIC TELECOMS CABLE","diameter":0.0,"units":null,"fluid":"FIBRE","status":"PRECOMMISSION","exposed":null,"untrenched":null,"operator":"BP","start_date":"2015-10-01T00:00:00.000Z","end_date":null,"ins_date":"2015-10-08T00:00:00.000Z","upd_date":"2017-01-19T00:00:00.000Z","size_in":0.0,"year":"2015","location":"Offshore"}},{"type":"Feature","id":"ukfibrecables.5","geometry":{"type":"MultiLineString","coordinates":[[[1.66446085,57.29121593],[1.66474987,57.29089392],[1.69726152,57.27181262],[1.8834462,57.15597869],[1.96615278,57.12204946],[1.97922341,57.11515237],[1.98979386,57.11078234],[2.06442089,57.08514531],[2.08161355,57.08010633],[2.08204856,57.08013234],[2.08246956,57.08048535]]]},"geometry_name":"the_geom","properties":{"id":510001559,"pipe_dtino":"PLU3955","pipe_name":"ETAP ELECTRICAL UPGRADE (EECU)-UMB","desc_":"MACHAR EECU UMBILICAL","diameter":109.0,"units":"mm","fluid":"FIBRE","status":"PRECOMMISSION","exposed":null,"untrenched":null,"operator":"BP","start_date":"2016-06-26T00:00:00.000Z","end_date":null,"ins_date":"2016-05-13T00:00:00.000Z","upd_date":"2017-01-19T00:00:00.000Z","size_in":4.2913409,"year":"2016","location":"Offshore"}},{"type":"Feature","id":"ukfibrecables.6","geometry":{"type":"MultiLineString","coordinates":[[[1.66177865,57.294308],[1.66371474,57.29322399],[1.66400181,57.29178494],[1.66444985,57.29122993]]]},"geometry_name":"the_geom","properties":{"id":510001560,"pipe_dtino":"PLU3954","pipe_name":"ETAP ELECTRICAL UPGRADE (EECU)-RISER","desc_":"EECU RISER UMBILICAL","diameter":139.0,"units":"mm","fluid":"FIBRE","status":"PRECOMMISSION","exposed":null,"untrenched":null,"operator":"BP","start_date":"2016-09-07T00:00:00.000Z","end_date":null,"ins_date":"2016-05-13T00:00:00.000Z","upd_date":"2017-01-19T00:00:00.000Z","size_in":5.4724439,"year":"2016","location":"Offshore"}},{"type":"Feature","id":"ukfibrecables.7","geometry":{"type":"MultiLineString","coordinates":[[[-3.41478617,58.24025911],[-3.38127873,58.22736808],[-3.3779666,58.22630609],[-3.37660653,58.22559408],[-3.37241635,58.22395508],[-3.28044139,58.18857501],[-3.27890831,58.18775],[-3.26989692,58.18423699],[-3.25455027,58.17855299],[-3.25016507,58.17673798],[-3.23009021,58.16904997],[-3.2277601,58.16795096],[-3.22026079,58.16526696],[-3.20868328,58.16062294],[-3.19713079,58.15630194],[-3.19215657,58.15422293],[-3.16102323,58.14227991],[-3.15463695,58.1396219],[-3.1418374,58.13480789],[-3.11667431,58.12484886],[-3.11465623,58.12420686],[-3.10726597,58.1225919],[-3.10434087,58.12220793],[-3.10305682,58.12179193],[-3.10169175,58.12089391],[-3.10109869,58.11993289],[-3.10215256,58.11654375],[-3.10239055,58.11620874],[-3.10329354,58.1156187],[-3.10378752,58.11482167],[-3.10374749,58.11429865],[-3.10281644,58.11378764],[-3.10197641,58.11349764],[-3.10050636,58.11329566],[-3.0982383,58.11323968],[-3.09517524,58.11353973],[-3.09028016,58.11434283],[-3.08943313,58.11430584]]]},"geometry_name":"the_geom","properties":{"id":510001889,"pipe_dtino":"PL4331","pipe_name":"BEATRICE ALPHA TO DUNBEATH POWER CABLE","desc_":"DUNBEATH POWER CABLE","diameter":4.0,"units":"inch","fluid":"FIBRE","status":"ACTIVE","exposed":null,"untrenched":null,"operator":"REPSOL SINOPEC","start_date":"1980-06-01T00:00:00.000Z","end_date":null,"ins_date":"2017-11-15T00:00:00.000Z","upd_date":"2018-11-01T00:00:00.000Z","size_in":4.0,"year":"1980","location":"Offshore"}},{"type":"Feature","id":"ukfibrecables.8","geometry":{"type":"MultiLineString","coordinates":[[[0.69570665,58.32380368],[0.69544066,58.32341266]]]},"geometry_name":"the_geom","properties":{"id":500008091,"pipe_dtino":"PLU1334JW10","pipe_name":"WDC3 TO W10 CABLE","desc_":"WDC3 TO W10 POWER AND SIGNAL CABLE","diameter":39.7,"units":"mm","fluid":"FIBRE","status":"ABANDONED","exposed":null,"untrenched":null,"operator":"CONOCOPHILLIPS","start_date":"2009-05-01T00:00:00.000Z","end_date":"2022-01-01T00:00:00.000Z","ins_date":"2009-11-03T00:00:00.000Z","upd_date":"2018-11-13T00:00:00.000Z","size_in":1.56299297,"year":"2009","location":"Offshore"}},{"type":"Feature","id":"ukfibrecables.9","geometry":{"type":"MultiLineString","coordinates":[[[1.76443523,53.096955],[1.76538726,53.096757],[1.7706514,53.09655106],[1.78192972,53.09498114],[1.78939892,53.0941982],[1.79498009,53.09308122],[1.79960421,53.09281427],[1.80477837,53.09181829],[1.83103209,53.0889125],[1.83905832,53.08775155],[1.84193641,53.08698556],[1.84375146,53.08690458],[1.84627351,53.08712762],[1.84759455,53.08702463],[1.84954861,53.08654564],[1.84981063,53.08629963]]]},"geometry_name":"the_geom","properties":{"id":500007938,"pipe_dtino":"U30-10","pipe_name":"48/29C TO 48/30-10 HYD WELL CONTROL","desc_":"48/29C TO 48/30-10 UMBILICAL","diameter":0.0,"units":null,"fluid":"FIBRE","status":"ACTIVE","exposed":null,"untrenched":null,"operator":"ENI","start_date":"1986-01-01T00:00:00.000Z","end_date":null,"ins_date":"2009-06-24T00:00:00.000Z","upd_date":"2017-01-19T00:00:00.000Z","size_in":0.0,"year":"1986","location":"Offshore"}},{"type":"Feature","id":"ukfibrecables.10","geometry":{"type":"MultiLineString","coordinates":[[[1.57623872,61.3640824],[1.57623972,61.3640814]]]},"geometry_name":"the_geom","properties":{"id":510000412,"pipe_dtino":"PLU2580","pipe_name":"THISTLE SSIV UMBILICAL","desc_":"THISTLE SSIV UMBILICAL","diameter":3.4,"units":"inch","fluid":"FIBRE","status":"ACTIVE","exposed":null,"untrenched":null,"operator":"ENQUEST HEATHER","start_date":"2012-05-04T00:00:00.000Z","end_date":null,"ins_date":"2012-05-07T00:00:00.000Z","upd_date":"2018-11-21T00:00:00.000Z","size_in":3.4,"year":"2012","location":"Offshore"}},{"type":"Feature","id":"ukfibrecables.11","geometry":{"type":"MultiLineString","coordinates":[[[1.12685625,61.03276276],[1.12730827,61.03272376],[1.12726524,61.03312278],[1.12748123,61.0335168]]]},"geometry_name":"the_geom","properties":{"id":510000896,"pipe_dtino":"PLU3136","pipe_name":"POWER/ELECTRICAL CABLE SDU1 TO SDU2","desc_":"POWER/ELECTRICAL CONTROL JUMPER FROM SDU1 TO SDU2","diameter":0.0,"units":null,"fluid":"FIBRE","status":"ACTIVE","exposed":null,"untrenched":null,"operator":"TAQA","start_date":"2013-08-30T00:00:00.000Z","end_date":null,"ins_date":"2013-10-28T00:00:00.000Z","upd_date":"2017-01-19T00:00:00.000Z","size_in":0.0,"year":"2013","location":"Offshore"}},{"type":"Feature","id":"ukfibrecables.12","geometry":{"type":"MultiLineString","coordinates":[[[1.94483421,60.55784251],[1.9444562,60.5577565],[1.94372416,60.5580435],[1.86834178,60.52200917],[1.86655769,60.52280218],[1.8669887,60.52286919]]]},"geometry_name":"the_geom","properties":{"id":510000491,"pipe_dtino":"PL2816.2","pipe_name":"ISLAY TO FORVIE FIBRE OPTIC PIP","desc_":"ISLAY TO FORVIE FIBRE OPTIC PIP","diameter":0.0,"units":null,"fluid":"FIBRE","status":"ACTIVE","exposed":null,"untrenched":null,"operator":"TOTAL","start_date":"2012-01-31T00:00:00.000Z","end_date":null,"ins_date":"2012-10-18T00:00:00.000Z","upd_date":"2017-01-19T00:00:00.000Z","size_in":0.0,"year":"2012","location":"Offshore"}},{"type":"Feature","id":"ukfibrecables.13","geometry":{"type":"MultiLineString","coordinates":[[[1.94483421,60.55784251],[1.9444562,60.5577565],[1.94372416,60.5580435],[1.86834178,60.52200917],[1.86655769,60.52280218],[1.8669887,60.52286919]]]},"geometry_name":"the_geom","properties":{"id":510000492,"pipe_dtino":"PL2816.3","pipe_name":"ISLAY TO FORVIE ELECTRICAL PIP","desc_":"ISLAY TO FORVIE ELECTRICAL PIP","diameter":0.0,"units":null,"fluid":"FIBRE","status":"ACTIVE","exposed":null,"untrenched":null,"operator":"TOTAL","start_date":"2012-01-31T00:00:00.000Z","end_date":null,"ins_date":"2012-10-18T00:00:00.000Z","upd_date":"2017-01-19T00:00:00.000Z","size_in":0.0,"year":"2012","location":"Offshore"}},{"type":"Feature","id":"ukfibrecables.14","geometry":{"type":"MultiLineString","coordinates":[[[2.78424387,56.18586683],[2.76270284,56.19834202]]]},"geometry_name":"the_geom","properties":{"id":510001219,"pipe_dtino":"PL3013","pipe_name":"ESP PRODUCTION POWER CABLE C","desc_":"FPSO TURRET J-TUBE TO ALMA MANIFOLD","diameter":251.0,"units":"mm","fluid":"FIBRE","status":"PRECOMMISSION","exposed":null,"untrenched":null,"operator":"ENQUEST HEATHER","start_date":"2013-06-01T00:00:00.000Z","end_date":null,"ins_date":"2014-11-13T00:00:00.000Z","upd_date":"2018-11-21T00:00:00.000Z","size_in":9.8818951,"year":"2013","location":"Offshore"}},{"type":"Feature","id":"ukfibrecables.15","geometry":{"type":"MultiLineString","coordinates":[[[1.53560836,59.54650769],[1.67878889,59.43161311]]]},"geometry_name":"the_geom","properties":{"id":510002085,"pipe_dtino":"PL4076.9","pipe_name":"PL4076.9","desc_":"CALLATER ELECTRICAL UMBILICAL","diameter":2.0,"units":"inch","fluid":"FIBRE","status":"ACTIVE","exposed":null,"untrenched":null,"operator":"APACHE","start_date":"2017-02-13T00:00:00.000Z","end_date":null,"ins_date":"2019-04-18T00:00:00.000Z","upd_date":"2019-05-27T00:00:00.000Z","size_in":2.0,"year":"2017","location":"Offshore"}},{"type":"Feature","id":"ukfibrecables.16","geometry":{"type":"MultiLineString","coordinates":[[[1.6184364,59.44802699],[1.61897445,59.44743097]]]},"geometry_name":"the_geom","properties":{"id":510001985,"pipe_dtino":"PLU4432","pipe_name":"PLU4432","desc_":"CONTROLS TO CALLATER WELL CC2","diameter":3.0,"units":"inch","fluid":"FIBRE","status":"ACTIVE","exposed":null,"untrenched":null,"operator":"APACHE","start_date":"2018-09-01T00:00:00.000Z","end_date":null,"ins_date":"2018-11-02T00:00:00.000Z","upd_date":"2018-11-02T00:00:00.000Z","size_in":3.0,"year":"2018","location":"Offshore"}},{"type":"Feature","id":"ukfibrecables.17","geometry":{"type":"MultiLineString","coordinates":[[[1.61923642,59.448099],[1.61843041,59.44801299]]]},"geometry_name":"the_geom","properties":{"id":510002091,"pipe_dtino":"PLU4092","pipe_name":"PLU4092","desc_":"S211 POWER/SIGNAL JUMPER","diameter":2.0,"units":"inch","fluid":"FIBRE","status":"ACTIVE","exposed":null,"untrenched":null,"operator":"APACHE","start_date":"2017-05-12T00:00:00.000Z","end_date":null,"ins_date":"2019-04-18T00:00:00.000Z","upd_date":"2019-05-27T00:00:00.000Z","size_in":2.0,"year":"2017","location":"Offshore"}},{"type":"Feature","id":"ukfibrecables.18","geometry":{"type":"MultiLineString","coordinates":[[[-3.67189374,53.62602479],[-3.57983961,53.53828015],[-3.57939058,53.53760113]]]},"geometry_name":"the_geom","properties":{"id":510000642,"pipe_dtino":"PLU2942","pipe_name":"DOUGLAS TO CONWY UMBILICAL","desc_":"DOUGLAS TO CONWY UMBILICAL","diameter":1.0,"units":"inch","fluid":"FIBRE","status":"ACTIVE","exposed":null,"untrenched":null,"operator":"TAILWIND","start_date":"2012-12-21T00:00:00.000Z","end_date":null,"ins_date":"2013-05-08T00:00:00.000Z","upd_date":"2018-11-29T00:00:00.000Z","size_in":1.0,"year":"2012","location":"Offshore"}},{"type":"Feature","id":"ukfibrecables.19","geometry":{"type":"MultiLineString","coordinates":[[[1.61799137,59.448438],[1.61843041,59.44801299]]]},"geometry_name":"the_geom","properties":{"id":510002097,"pipe_dtino":"PLU4093","pipe_name":"PLU4093","desc_":"S215 POWER/SIGNAL JUMPER","diameter":2.0,"units":"inch","fluid":"FIBRE","status":"ACTIVE","exposed":null,"untrenched":null,"operator":"APACHE","start_date":"2017-11-08T00:00:00.000Z","end_date":null,"ins_date":"2019-04-18T00:00:00.000Z","upd_date":"2019-05-27T00:00:00.000Z","size_in":2.0,"year":"2017","location":"Offshore"}},{"type":"Feature","id":"ukfibrecables.20","geometry":{"type":"MultiLineString","coordinates":[[[1.61788041,59.44768597],[1.61843041,59.44801299]]]},"geometry_name":"the_geom","properties":{"id":510002104,"pipe_dtino":"PLU4094","pipe_name":"PLU4094","desc_":"S214 POWER/SIGNAL JUMPER","diameter":2.0,"units":"inch","fluid":"FIBRE","status":"ACTIVE","exposed":null,"untrenched":null,"operator":"APACHE","start_date":"2019-07-19T00:00:00.000Z","end_date":null,"ins_date":"2019-04-18T00:00:00.000Z","upd_date":"2019-05-27T00:00:00.000Z","size_in":2.0,"year":"2019","location":"Offshore"}},{"type":"Feature","id":"ukfibrecables.21","geometry":{"type":"MultiLineString","coordinates":[[[2.78424187,56.18586683],[2.76270284,56.19834202]]]},"geometry_name":"the_geom","properties":{"id":510001217,"pipe_dtino":"PL3011","pipe_name":"ESP PRODUCTION POWER CABLE A","desc_":"FPSO TURRET J-TUBE TO ALMA MANIFOLD","diameter":251.0,"units":"mm","fluid":"FIBRE","status":"PRECOMMISSION","exposed":null,"untrenched":null,"operator":"ENQUEST HEATHER","start_date":"2013-06-01T00:00:00.000Z","end_date":null,"ins_date":"2014-11-13T00:00:00.000Z","upd_date":"2018-11-21T00:00:00.000Z","size_in":9.8818951,"year":"2013","location":"Offshore"}},{"type":"Feature","id":"ukfibrecables.22","geometry":{"type":"MultiLineString","coordinates":[[[2.78424387,56.18586683],[2.76270284,56.19834202]]]},"geometry_name":"the_geom","properties":{"id":510001218,"pipe_dtino":"PL3012","pipe_name":"ESP PRODUCTION POWER CABLE B","desc_":"FPSO TURRET J-TUBE TO ALMA MANIFOLD","diameter":251.0,"units":"mm","fluid":"FIBRE","status":"PRECOMMISSION","exposed":null,"untrenched":null,"operator":"ENQUEST HEATHER","start_date":"2013-06-01T00:00:00.000Z","end_date":null,"ins_date":"2014-11-13T00:00:00.000Z","upd_date":"2018-11-21T00:00:00.000Z","size_in":9.8818951,"year":"2013","location":"Offshore"}},{"type":"Feature","id":"ukfibrecables.23","geometry":{"type":"MultiLineString","coordinates":[[[2.76279682,56.19879204],[2.76270284,56.19834202]]]},"geometry_name":"the_geom","properties":{"id":510001220,"pipe_dtino":"PL3011JAP1","pipe_name":"ESP PROD CABLE JUMPER AP1 01 AND 02","desc_":"ALMA P1 XMAS TREE TO ALMA MANIFOLD","diameter":54.0,"units":"mm","fluid":"FIBRE","status":"PRECOMMISSION","exposed":null,"untrenched":null,"operator":"ENQUEST HEATHER","start_date":"2013-06-01T00:00:00.000Z","end_date":null,"ins_date":"2014-11-13T00:00:00.000Z","upd_date":"2018-11-21T00:00:00.000Z","size_in":2.1259854,"year":"2013","location":"Offshore"}},{"type":"Feature","id":"ukfibrecables.24","geometry":{"type":"MultiLineString","coordinates":[[[2.76245282,56.19860803],[2.76270284,56.19834202]]]},"geometry_name":"the_geom","properties":{"id":510001221,"pipe_dtino":"PL3011JAP2","pipe_name":"ESP PROD CABLE JUMPER AP2 01 AND 02","desc_":"ALMA P2 XMAS TREE TO ALMA MANIFOLD","diameter":54.0,"units":"mm","fluid":"FIBRE","status":"PRECOMMISSION","exposed":null,"untrenched":null,"operator":"ENQUEST HEATHER","start_date":"2013-06-01T00:00:00.000Z","end_date":null,"ins_date":"2014-11-13T00:00:00.000Z","upd_date":"2018-11-21T00:00:00.000Z","size_in":2.1259854,"year":"2013","location":"Offshore"}},{"type":"Feature","id":"ukfibrecables.25","geometry":{"type":"MultiLineString","coordinates":[[[2.76211382,56.19841702],[2.76270284,56.19834202]]]},"geometry_name":"the_geom","properties":{"id":510001222,"pipe_dtino":"PL3011JAP3","pipe_name":"ESP PROD CABLE JUMPER AP3 01 AND 03","desc_":"ALMA P3 XMAS TREE TO ALMA MANIFOLD","diameter":54.0,"units":"mm","fluid":"FIBRE","status":"PRECOMMISSION","exposed":null,"untrenched":null,"operator":"ENQUEST HEATHER","start_date":"2013-06-01T00:00:00.000Z","end_date":null,"ins_date":"2014-11-13T00:00:00.000Z","upd_date":"2018-11-21T00:00:00.000Z","size_in":2.1259854,"year":"2013","location":"Offshore"}},{"type":"Feature","id":"ukfibrecables.26","geometry":{"type":"MultiLineString","coordinates":[[[2.76284986,56.19801401],[2.76270284,56.19834202]]]},"geometry_name":"the_geom","properties":{"id":510001223,"pipe_dtino":"PL3011JAP4","pipe_name":"ESP PROD CABLE JUMPER AP4 01 AND 04","desc_":"ALMA P4 XMAS TREE TO ALMA MANIFOLD","diameter":54.0,"units":"mm","fluid":"FIBRE","status":"PRECOMMISSION","exposed":null,"untrenched":null,"operator":"ENQUEST HEATHER","start_date":"2013-06-01T00:00:00.000Z","end_date":null,"ins_date":"2014-11-13T00:00:00.000Z","upd_date":"2018-11-21T00:00:00.000Z","size_in":2.1259854,"year":"2013","location":"Offshore"}},{"type":"Feature","id":"ukfibrecables.27","geometry":{"type":"MultiLineString","coordinates":[[[2.76318086,56.19820302],[2.76270284,56.19834202]]]},"geometry_name":"the_geom","properties":{"id":510001224,"pipe_dtino":"PL3011JAP5","pipe_name":"ESP PROD CABLE JUMPER AP5 01 AND 05","desc_":"ALMA P5 XMAS TREE TO ALMA MANIFOLD","diameter":54.0,"units":"mm","fluid":"FIBRE","status":"PRECOMMISSION","exposed":null,"untrenched":null,"operator":"ENQUEST HEATHER","start_date":"2013-06-01T00:00:00.000Z","end_date":null,"ins_date":"2014-11-13T00:00:00.000Z","upd_date":"2018-11-21T00:00:00.000Z","size_in":2.1259854,"year":"2013","location":"Offshore"}},{"type":"Feature","id":"ukfibrecables.28","geometry":{"type":"MultiLineString","coordinates":[[[2.76352486,56.19839403],[2.76270284,56.19834202]]]},"geometry_name":"the_geom","properties":{"id":510001225,"pipe_dtino":"PL3011JAP6","pipe_name":"ESP PROD CABLE JUMPER AP6 01 AND 06","desc_":"ALMA P6 XMAS TREE TO ALMA MANIFOLD","diameter":54.0,"units":"mm","fluid":"FIBRE","status":"PRECOMMISSION","exposed":null,"untrenched":null,"operator":"ENQUEST HEATHER","start_date":"2013-06-01T00:00:00.000Z","end_date":null,"ins_date":"2014-11-13T00:00:00.000Z","upd_date":"2018-11-21T00:00:00.000Z","size_in":2.1259854,"year":"2013","location":"Offshore"}},{"type":"Feature","id":"ukfibrecables.29","geometry":{"type":"MultiLineString","coordinates":[[[2.68878636,56.18579972],[2.76270284,56.19834202]]]},"geometry_name":"the_geom","properties":{"id":510001228,"pipe_dtino":"PL3016","pipe_name":"ESP PRODUCTION POWER CABLE","desc_":"GALIA GP1 XMAS TREE TO ALMA MANIFOLD","diameter":145.0,"units":"mm","fluid":"FIBRE","status":"PRECOMMISSION","exposed":null,"untrenched":null,"operator":"ENQUEST HEATHER","start_date":"2013-06-01T00:00:00.000Z","end_date":null,"ins_date":"2014-11-13T00:00:00.000Z","upd_date":"2018-11-21T00:00:00.000Z","size_in":5.7086645,"year":"2013","location":"Offshore"}},{"type":"Feature","id":"ukfibrecables.30","geometry":{"type":"MultiLineString","coordinates":[[[-1.03388784,54.64000243],[-1.02357866,54.64168761],[-0.99116817,54.64938126],[-0.96199774,54.65670886],[-0.9528966,54.65868604],[-0.94380644,54.6604122],[-0.93315625,54.66199239],[-0.92478708,54.66279951],[-0.91560088,54.66325664],[-0.90443161,54.66321178],[-0.89865546,54.66291184],[-0.88305304,54.66163498],[-0.71760158,54.64734452],[-0.70623528,54.64662163],[-0.52245363,54.63944162],[-0.4072687,54.63475986],[-0.2690642,54.62991636],[-0.25278677,54.62893953],[-0.2375414,54.6287437],[-0.22783916,54.62844481],[-0.17001668,54.62622043],[-0.15116221,54.62556564],[-0.14632209,54.62557569],[-0.14101595,54.62521075],[-0.10673807,54.62393312],[0.16663583,54.61577912],[0.36730893,54.6093433],[0.3737971,54.60893536],[0.38180433,54.60813843],[0.38737449,54.60736347],[0.39613476,54.60574852],[0.40548307,54.60339156],[0.41217031,54.60132857],[0.42050362,54.59830856],[0.42689386,54.59579056],[0.43047399,54.59475556]]]},"geometry_name":"the_geom","properties":{"id":510000451,"pipe_dtino":"PL2770","pipe_name":"BREAGH FIBRE OPTICE CABLE","desc_":"FIBRE OPTIC CABLE LINK BETWEEN BREAGH PLATFORM AND SHORE","diameter":0.0,"units":null,"fluid":"FIBRE","status":"ACTIVE","exposed":null,"untrenched":null,"operator":"INEOS UK SNS","start_date":"2011-07-31T00:00:00.000Z","end_date":null,"ins_date":"2012-10-16T00:00:00.000Z","upd_date":"2018-05-25T00:00:00.000Z","size_in":0.0,"year":"2011","location":"Offshore"}}],"numberReturned":30,"timeStamp":"2026-10-07T14:03:06.112Z","crs":{"type":"name","properties":{"name":"urn:ogc:def:crs:EPSG::4326"}},"helmlore_source":{"provider":"EMODnet Human Activities","metadata":"https://emodnet.ec.europa.eu/geonetwork/srv/api/records/39ebe289-410b-4a5d-88a4-51bfcde538de","retrieved":"2026-10-07","query_bounds":[-20,48,10,63],"scope":"UK and Ireland surrounding seas study extent, including neighbouring countries. Features intersect extent; not clipped or country filtered. Not a complete hazard inventory.","changes":"Spatial query subset; geometry unchanged. Country filtered to UK and Ireland (UK fibre cables layer retained as supplied).","licence":"CC BY 4.0"}}