{"type":"FeatureCollection","features":[{"type":"Feature","id":"37cbfb16-8901-5952-b22f-585e467a5f83","geometry":{"coordinates":[-0.690979,53.65887451],"type":"Point"},"properties":{"country":"UK","data_src_c":"9998","pointx":-0.690979004,"pointy":53.658874512,"port":"Trent River","port_coor_":"8","port_id":"GB203","portname":"Trent River","source":"GISCO","traffic":"1","helmlore_id":"37cbfb16-8901-5952-b22f-585e467a5f83","source_observation":"807c6fa0-447b-546e-b0c6-57aaf8ea7edd","source_external_id":"GB203","data_source":"emodnet:portlocations","source_date":"unknown","retrieved_at":"2026-10-07T22:09:31.709648+00:00","correction_status":"source_baseline"}},{"type":"Feature","id":"a135692a-44cb-5d44-a59d-05598d0137de","geometry":{"coordinates":[-0.2704047,53.73930533],"type":"Point"},"properties":{"country":"UK","data_src_c":"9998","pointx":-0.270404703,"pointy":53.73930533,"port":"River Hull & Humber","port_coor_":"1","port_id":"GB221","portname":"River Hull & Humber","source":"GISCO","traffic":"1","helmlore_id":"a135692a-44cb-5d44-a59d-05598d0137de","source_observation":"908db36f-a36e-586b-8f81-522dc4fb474d","source_external_id":"GB221","data_source":"emodnet:portlocations","source_date":"unknown","retrieved_at":"2026-10-07T22:09:31.709648+00:00","correction_status":"source_baseline"}},{"type":"Feature","id":"22a5dae4-0a43-5035-a5b3-baf101876833","geometry":{"coordinates":[-2.07537842,57.14147949],"type":"Point"},"properties":{"country":"UK","data_src_c":"2109","pointx":-2.075378418,"pointy":57.141479492,"port":"Aberdeen","port_coor_":"2","port_id":"GBABD","portname":"Aberdeen","source":"GISCO","traffic":"1","helmlore_id":"22a5dae4-0a43-5035-a5b3-baf101876833","source_observation":"38d45d8d-dda6-59ec-8a0c-2253fa13c321","source_external_id":"GBABD","data_source":"emodnet:portlocations","source_date":"unknown","retrieved_at":"2026-10-07T22:09:31.709648+00:00","correction_status":"source_baseline"}},{"type":"Feature","id":"375a8422-5965-55fa-9607-f41044e241d3","geometry":{"coordinates":[-5.874521,54.638546],"type":"Point"},"properties":{"country":"UK","data_src_c":"2110","pointx":-5.874521,"pointy":54.638546,"port":"Belfast","port_coor_":"1","port_id":"GBBEL","portname":"Belfast","source":"GISCO","traffic":"1","helmlore_id":"375a8422-5965-55fa-9607-f41044e241d3","source_observation":"0bc8c28a-649f-5b70-a2e3-aabdffe65342","source_external_id":"GBBEL","data_source":"emodnet:portlocations","source_date":"unknown","retrieved_at":"2026-10-07T22:09:31.709648+00:00","correction_status":"source_baseline"}},{"type":"Feature","id":"0a414e16-cdd3-540c-a24f-a8707bd14bc2","geometry":{"coordinates":[-3.23217773,54.0993042],"type":"Point"},"properties":{"country":"UK","data_src_c":"2110","pointx":-3.232177734,"pointy":54.099304199,"port":"Barrow-In-Furness","port_coor_":"3","port_id":"GBBIF","portname":"Barrow-In-Furness","source":"GISCO","traffic":"1","helmlore_id":"0a414e16-cdd3-540c-a24f-a8707bd14bc2","source_observation":"c7fc8354-0341-537d-8dc9-1c1f3dd02d74","source_external_id":"GBBIF","data_source":"emodnet:portlocations","source_date":"unknown","retrieved_at":"2026-10-07T22:09:31.709648+00:00","correction_status":"source_baseline"}},{"type":"Feature","id":"40c6e1da-5c51-55c3-8f53-284283b64436","geometry":{"coordinates":[-5.783333,54.833333],"type":"Point"},"properties":{"country":"GB","data_src_c":"0","pointx":-5.783333,"pointy":54.833333,"port":"Ballylumford","port_coor_":null,"port_id":"GBBLR","portname":null,"source":"UN/LOCODE","traffic":"1","helmlore_id":"40c6e1da-5c51-55c3-8f53-284283b64436","source_observation":"ba7ce5f5-2d2a-5bc0-874a-c62640ece916","source_external_id":"GBBLR","data_source":"emodnet:portlocations","source_date":"unknown","retrieved_at":"2026-10-07T22:09:31.709648+00:00","correction_status":"source_baseline"}},{"type":"Feature","id":"c89647f8-c631-5cc8-aca7-f1c401d3bfe6","geometry":{"coordinates":[-0.0158081,52.96807861],"type":"Point"},"properties":{"country":"UK","data_src_c":"2109","pointx":-0.015808105,"pointy":52.968078613,"port":"Boston","port_coor_":"5","port_id":"GBBOS","portname":"Boston","source":"GISCO","traffic":"1","helmlore_id":"c89647f8-c631-5cc8-aca7-f1c401d3bfe6","source_observation":"ad312cc7-8ed7-5bc7-a5df-6732502370d2","source_external_id":"GBBOS","data_source":"emodnet:portlocations","source_date":"unknown","retrieved_at":"2026-10-07T22:09:31.709648+00:00","correction_status":"source_baseline"}},{"type":"Feature","id":"f7c7038f-3a10-5224-9620-8d8bbc41531f","geometry":{"coordinates":[-2.62402344,51.44970703],"type":"Point"},"properties":{"country":"UK","data_src_c":"2110","pointx":-2.624023438,"pointy":51.449707031,"port":"Bristol","port_coor_":"1","port_id":"GBBRS","portname":"Bristol","source":"GISCO","traffic":"1","helmlore_id":"f7c7038f-3a10-5224-9620-8d8bbc41531f","source_observation":"60482624-3d41-5c3b-a0f5-84b4f528dc8d","source_external_id":"GBBRS","data_source":"emodnet:portlocations","source_date":"unknown","retrieved_at":"2026-10-07T22:09:31.709648+00:00","correction_status":"source_baseline"}},{"type":"Feature","id":"c8b9c1cc-56b3-58aa-829a-63f386e6f64d","geometry":{"coordinates":[-3.15960693,51.45330811],"type":"Point"},"properties":{"country":"UK","data_src_c":"2109","pointx":-3.159606934,"pointy":51.453308105,"port":"Cardiff","port_coor_":"1","port_id":"GBCDF","portname":"Cardiff","source":"GISCO","traffic":"1","helmlore_id":"c8b9c1cc-56b3-58aa-829a-63f386e6f64d","source_observation":"349eab30-f9c6-523d-ab0f-5a647a8ffc48","source_external_id":"GBCDF","data_source":"emodnet:portlocations","source_date":"unknown","retrieved_at":"2026-10-07T22:09:31.709648+00:00","correction_status":"source_baseline"}},{"type":"Feature","id":"ac09dd2a-99f0-581b-ad0f-987220f720c8","geometry":{"coordinates":[-3.26300049,53.31988525],"type":"Point"},"properties":{"country":"UK","data_src_c":"2109","pointx":-3.263000488,"pointy":53.319885254,"port":"Mostyn","port_coor_":"2","port_id":"GBCHE","portname":"Mostyn","source":"GISCO","traffic":"1","helmlore_id":"ac09dd2a-99f0-581b-ad0f-987220f720c8","source_observation":"7d56a8cf-96d3-5a1f-9b21-df86ea2d2241","source_external_id":"GBCHE","data_source":"emodnet:portlocations","source_date":"unknown","retrieved_at":"2026-10-07T22:09:31.709648+00:00","correction_status":"source_baseline"}},{"type":"Feature","id":"a29633dc-2428-55c1-8fc2-b52e1dd0784f","geometry":{"coordinates":[-4.03808594,57.68249512],"type":"Point"},"properties":{"country":"UK","data_src_c":"5106","pointx":-4.038085938,"pointy":57.682495117,"port":"Cromarty Firth","port_coor_":"6","port_id":"GBCRN","portname":"Cromarty Firth","source":"GISCO","traffic":"1","helmlore_id":"a29633dc-2428-55c1-8fc2-b52e1dd0784f","source_observation":"e03d7ff1-9192-5ae1-9fb1-c55036198f0f","source_external_id":"GBCRN","data_source":"emodnet:portlocations","source_date":"unknown","retrieved_at":"2026-10-07T22:09:31.709648+00:00","correction_status":"source_baseline"}},{"type":"Feature","id":"94e94079-0c0c-5a42-8831-08b923002d72","geometry":{"coordinates":[-5.0178833,54.96710205],"type":"Point"},"properties":{"country":"UK","data_src_c":"9998","pointx":-5.017883301,"pointy":54.967102051,"port":"Cairnryan","port_coor_":"1","port_id":"GBCYN","portname":"Cairnryan","source":"GISCO","traffic":"1","helmlore_id":"94e94079-0c0c-5a42-8831-08b923002d72","source_observation":"a60b1ff0-8fc9-561d-bbbc-94c518cb6c4f","source_external_id":"GBCYN","data_source":"emodnet:portlocations","source_date":"unknown","retrieved_at":"2026-10-07T22:09:31.709648+00:00","correction_status":"source_baseline"}},{"type":"Feature","id":"bc8fe9c5-2674-5eef-9983-9656e69153c1","geometry":{"coordinates":[-4.32117351,55.86755563],"type":"Point"},"properties":{"country":"UK","data_src_c":"9998","pointx":-4.321173512,"pointy":55.867555628,"port":"Clydeport","port_coor_":"1","port_id":"GBCYP","portname":"Clydeport","source":"GISCO","traffic":"1","helmlore_id":"bc8fe9c5-2674-5eef-9983-9656e69153c1","source_observation":"aa8ef202-5da1-5c05-bf9b-ab7baf2fceca","source_external_id":"GBCYP","data_source":"emodnet:portlocations","source_date":"unknown","retrieved_at":"2026-10-07T22:09:31.709648+00:00","correction_status":"source_baseline"}},{"type":"Feature","id":"a6988b51-8ee0-5626-8d10-9055c1b31eb9","geometry":{"coordinates":[-3.583333,50.35],"type":"Point"},"properties":{"country":"GB","data_src_c":"0","pointx":-3.583333,"pointy":50.35,"port":"Dartmouth","port_coor_":null,"port_id":"GBDTM","portname":null,"source":"UN/LOCODE","traffic":"1","helmlore_id":"a6988b51-8ee0-5626-8d10-9055c1b31eb9","source_observation":"d98b2c79-e6f2-5716-88a1-605332768c4f","source_external_id":"GBDTM","data_source":"emodnet:portlocations","source_date":"unknown","retrieved_at":"2026-10-07T22:09:31.709648+00:00","correction_status":"source_baseline"}},{"type":"Feature","id":"0c456ad3-7d41-530f-a978-79d443ca8468","geometry":{"coordinates":[-2.91949463,56.46588135],"type":"Point"},"properties":{"country":"UK","data_src_c":"2109","pointx":-2.919494629,"pointy":56.465881348,"port":"Dundee","port_coor_":"6","port_id":"GBDUN","portname":"Dundee","source":"GISCO","traffic":"1","helmlore_id":"0c456ad3-7d41-530f-a978-79d443ca8468","source_observation":"852645c1-40ee-532e-bea1-f223bc770ebc","source_external_id":"GBDUN","data_source":"emodnet:portlocations","source_date":"unknown","retrieved_at":"2026-10-07T22:09:31.709648+00:00","correction_status":"source_baseline"}},{"type":"Feature","id":"e9c66e26-3037-5782-a44c-bc8a71f88fb0","geometry":{"coordinates":[1.317476,51.123089],"type":"Point"},"properties":{"country":"UK","data_src_c":"2110","pointx":1.317476,"pointy":51.123089,"port":"Dover","port_coor_":"1","port_id":"GBDVR","portname":"Dover","source":"GISCO","traffic":"1","helmlore_id":"e9c66e26-3037-5782-a44c-bc8a71f88fb0","source_observation":"b9031e14-d372-5c32-9f58-65922f5e84c2","source_external_id":"GBDVR","data_source":"emodnet:portlocations","source_date":"unknown","retrieved_at":"2026-10-07T22:09:31.709648+00:00","correction_status":"source_baseline"}},{"type":"Feature","id":"ce8cf9b2-d97d-557b-828e-28e3dcfa2384","geometry":{"coordinates":[-5.05999756,50.15350342],"type":"Point"},"properties":{"country":"UK","data_src_c":"2110","pointx":-5.059997559,"pointy":50.153503418,"port":"Falmouth","port_coor_":"2","port_id":"GBFAL","portname":"Falmouth","source":"GISCO","traffic":"1","helmlore_id":"ce8cf9b2-d97d-557b-828e-28e3dcfa2384","source_observation":"543c69fa-8c5f-580b-bb23-5d41bcd1da45","source_external_id":"GBFAL","data_source":"emodnet:portlocations","source_date":"unknown","retrieved_at":"2026-10-07T22:09:31.709648+00:00","correction_status":"source_baseline"}},{"type":"Feature","id":"ff8fd9fa-1041-5d56-b71d-6c329d4448da","geometry":{"coordinates":[-4.98260498,52.01470947],"type":"Point"},"properties":{"country":"UK","data_src_c":"2109","pointx":-4.98260498,"pointy":52.014709473,"port":"Fishguard","port_coor_":"1","port_id":"GBFIS","portname":"Fishguard","source":"GISCO","traffic":"1","helmlore_id":"ff8fd9fa-1041-5d56-b71d-6c329d4448da","source_observation":"df07423a-36fc-5e3a-8a26-b6b2fc279283","source_external_id":"GBFIS","data_source":"emodnet:portlocations","source_date":"unknown","retrieved_at":"2026-10-07T22:09:31.709648+00:00","correction_status":"source_baseline"}},{"type":"Feature","id":"ea933d96-8be6-5260-a027-b58d1abc0615","geometry":{"coordinates":[-3.00567627,53.9216919],"type":"Point"},"properties":{"country":"UK","data_src_c":"2108","pointx":-3.00567627,"pointy":53.921691895,"port":"Fleetwood","port_coor_":"8","port_id":"GBFLE","portname":"Fleetwood","source":"GISCO","traffic":"1","helmlore_id":"ea933d96-8be6-5260-a027-b58d1abc0615","source_observation":"c71faa17-4187-584f-a0af-fb6b568517a8","source_external_id":"GBFLE","data_source":"emodnet:portlocations","source_date":"unknown","retrieved_at":"2026-10-07T22:09:31.709648+00:00","correction_status":"source_baseline"}},{"type":"Feature","id":"d5cc8cbb-dc99-579a-819a-5171bddd4097","geometry":{"coordinates":[1.15,51.083333],"type":"Point"},"properties":{"country":"GB","data_src_c":"0","pointx":1.15,"pointy":51.083333,"port":"Folkestone","port_coor_":null,"port_id":"GBFOL","portname":null,"source":"UN/LOCODE","traffic":"1","helmlore_id":"d5cc8cbb-dc99-579a-819a-5171bddd4097","source_observation":"76ba6708-24e1-5503-bc25-ecafd667e721","source_external_id":"GBFOL","data_source":"emodnet:portlocations","source_date":"unknown","retrieved_at":"2026-10-07T22:09:31.709648+00:00","correction_status":"source_baseline"}},{"type":"Feature","id":"efe26556-f60f-5b2e-a10e-172040641c43","geometry":{"coordinates":[-3.238245,56.0549125],"type":"Point"},"properties":{"country":"UK","data_src_c":"9998","pointx":-3.238245,"pointy":56.0549125,"port":"Forth","port_coor_":"1","port_id":"GBFOR","portname":"Forth","source":"GISCO","traffic":"1","helmlore_id":"efe26556-f60f-5b2e-a10e-172040641c43","source_observation":"9cbb6c8b-35fd-50c8-9d7b-2b1dbcc137e3","source_external_id":"GBFOR","data_source":"emodnet:portlocations","source_date":"unknown","retrieved_at":"2026-10-07T22:09:31.709648+00:00","correction_status":"source_baseline"}},{"type":"Feature","id":"d9b149d1-5a7a-5213-80d7-3ceff81bcc1a","geometry":{"coordinates":[-4.63421631,50.33532715],"type":"Point"},"properties":{"country":"UK","data_src_c":"5106","pointx":-4.634216309,"pointy":50.335327148,"port":"Fowey","port_coor_":"6","port_id":"GBFOY","portname":"Fowey","source":"GISCO","traffic":"1","helmlore_id":"d9b149d1-5a7a-5213-80d7-3ceff81bcc1a","source_observation":"a9f18248-e0ec-5f08-a3e4-8168fdb4fe23","source_external_id":"GBFOY","data_source":"emodnet:portlocations","source_date":"unknown","retrieved_at":"2026-10-07T22:09:31.709648+00:00","correction_status":"source_baseline"}},{"type":"Feature","id":"452baa82-0a3f-5b41-9788-7b002b1a8ce7","geometry":{"coordinates":[1.31342449,51.94996896],"type":"Point"},"properties":{"country":"UK","data_src_c":"2110","pointx":1.313424492,"pointy":51.949968955,"port":"Felixstowe","port_coor_":"1","port_id":"GBFXT","portname":"Felixstowe","source":"GISCO","traffic":"1","helmlore_id":"452baa82-0a3f-5b41-9788-7b002b1a8ce7","source_observation":"effdd722-093e-599f-8fda-75c4839d29f9","source_external_id":"GBFXT","data_source":"emodnet:portlocations","source_date":"unknown","retrieved_at":"2026-10-07T22:09:31.709648+00:00","correction_status":"source_baseline"}},{"type":"Feature","id":"4f1f6bcd-1f67-5e2f-836e-57090c6b58fa","geometry":{"coordinates":[-0.86688232,53.70007324],"type":"Point"},"properties":{"country":"UK","data_src_c":"2110","pointx":-0.866882324,"pointy":53.700073242,"port":"Goole","port_coor_":"3","port_id":"GBGOO","portname":"Goole","source":"GISCO","traffic":"1","helmlore_id":"4f1f6bcd-1f67-5e2f-836e-57090c6b58fa","source_observation":"2489bb6a-57d8-5414-b6cb-5e9688ffefb4","source_external_id":"GBGOO","data_source":"emodnet:portlocations","source_date":"unknown","retrieved_at":"2026-10-07T22:09:31.709648+00:00","correction_status":"source_baseline"}},{"type":"Feature","id":"301e3c06-d948-5eb3-b51f-690cf10752f4","geometry":{"coordinates":[-5.53240967,56.56829834],"type":"Point"},"properties":{"country":"UK","data_src_c":"2109","pointx":-5.532409668,"pointy":56.56829834,"port":"Glensanda","port_coor_":"6","port_id":"GBGSA","portname":"Glensanda","source":"GISCO","traffic":"1","helmlore_id":"301e3c06-d948-5eb3-b51f-690cf10752f4","source_observation":"54bf79d1-6b0d-5bbd-a5a6-be4a03461b06","source_external_id":"GBGSA","data_source":"emodnet:portlocations","source_date":"unknown","retrieved_at":"2026-10-07T22:09:31.709648+00:00","correction_status":"source_baseline"}},{"type":"Feature","id":"a1b21737-1897-5eb1-8e06-e0b6fdf9bf9c","geometry":{"coordinates":[1.73547363,52.57110596],"type":"Point"},"properties":{"country":"UK","data_src_c":"5106","pointx":1.735473633,"pointy":52.571105957,"port":"Great Yarmouth","port_coor_":"7","port_id":"GBGTY","portname":"Great Yarmouth","source":"GISCO","traffic":"1","helmlore_id":"a1b21737-1897-5eb1-8e06-e0b6fdf9bf9c","source_observation":"afc17357-38b6-5b3a-997a-6f307398afde","source_external_id":"GBGTY","data_source":"emodnet:portlocations","source_date":"unknown","retrieved_at":"2026-10-07T22:09:31.709648+00:00","correction_status":"source_baseline"}},{"type":"Feature","id":"640e30bc-cc7c-59ad-9062-e676a7fba32f","geometry":{"coordinates":[-4.62359619,53.31268311],"type":"Point"},"properties":{"country":"UK","data_src_c":"2110","pointx":-4.623596191,"pointy":53.312683105,"port":"Holyhead","port_coor_":"1","port_id":"GBHLY","portname":"Holyhead","source":"GISCO","traffic":"1","helmlore_id":"640e30bc-cc7c-59ad-9062-e676a7fba32f","source_observation":"43309a21-3c24-57cb-a1be-9bbc8861948d","source_external_id":"GBHLY","data_source":"emodnet:portlocations","source_date":"unknown","retrieved_at":"2026-10-07T22:09:31.709648+00:00","correction_status":"source_baseline"}},{"type":"Feature","id":"e787776d-70aa-5fa3-9c5e-56dfb3e0ce02","geometry":{"coordinates":[1.28833008,51.94927979],"type":"Point"},"properties":{"country":"UK","data_src_c":"5106","pointx":1.288330078,"pointy":51.949279785,"port":"Harwich","port_coor_":"1","port_id":"GBHRW","portname":"Harwich","source":"GISCO","traffic":"1","helmlore_id":"e787776d-70aa-5fa3-9c5e-56dfb3e0ce02","source_observation":"a404f082-3100-51f7-a13e-8d91eb551f71","source_external_id":"GBHRW","data_source":"emodnet:portlocations","source_date":"unknown","retrieved_at":"2026-10-07T22:09:31.709648+00:00","correction_status":"source_baseline"}},{"type":"Feature","id":"4bb5181c-856c-56e1-8638-eaff4810ad8f","geometry":{"coordinates":[-0.2969155,53.7426985],"type":"Point"},"properties":{"country":"UK","data_src_c":"9998","pointx":-0.2969155,"pointy":53.7426985,"port":"Hull","port_coor_":"1","port_id":"GBHUL","portname":"Hull","source":"GISCO","traffic":"1","helmlore_id":"4bb5181c-856c-56e1-8638-eaff4810ad8f","source_observation":"026935c6-01ef-5d67-8a0c-d4bcccf66714","source_external_id":"GBHUL","data_source":"emodnet:portlocations","source_date":"unknown","retrieved_at":"2026-10-07T22:09:31.709648+00:00","correction_status":"source_baseline"}},{"type":"Feature","id":"ad4241c5-bf15-509b-affe-c820f18af5c3","geometry":{"coordinates":[-2.9229126,54.03289795],"type":"Point"},"properties":{"country":"UK","data_src_c":"2110","pointx":-2.922912598,"pointy":54.032897949,"port":"Heysham","port_coor_":"1","port_id":"GBHYM","portname":"Heysham","source":"GISCO","traffic":"1","helmlore_id":"ad4241c5-bf15-509b-affe-c820f18af5c3","source_observation":"8a562961-a4cb-5a77-a99b-e365f1e00fa2","source_external_id":"GBHYM","data_source":"emodnet:portlocations","source_date":"unknown","retrieved_at":"2026-10-07T22:09:31.709648+00:00","correction_status":"source_baseline"}},{"type":"Feature","id":"feb6d784-33f1-52ab-84bc-87c558845fa4","geometry":{"coordinates":[-0.18801562,53.63088962],"type":"Point"},"properties":{"country":"UK","data_src_c":"2110","pointx":-0.188015619,"pointy":53.630889615,"port":"Immingham","port_coor_":"1","port_id":"GBIMM","portname":"Immingham","source":"GISCO","traffic":"1","helmlore_id":"feb6d784-33f1-52ab-84bc-87c558845fa4","source_observation":"f5d60516-9f69-5661-8c90-b543885ceea1","source_external_id":"GBIMM","data_source":"emodnet:portlocations","source_date":"unknown","retrieved_at":"2026-10-07T22:09:31.709648+00:00","correction_status":"source_baseline"}},{"type":"Feature","id":"723e37d1-b34b-53b2-8590-dea2b11a0fda","geometry":{"coordinates":[1.16052246,52.04608154],"type":"Point"},"properties":{"country":"UK","data_src_c":"2109","pointx":1.160522461,"pointy":52.046081543,"port":"Ipswich","port_coor_":"6","port_id":"GBIPS","portname":"Ipswich","source":"GISCO","traffic":"1","helmlore_id":"723e37d1-b34b-53b2-8590-dea2b11a0fda","source_observation":"5ab84657-9b24-5076-8b21-3e6546f4236f","source_external_id":"GBIPS","data_source":"emodnet:portlocations","source_date":"unknown","retrieved_at":"2026-10-07T22:09:31.709648+00:00","correction_status":"source_baseline"}},{"type":"Feature","id":"abb04f72-3121-56f0-ac6e-7fa6c1953a2d","geometry":{"coordinates":[-5.76538086,54.72027588],"type":"Point"},"properties":{"country":"UK","data_src_c":"2109","pointx":-5.765380859,"pointy":54.720275879,"port":"Kilroot","port_coor_":"8","port_id":"GBKLR","portname":"Kilroot","source":"GISCO","traffic":"1","helmlore_id":"abb04f72-3121-56f0-ac6e-7fa6c1953a2d","source_observation":"281c6196-bd7a-5e69-b733-a58ccd8bb7f4","source_external_id":"GBKLR","data_source":"emodnet:portlocations","source_date":"unknown","retrieved_at":"2026-10-07T22:09:31.709648+00:00","correction_status":"source_baseline"}},{"type":"Feature","id":"2287dbc9-fa34-5766-800c-241fd4b86a85","geometry":{"coordinates":[-5.76538086,54.72027588],"type":"Point"},"properties":{"country":"UK","data_src_c":"2109","pointx":-5.765380859,"pointy":54.720275879,"port":"Kilroot Power Station Jetty","port_coor_":"8","port_id":"GBKPS","portname":"Kilroot Power Station Jetty","source":"GISCO","traffic":"1","helmlore_id":"2287dbc9-fa34-5766-800c-241fd4b86a85","source_observation":"529e20db-e248-5240-9473-514da4e68bf8","source_external_id":"GBKPS","data_source":"emodnet:portlocations","source_date":"unknown","retrieved_at":"2026-10-07T22:09:31.709648+00:00","correction_status":"source_baseline"}},{"type":"Feature","id":"43ebe869-c9d7-5385-a127-98a7a65f639c","geometry":{"coordinates":[-2.961851,58.9883575],"type":"Point"},"properties":{"country":"UK","data_src_c":"2109","pointx":-2.961851,"pointy":58.9883575,"port":"Kirkwall","port_coor_":"1","port_id":"GBKWL","portname":"Kirkwall","source":"GISCO","traffic":"1","helmlore_id":"43ebe869-c9d7-5385-a127-98a7a65f639c","source_observation":"c4711cf1-f045-5e54-a4e5-840582e4be40","source_external_id":"GBKWL","data_source":"emodnet:portlocations","source_date":"unknown","retrieved_at":"2026-10-07T22:09:31.709648+00:00","correction_status":"source_baseline"}},{"type":"Feature","id":"a3b3f930-5222-5c8d-b5d1-53bc1b8faeca","geometry":{"coordinates":[-5.79669189,54.85150147],"type":"Point"},"properties":{"country":"UK","data_src_c":"2110","pointx":-5.796691895,"pointy":54.851501465,"port":"Larne","port_coor_":"1","port_id":"GBLAR","portname":"Larne","source":"GISCO","traffic":"1","helmlore_id":"a3b3f930-5222-5c8d-b5d1-53bc1b8faeca","source_observation":"d39f3a42-30d5-550f-ab89-c86923c016a2","source_external_id":"GBLAR","data_source":"emodnet:portlocations","source_date":"unknown","retrieved_at":"2026-10-07T22:09:31.709648+00:00","correction_status":"source_baseline"}},{"type":"Feature","id":"0dd58c63-d277-5721-90f3-5d61a2a0e3a5","geometry":{"coordinates":[-3.82,53.31],"type":"Point"},"properties":{"country":"GB","data_src_c":"0","pointx":-3.82,"pointy":53.31,"port":"Llandudno","port_coor_":null,"port_id":"GBLDO","portname":null,"source":"Marine Traffic","traffic":"1","helmlore_id":"0dd58c63-d277-5721-90f3-5d61a2a0e3a5","source_observation":"fc93c8a3-5f7e-53cc-85ec-fbe82d628da4","source_external_id":"GBLDO","data_source":"emodnet:portlocations","source_date":"unknown","retrieved_at":"2026-10-07T22:09:31.709648+00:00","correction_status":"source_baseline"}},{"type":"Feature","id":"58ad7b37-907e-5c6c-bcf5-637017130d55","geometry":{"coordinates":[-7.31860352,54.99847412],"type":"Point"},"properties":{"country":"UK","data_src_c":"5106","pointx":-7.318603516,"pointy":54.998474121,"port":"Londonderry","port_coor_":"5","port_id":"GBLDY","portname":"Londonderry","source":"GISCO","traffic":"1","helmlore_id":"58ad7b37-907e-5c6c-bcf5-637017130d55","source_observation":"6d7402e1-2bbb-5235-8eb1-cb76752aaf3f","source_external_id":"GBLDY","data_source":"emodnet:portlocations","source_date":"unknown","retrieved_at":"2026-10-07T22:09:31.709648+00:00","correction_status":"source_baseline"}},{"type":"Feature","id":"031acdb5-8316-5244-8bd2-5fd8c6c3458d","geometry":{"coordinates":[-1.13970947,60.15429688],"type":"Point"},"properties":{"country":"UK","data_src_c":"2109","pointx":-1.139709473,"pointy":60.154296875,"port":"Lerwick (Shetland Islands)","port_coor_":"6","port_id":"GBLER","portname":"Lerwick (Shetland Islands)","source":"GISCO","traffic":"1","helmlore_id":"031acdb5-8316-5244-8bd2-5fd8c6c3458d","source_observation":"192ef65b-b7d0-5811-a8f8-0b9afb9b4bb0","source_external_id":"GBLER","data_source":"emodnet:portlocations","source_date":"unknown","retrieved_at":"2026-10-07T22:09:31.709648+00:00","correction_status":"source_baseline"}},{"type":"Feature","id":"5c1181a2-650c-5526-9ea5-1178973e4277","geometry":{"coordinates":[-3.01351072,53.44506331],"type":"Point"},"properties":{"country":"UK","data_src_c":"2110","pointx":-3.013510721,"pointy":53.445063312,"port":"Liverpool","port_coor_":"1","port_id":"GBLIV","portname":"Liverpool","source":"GISCO","traffic":"1","helmlore_id":"5c1181a2-650c-5526-9ea5-1178973e4277","source_observation":"cdef6307-318d-55fe-83db-d19a5d888f57","source_external_id":"GBLIV","data_source":"emodnet:portlocations","source_date":"unknown","retrieved_at":"2026-10-07T22:09:31.709648+00:00","correction_status":"source_baseline"}},{"type":"Feature","id":"d5a155a0-a165-5f37-b9a4-2ee5c4e45ee9","geometry":{"coordinates":[-0.079138,51.5054245],"type":"Point"},"properties":{"country":"UK","data_src_c":"2109","pointx":-0.079138,"pointy":51.5054245,"port":"London","port_coor_":"1","port_id":"GBLON","portname":"London","source":"GISCO","traffic":"1","helmlore_id":"d5a155a0-a165-5f37-b9a4-2ee5c4e45ee9","source_observation":"5137c570-abae-5032-95f1-adef8209edd4","source_external_id":"GBLON","data_source":"emodnet:portlocations","source_date":"unknown","retrieved_at":"2026-10-07T22:09:31.709648+00:00","correction_status":"source_baseline"}},{"type":"Feature","id":"88577bbd-c680-52ba-9c18-f814328fab30","geometry":{"coordinates":[-5.03333333,54.98333333],"type":"Point"},"properties":{"country":"GB","data_src_c":"0","pointx":-5.0333333333,"pointy":54.983333333,"port":"Loch Ryan Pt","port_coor_":null,"port_id":"GBLRP","portname":null,"source":"UN/LOCODE","traffic":"1","helmlore_id":"88577bbd-c680-52ba-9c18-f814328fab30","source_observation":"b261faac-f3f1-570d-870a-92bdff211c89","source_external_id":"GBLRP","data_source":"emodnet:portlocations","source_date":"unknown","retrieved_at":"2026-10-07T22:09:31.709648+00:00","correction_status":"source_baseline"}},{"type":"Feature","id":"ab1da795-4913-5d35-aa20-b85937e73622","geometry":{"coordinates":[0.55290863,51.40056149],"type":"Point"},"properties":{"country":"UK","data_src_c":"9998","pointx":0.552908627,"pointy":51.400561494,"port":"Medway","port_coor_":"1","port_id":"GBMED","portname":"Medway","source":"GISCO","traffic":"1","helmlore_id":"ab1da795-4913-5d35-aa20-b85937e73622","source_observation":"d0836201-947d-5b4b-9a22-81312d3e5729","source_external_id":"GBMED","data_source":"emodnet:portlocations","source_date":"unknown","retrieved_at":"2026-10-07T22:09:31.709648+00:00","correction_status":"source_baseline"}},{"type":"Feature","id":"5834bcea-1501-577f-8076-fb30ae370121","geometry":{"coordinates":[-5.02986324,51.70950802],"type":"Point"},"properties":{"country":"UK","data_src_c":"2109","pointx":-5.029863244,"pointy":51.709508015,"port":"Milford Haven","port_coor_":"1","port_id":"GBMLF","portname":"Milford Haven","source":"GISCO","traffic":"1","helmlore_id":"5834bcea-1501-577f-8076-fb30ae370121","source_observation":"01faa432-2a02-5515-9029-7fc5b54f95bb","source_external_id":"GBMLF","data_source":"emodnet:portlocations","source_date":"unknown","retrieved_at":"2026-10-07T22:09:31.709648+00:00","correction_status":"source_baseline"}},{"type":"Feature","id":"75a49822-cdff-59f6-a1cc-c35dffbe6cb1","geometry":{"coordinates":[-1.15883832,54.61794644],"type":"Point"},"properties":{"country":"UK","data_src_c":"9998","pointx":-1.15883832,"pointy":54.617946439,"port":"Tees & Hartlepool","port_coor_":"1","port_id":"GBMME","portname":"Tees & Hartlepool","source":"GISCO","traffic":"1","helmlore_id":"75a49822-cdff-59f6-a1cc-c35dffbe6cb1","source_observation":"01fe1de7-d3d7-5912-80b7-59c8627f05c9","source_external_id":"GBMME","data_source":"emodnet:portlocations","source_date":"unknown","retrieved_at":"2026-10-07T22:09:31.709648+00:00","correction_status":"source_baseline"}},{"type":"Feature","id":"4b492651-7650-5cf6-ba91-246030cdacfd","geometry":{"coordinates":[-2.296875,53.47113037],"type":"Point"},"properties":{"country":"UK","data_src_c":"2109","pointx":-2.296875,"pointy":53.471130371,"port":"Manchester","port_coor_":"1","port_id":"GBMNC","portname":"Manchester","source":"GISCO","traffic":"1","helmlore_id":"4b492651-7650-5cf6-ba91-246030cdacfd","source_observation":"6c909e2a-2198-5fd5-b4a7-4997de2fe627","source_external_id":"GBMNC","data_source":"emodnet:portlocations","source_date":"unknown","retrieved_at":"2026-10-07T22:09:31.709648+00:00","correction_status":"source_baseline"}},{"type":"Feature","id":"060f6f68-17c7-5130-bc55-ae76b7ab9ddd","geometry":{"coordinates":[0.05889893,50.7824707],"type":"Point"},"properties":{"country":"UK","data_src_c":"5106","pointx":0.058898926,"pointy":50.782470703,"port":"Newhaven","port_coor_":"1","port_id":"GBNHV","portname":"Newhaven","source":"GISCO","traffic":"1","helmlore_id":"060f6f68-17c7-5130-bc55-ae76b7ab9ddd","source_observation":"ae6896fe-4713-5a73-bc86-d1fb8a41246f","source_external_id":"GBNHV","data_source":"emodnet:portlocations","source_date":"unknown","retrieved_at":"2026-10-07T22:09:31.709648+00:00","correction_status":"source_baseline"}},{"type":"Feature","id":"a4889957-28c0-55fd-bdc7-e6e276a288f9","geometry":{"coordinates":[-2.98608398,51.56750488],"type":"Point"},"properties":{"country":"UK","data_src_c":"2110","pointx":-2.986083984,"pointy":51.567504883,"port":"Newport, Gwent","port_coor_":"3","port_id":"GBNPT","portname":"Newport, Gwent","source":"GISCO","traffic":"1","helmlore_id":"a4889957-28c0-55fd-bdc7-e6e276a288f9","source_observation":"552c2d1c-5c8d-5bec-92af-5158c40fa498","source_external_id":"GBNPT","data_source":"emodnet:portlocations","source_date":"unknown","retrieved_at":"2026-10-07T22:09:31.709648+00:00","correction_status":"source_baseline"}},{"type":"Feature","id":"7624e40b-9f70-52f1-8763-707caf6fd6bb","geometry":{"coordinates":[-5.4743042,56.41467285],"type":"Point"},"properties":{"country":"UK","data_src_c":"2109","pointx":-5.474304199,"pointy":56.414672852,"port":"Oban","port_coor_":"5","port_id":"GBOBA","portname":"Oban","source":"GISCO","traffic":"1","helmlore_id":"7624e40b-9f70-52f1-8763-707caf6fd6bb","source_observation":"abd611f9-63ac-530d-af49-e9b5dfa3da6f","source_external_id":"GBOBA","data_source":"emodnet:portlocations","source_date":"unknown","retrieved_at":"2026-10-07T22:09:31.709648+00:00","correction_status":"source_baseline"}},{"type":"Feature","id":"b246500b-96b4-5234-966c-44b5440f6f4b","geometry":{"coordinates":[-1.77191162,57.50109863],"type":"Point"},"properties":{"country":"UK","data_src_c":"5106","pointx":-1.771911621,"pointy":57.501098633,"port":"Peterhead","port_coor_":"6","port_id":"GBPHD","portname":"Peterhead","source":"GISCO","traffic":"1","helmlore_id":"b246500b-96b4-5234-966c-44b5440f6f4b","source_observation":"42daf199-0bb5-51cf-9545-c3df19e97558","source_external_id":"GBPHD","data_source":"emodnet:portlocations","source_date":"unknown","retrieved_at":"2026-10-07T22:09:31.709648+00:00","correction_status":"source_baseline"}},{"type":"Feature","id":"76b44a2e-27fd-5b9a-907a-2ec2104f57d2","geometry":{"coordinates":[-4.13519287,50.36309815],"type":"Point"},"properties":{"country":"UK","data_src_c":"2110","pointx":-4.135192871,"pointy":50.363098145,"port":"Plymouth","port_coor_":"1","port_id":"GBPLY","portname":"Plymouth","source":"GISCO","traffic":"1","helmlore_id":"76b44a2e-27fd-5b9a-907a-2ec2104f57d2","source_observation":"a95f929d-300b-5ae2-bb02-e9ceff4c9383","source_external_id":"GBPLY","data_source":"emodnet:portlocations","source_date":"unknown","retrieved_at":"2026-10-07T22:09:31.709648+00:00","correction_status":"source_baseline"}},{"type":"Feature","id":"c8c62135-5a24-51c8-88ca-06d3c3c2d013","geometry":{"coordinates":[-1.10620117,50.80889893],"type":"Point"},"properties":{"country":"UK","data_src_c":"2110","pointx":-1.106201172,"pointy":50.808898926,"port":"Portsmouth","port_coor_":"1","port_id":"GBPME","portname":"Portsmouth","source":"GISCO","traffic":"1","helmlore_id":"c8c62135-5a24-51c8-88ca-06d3c3c2d013","source_observation":"437fe1ed-934d-5b4b-8206-086ca459fd65","source_external_id":"GBPME","data_source":"emodnet:portlocations","source_date":"unknown","retrieved_at":"2026-10-07T22:09:31.709648+00:00","correction_status":"source_baseline"}},{"type":"Feature","id":"65f892f4-ea94-5f21-9024-2b5747298bee","geometry":{"coordinates":[-1.98278809,50.71209717],"type":"Point"},"properties":{"country":"UK","data_src_c":"2109","pointx":-1.982788086,"pointy":50.712097168,"port":"Poole","port_coor_":"1","port_id":"GBPOO","portname":"Poole","source":"GISCO","traffic":"1","helmlore_id":"65f892f4-ea94-5f21-9024-2b5747298bee","source_observation":"bdda91ca-a653-5810-b1cc-3e3497f19f0e","source_external_id":"GBPOO","data_source":"emodnet:portlocations","source_date":"unknown","retrieved_at":"2026-10-07T22:09:31.709648+00:00","correction_status":"source_baseline"}},{"type":"Feature","id":"bca608fd-7340-58ef-aa5f-23ab554f9ceb","geometry":{"coordinates":[-3.79769,51.5763205],"type":"Point"},"properties":{"country":"UK","data_src_c":"2110","pointx":-3.79769,"pointy":51.5763205,"port":"Port Talbot","port_coor_":"1","port_id":"GBPTB","portname":"Port Talbot","source":"GISCO","traffic":"1","helmlore_id":"bca608fd-7340-58ef-aa5f-23ab554f9ceb","source_observation":"e6580e50-4f86-5b53-af06-6cb3e28c1efe","source_external_id":"GBPTB","data_source":"emodnet:portlocations","source_date":"unknown","retrieved_at":"2026-10-07T22:09:31.709648+00:00","correction_status":"source_baseline"}},{"type":"Feature","id":"e4c0a996-d5b6-53ab-8053-71f9e7688e45","geometry":{"coordinates":[1.42028809,51.32769775],"type":"Point"},"properties":{"country":"UK","data_src_c":"2110","pointx":1.420288086,"pointy":51.327697754,"port":"Ramsgate","port_coor_":"1","port_id":"GBRMG","portname":"Ramsgate","source":"GISCO","traffic":"1","helmlore_id":"e4c0a996-d5b6-53ab-8053-71f9e7688e45","source_observation":"56c4e435-a44a-5068-b4fc-cad7966ac11b","source_external_id":"GBRMG","data_source":"emodnet:portlocations","source_date":"unknown","retrieved_at":"2026-10-07T22:09:31.709648+00:00","correction_status":"source_baseline"}},{"type":"Feature","id":"595d7e43-b371-5177-adc3-1178498c2458","geometry":{"coordinates":[-0.25091553,50.83068848],"type":"Point"},"properties":{"country":"UK","data_src_c":"2110","pointx":-0.250915527,"pointy":50.830688477,"port":"Shoreham","port_coor_":"1","port_id":"GBSHO","portname":"Shoreham","source":"GISCO","traffic":"1","helmlore_id":"595d7e43-b371-5177-adc3-1178498c2458","source_observation":"79244193-9e59-55bd-b07e-bc85cb265bb0","source_external_id":"GBSHO","data_source":"emodnet:portlocations","source_date":"unknown","retrieved_at":"2026-10-07T22:09:31.709648+00:00","correction_status":"source_baseline"}},{"type":"Feature","id":"4942208a-4b65-50fd-ad83-188cb111aea0","geometry":{"coordinates":[-1.40591094,50.89632164],"type":"Point"},"properties":{"country":"UK","data_src_c":"2110","pointx":-1.405910939,"pointy":50.89632164,"port":"Southampton","port_coor_":"1","port_id":"GBSOU","portname":"Southampton","source":"GISCO","traffic":"1","helmlore_id":"4942208a-4b65-50fd-ad83-188cb111aea0","source_observation":"12898bfa-8bfb-58a9-a71b-d31be270f4b6","source_external_id":"GBSOU","data_source":"emodnet:portlocations","source_date":"unknown","retrieved_at":"2026-10-07T22:09:31.709648+00:00","correction_status":"source_baseline"}},{"type":"Feature","id":"9b6a3677-165a-5a0a-b0b8-5356d93e4d58","geometry":{"coordinates":[-5.02502441,54.90808106],"type":"Point"},"properties":{"country":"UK","data_src_c":"2109","pointx":-5.025024414,"pointy":54.908081055,"port":"Stranraer","port_coor_":"1","port_id":"GBSTR","portname":"Stranraer","source":"GISCO","traffic":"1","helmlore_id":"9b6a3677-165a-5a0a-b0b8-5356d93e4d58","source_observation":"3510c1ec-e988-5259-81a9-81fb8bcf9e96","source_external_id":"GBSTR","data_source":"emodnet:portlocations","source_date":"unknown","retrieved_at":"2026-10-07T22:09:31.709648+00:00","correction_status":"source_baseline"}},{"type":"Feature","id":"a66dc2b8-ffb9-58b2-baa2-be253e02f426","geometry":{"coordinates":[-1.281773,60.456764],"type":"Point"},"properties":{"country":"UK","data_src_c":"2110","pointx":-1.281773,"pointy":60.456764,"port":"Sullom Voe","port_coor_":"1","port_id":"GBSUL","portname":"Sullom Voe","source":"GISCO","traffic":"1","helmlore_id":"a66dc2b8-ffb9-58b2-baa2-be253e02f426","source_observation":"a29b567a-8461-545b-a894-b50308e38bdb","source_external_id":"GBSUL","data_source":"emodnet:portlocations","source_date":"unknown","retrieved_at":"2026-10-07T22:09:31.709648+00:00","correction_status":"source_baseline"}},{"type":"Feature","id":"30fa173a-5383-51c2-be62-3f7ab45fabf9","geometry":{"coordinates":[-1.36132812,54.91729736],"type":"Point"},"properties":{"country":"UK","data_src_c":"2110","pointx":-1.361328125,"pointy":54.917297363,"port":"Sunderland","port_coor_":"3","port_id":"GBSUN","portname":"Sunderland","source":"GISCO","traffic":"1","helmlore_id":"30fa173a-5383-51c2-be62-3f7ab45fabf9","source_observation":"67f1f681-3df3-578c-abf1-8259fc574ee5","source_external_id":"GBSUN","data_source":"emodnet:portlocations","source_date":"unknown","retrieved_at":"2026-10-07T22:09:31.709648+00:00","correction_status":"source_baseline"}},{"type":"Feature","id":"41a7f939-06db-5897-af69-0614033cf27e","geometry":{"coordinates":[-3.92980957,51.61547852],"type":"Point"},"properties":{"country":"UK","data_src_c":"2110","pointx":-3.92980957,"pointy":51.615478516,"port":"Swansea","port_coor_":"1","port_id":"GBSWA","portname":"Swansea","source":"GISCO","traffic":"1","helmlore_id":"41a7f939-06db-5897-af69-0614033cf27e","source_observation":"d533a284-3450-5519-b86b-a9981b080367","source_external_id":"GBSWA","data_source":"emodnet:portlocations","source_date":"unknown","retrieved_at":"2026-10-07T22:09:31.709648+00:00","correction_status":"source_baseline"}},{"type":"Feature","id":"8d531e91-5eb4-504f-8ee9-6113f68be74d","geometry":{"coordinates":[-4.6685791,55.54650879],"type":"Point"},"properties":{"country":"UK","data_src_c":"2110","pointx":-4.668579102,"pointy":55.546508789,"port":"Troon","port_coor_":"1","port_id":"GBTRN","portname":"Troon","source":"GISCO","traffic":"1","helmlore_id":"8d531e91-5eb4-504f-8ee9-6113f68be74d","source_observation":"d2743182-5b60-5f9d-86dd-1076f2a683bb","source_external_id":"GBTRN","data_source":"emodnet:portlocations","source_date":"unknown","retrieved_at":"2026-10-07T22:09:31.709648+00:00","correction_status":"source_baseline"}},{"type":"Feature","id":"dcdbff68-8180-5217-b9cc-dba9de957094","geometry":{"coordinates":[-1.44598389,54.99090576],"type":"Point"},"properties":{"country":"UK","data_src_c":"2110","pointx":-1.445983887,"pointy":54.990905762,"port":"Tyne","port_coor_":"1","port_id":"GBTYN","portname":"Tyne","source":"GISCO","traffic":"1","helmlore_id":"dcdbff68-8180-5217-b9cc-dba9de957094","source_observation":"2ba5b184-269f-5139-9ab0-d10648e777af","source_external_id":"GBTYN","data_source":"emodnet:portlocations","source_date":"unknown","retrieved_at":"2026-10-07T22:09:31.709648+00:00","correction_status":"source_baseline"}},{"type":"Feature","id":"16bc4e85-b25b-5d67-87ec-f406cdf65873","geometry":{"coordinates":[-2.44641113,50.605896],"type":"Point"},"properties":{"country":"UK","data_src_c":"2110","pointx":-2.446411133,"pointy":50.605895996,"port":"Weymouth","port_coor_":"1","port_id":"GBWEY","portname":"Weymouth","source":"GISCO","traffic":"1","helmlore_id":"16bc4e85-b25b-5d67-87ec-f406cdf65873","source_observation":"54fb5bf9-27a4-53fb-8ca7-cb942459c3bf","source_external_id":"GBWEY","data_source":"emodnet:portlocations","source_date":"unknown","retrieved_at":"2026-10-07T22:09:31.709648+00:00","correction_status":"source_baseline"}},{"type":"Feature","id":"d3e2d8db-34d8-5376-b203-282edebb7670","geometry":{"coordinates":[-3.5927124,54.55090332],"type":"Point"},"properties":{"country":"UK","data_src_c":"2111","pointx":-3.592712402,"pointy":54.55090332,"port":"Whitehaven","port_coor_":"3","port_id":"GBWHV","portname":"Whitehaven","source":"GISCO","traffic":"1","helmlore_id":"d3e2d8db-34d8-5376-b203-282edebb7670","source_observation":"72d969e1-7c45-597b-a2b1-03e3d161a016","source_external_id":"GBWHV","data_source":"emodnet:portlocations","source_date":"unknown","retrieved_at":"2026-10-07T22:09:31.709648+00:00","correction_status":"source_baseline"}},{"type":"Feature","id":"3b42716d-71bc-5f7e-bc2f-33c19bb43a4c","geometry":{"coordinates":[-6.25079346,54.09790039],"type":"Point"},"properties":{"country":"UK","data_src_c":"2109","pointx":-6.250793457,"pointy":54.097900391,"port":"Warrenpoint","port_coor_":"5","port_id":"GBWPT","portname":"Warrenpoint","source":"GISCO","traffic":"1","helmlore_id":"3b42716d-71bc-5f7e-bc2f-33c19bb43a4c","source_observation":"cabd1f61-2caf-5e1b-bf01-75935d7b9893","source_external_id":"GBWPT","data_source":"emodnet:portlocations","source_date":"unknown","retrieved_at":"2026-10-07T22:09:31.709648+00:00","correction_status":"source_baseline"}},{"type":"Feature","id":"0da5640c-759b-53b5-9f19-2d2c3ead7517","geometry":{"coordinates":[-9.45898437,51.68109131],"type":"Point"},"properties":{"country":"IE","data_src_c":"2107","pointx":-9.458984375,"pointy":51.681091309,"port":"Bantry Bay","port_coor_":"7","port_id":"IEBYT","portname":"Bantry Bay","source":"GISCO","traffic":"1","helmlore_id":"0da5640c-759b-53b5-9f19-2d2c3ead7517","source_observation":"1231b763-64e7-5b1e-bd38-77332709aa60","source_external_id":"IEBYT","data_source":"emodnet:portlocations","source_date":"unknown","retrieved_at":"2026-10-07T22:09:31.709648+00:00","correction_status":"source_baseline"}},{"type":"Feature","id":"7e96a752-3150-5d89-8ae6-e5a766eb58b2","geometry":{"coordinates":[-6.38769531,54.00769043],"type":"Point"},"properties":{"country":"IE","data_src_c":"2108","pointx":-6.387695313,"pointy":54.00769043,"port":"Dundalk","port_coor_":"6","port_id":"IEDDK","portname":"Dundalk","source":"GISCO","traffic":"1","helmlore_id":"7e96a752-3150-5d89-8ae6-e5a766eb58b2","source_observation":"5bdaf0ca-dd6b-55ca-a94d-87b8a89b2829","source_external_id":"IEDDK","data_source":"emodnet:portlocations","source_date":"unknown","retrieved_at":"2026-10-07T22:09:31.709648+00:00","correction_status":"source_baseline"}},{"type":"Feature","id":"75dbea4c-44d5-555f-92ce-53c7774e12f7","geometry":{"coordinates":[-6.1329956,53.29730225],"type":"Point"},"properties":{"country":"IE","data_src_c":"2109","pointx":-6.132995605,"pointy":53.297302246,"port":"Dun Laoghaire","port_coor_":"1","port_id":"IEDLG","portname":"Dun Laoghaire","source":"GISCO","traffic":"1","helmlore_id":"75dbea4c-44d5-555f-92ce-53c7774e12f7","source_observation":"3cc96dd6-f92c-5e9e-ad9e-d0e51e6204ab","source_external_id":"IEDLG","data_source":"emodnet:portlocations","source_date":"unknown","retrieved_at":"2026-10-07T22:09:31.709648+00:00","correction_status":"source_baseline"}},{"type":"Feature","id":"751ac735-9ef2-5717-bbb6-3f7ad7048f49","geometry":{"coordinates":[-6.33331299,53.71667481],"type":"Point"},"properties":{"country":"IE","data_src_c":"2109","pointx":-6.333312988,"pointy":53.716674805,"port":"Drogheda","port_coor_":"5","port_id":"IEDRO","portname":"Drogheda","source":"GISCO","traffic":"1","helmlore_id":"751ac735-9ef2-5717-bbb6-3f7ad7048f49","source_observation":"c9b8c984-62e6-533c-928b-bdf8d29a9aaf","source_external_id":"IEDRO","data_source":"emodnet:portlocations","source_date":"unknown","retrieved_at":"2026-10-07T22:09:31.709648+00:00","correction_status":"source_baseline"}},{"type":"Feature","id":"6429cf06-e672-5cf9-a7ef-68d7c84724e2","geometry":{"coordinates":[-6.22392966,53.34784039],"type":"Point"},"properties":{"country":"IE","data_src_c":"2110","pointx":-6.223929664,"pointy":53.34784039,"port":"Dublin","port_coor_":"1","port_id":"IEDUB","portname":"Dublin","source":"GISCO","traffic":"1","helmlore_id":"6429cf06-e672-5cf9-a7ef-68d7c84724e2","source_observation":"4499c5d5-3f91-500c-b001-4f6a1d529362","source_external_id":"IEDUB","data_source":"emodnet:portlocations","source_date":"unknown","retrieved_at":"2026-10-07T22:09:31.709648+00:00","correction_status":"source_baseline"}},{"type":"Feature","id":"b9b53310-a1db-5573-b301-99a60630e0ff","geometry":{"coordinates":[-9.04400635,53.26867676],"type":"Point"},"properties":{"country":"IE","data_src_c":"5106","pointx":-9.044006348,"pointy":53.268676758,"port":"Galway","port_coor_":"5","port_id":"IEGWY","portname":"Galway","source":"GISCO","traffic":"1","helmlore_id":"b9b53310-a1db-5573-b301-99a60630e0ff","source_observation":"5dffa761-b755-58d8-bfc2-82757fa75e75","source_external_id":"IEGWY","data_source":"emodnet:portlocations","source_date":"unknown","retrieved_at":"2026-10-07T22:09:31.709648+00:00","correction_status":"source_baseline"}},{"type":"Feature","id":"d1269022-9b8d-58ca-93d2-1b69fc05ec77","geometry":{"coordinates":[-8.51770019,51.70147705],"type":"Point"},"properties":{"country":"IE","data_src_c":"2110","pointx":-8.517700195,"pointy":51.701477051,"port":"Kinsale","port_coor_":"3","port_id":"IEKLN","portname":"Kinsale","source":"GISCO","traffic":"1","helmlore_id":"d1269022-9b8d-58ca-93d2-1b69fc05ec77","source_observation":"dc47abcb-7ffb-5561-bb6c-a3a6ea708584","source_external_id":"IEKLN","data_source":"emodnet:portlocations","source_date":"unknown","retrieved_at":"2026-10-07T22:09:31.709648+00:00","correction_status":"source_baseline"}},{"type":"Feature","id":"5ee45098-c79f-5e3b-8cbc-5bac46789354","geometry":{"coordinates":[-8.62538719,52.66807284],"type":"Point"},"properties":{"country":"IE","data_src_c":"2108","pointx":-8.625387188,"pointy":52.66807284,"port":"Limerick","port_coor_":"1","port_id":"IELMK","portname":"Limerick","source":"GISCO","traffic":"1","helmlore_id":"5ee45098-c79f-5e3b-8cbc-5bac46789354","source_observation":"fb166001-452a-52b1-9203-d3dc0d47bcd0","source_external_id":"IELMK","data_source":"emodnet:portlocations","source_date":"unknown","retrieved_at":"2026-10-07T22:09:31.709648+00:00","correction_status":"source_baseline"}},{"type":"Feature","id":"c8293dcf-2b1e-5feb-a2c6-cea1750c79e1","geometry":{"coordinates":[-6.9454956,52.39428711],"type":"Point"},"properties":{"country":"IE","data_src_c":"2109","pointx":-6.945495605,"pointy":52.394287109,"port":"New Ross","port_coor_":"5","port_id":"IENRS","portname":"New Ross","source":"GISCO","traffic":"1","helmlore_id":"c8293dcf-2b1e-5feb-a2c6-cea1750c79e1","source_observation":"a6c686fe-2e2e-52bb-b20f-fd3593f3a746","source_external_id":"IENRS","data_source":"emodnet:portlocations","source_date":"unknown","retrieved_at":"2026-10-07T22:09:31.709648+00:00","correction_status":"source_baseline"}},{"type":"Feature","id":"572d8df1-870c-5c4d-a21d-99e66c555872","geometry":{"coordinates":[-8.43548584,51.90167236],"type":"Point"},"properties":{"country":"IE","data_src_c":"2110","pointx":-8.43548584,"pointy":51.901672363,"port":"Cork","port_coor_":"1","port_id":"IEORK","portname":"Cork","source":"GISCO","traffic":"1","helmlore_id":"572d8df1-870c-5c4d-a21d-99e66c555872","source_observation":"a08e9185-856b-511a-a2f1-1729702f2944","source_external_id":"IEORK","data_source":"emodnet:portlocations","source_date":"unknown","retrieved_at":"2026-10-07T22:09:31.709648+00:00","correction_status":"source_baseline"}},{"type":"Feature","id":"2fc5fd0f-faf9-5f22-96c2-09a09225bcd2","geometry":{"coordinates":[-6.33862305,52.25549316],"type":"Point"},"properties":{"country":"IE","data_src_c":"9998","pointx":-6.338623047,"pointy":52.255493164,"port":"Rosslare Harbour","port_coor_":"1","port_id":"IEROS","portname":"Rosslare Harbour","source":"GISCO","traffic":"1","helmlore_id":"2fc5fd0f-faf9-5f22-96c2-09a09225bcd2","source_observation":"e2ef1641-c101-5861-9981-9ef5400108b6","source_external_id":"IEROS","data_source":"emodnet:portlocations","source_date":"unknown","retrieved_at":"2026-10-07T22:09:31.709648+00:00","correction_status":"source_baseline"}},{"type":"Feature","id":"0d8cf348-73f7-54f8-9bd9-69b379066975","geometry":{"coordinates":[-7.11218262,52.26208496],"type":"Point"},"properties":{"country":"IE","data_src_c":"2108","pointx":-7.112182617,"pointy":52.262084961,"port":"Waterford","port_coor_":"6","port_id":"IEWAT","portname":"Waterford","source":"GISCO","traffic":"1","helmlore_id":"0d8cf348-73f7-54f8-9bd9-69b379066975","source_observation":"3f1fc4b4-60ba-5a46-af75-d56545afd16e","source_external_id":"IEWAT","data_source":"emodnet:portlocations","source_date":"unknown","retrieved_at":"2026-10-07T22:09:31.709648+00:00","correction_status":"source_baseline"}}]}