{"type":"FeatureCollection","features":[{"type":"Feature","id":"c56a5ba4-ef8e-51cf-aef6-c9fb25c71413","geometry":{"coordinates":[[[-2.4963634,60.73536623],[-2.4927732,60.73357221],[-2.53813814,60.69225602],[-2.5404821,60.69044492],[-2.54057309,60.69014891],[-2.53953697,60.68847486]]],"type":"MultiLineString"},"properties":{"desc_":"CLAIR RIDGE FIBRE OPTIC TELECOMS CABLE","diameter":0.0,"end_date":null,"exposed":null,"fluid":"FIBRE","id":510001421,"ins_date":"2015-10-08T00:00:00.000Z","location":"Offshore","operator":"BP","pipe_dtino":null,"pipe_name":"CLAIR RIDGE FIBRE OPTIC TELECOMS CABLE","size_in":0.0,"start_date":"2015-10-01T00:00:00.000Z","status":"PRECOMMISSION","units":null,"untrenched":null,"upd_date":"2017-01-19T00:00:00.000Z","year":"2015","helmlore_id":"c56a5ba4-ef8e-51cf-aef6-c9fb25c71413","source_observation":"e03dd65a-bf9f-5804-8a2e-82eeeca98804","source_external_id":"ukfibrecables.4","data_source":"emodnet:ukfibrecables","source_date":"unknown","retrieved_at":"2026-10-07T22:09:31.709648+00:00","correction_status":"source_baseline"}},{"type":"Feature","id":"f699840f-460f-54ae-8932-ee8583a9ab0c","geometry":{"coordinates":[[[1.66446085,57.29121593],[1.66474987,57.29089392],[1.69726152,57.27181262],[1.8834462,57.15597869],[1.96615278,57.12204946],[1.97922341,57.11515237],[1.98979386,57.11078234],[2.06442089,57.08514531],[2.08161355,57.08010633],[2.08204856,57.08013234],[2.08246956,57.08048535]]],"type":"MultiLineString"},"properties":{"desc_":"MACHAR EECU UMBILICAL","diameter":109.0,"end_date":null,"exposed":null,"fluid":"FIBRE","id":510001559,"ins_date":"2016-05-13T00:00:00.000Z","location":"Offshore","operator":"BP","pipe_dtino":"PLU3955","pipe_name":"ETAP ELECTRICAL UPGRADE (EECU)-UMB","size_in":4.2913409,"start_date":"2016-06-26T00:00:00.000Z","status":"PRECOMMISSION","units":"mm","untrenched":null,"upd_date":"2017-01-19T00:00:00.000Z","year":"2016","helmlore_id":"f699840f-460f-54ae-8932-ee8583a9ab0c","source_observation":"ef4508a0-578d-5304-a0f2-9220b84beb73","source_external_id":"ukfibrecables.5","data_source":"emodnet:ukfibrecables","source_date":"unknown","retrieved_at":"2026-10-07T22:09:31.709648+00:00","correction_status":"source_baseline"}},{"type":"Feature","id":"3eb11cb1-3ce5-5363-8a9f-7b979d492214","geometry":{"coordinates":[[[1.66177865,57.294308],[1.66371474,57.29322399],[1.66400181,57.29178494],[1.66444985,57.29122993]]],"type":"MultiLineString"},"properties":{"desc_":"EECU RISER UMBILICAL","diameter":139.0,"end_date":null,"exposed":null,"fluid":"FIBRE","id":510001560,"ins_date":"2016-05-13T00:00:00.000Z","location":"Offshore","operator":"BP","pipe_dtino":"PLU3954","pipe_name":"ETAP ELECTRICAL UPGRADE (EECU)-RISER","size_in":5.4724439,"start_date":"2016-09-07T00:00:00.000Z","status":"PRECOMMISSION","units":"mm","untrenched":null,"upd_date":"2017-01-19T00:00:00.000Z","year":"2016","helmlore_id":"3eb11cb1-3ce5-5363-8a9f-7b979d492214","source_observation":"bf55799c-c4d0-57ab-89d5-2c50dce22f7b","source_external_id":"ukfibrecables.6","data_source":"emodnet:ukfibrecables","source_date":"unknown","retrieved_at":"2026-10-07T22:09:31.709648+00:00","correction_status":"source_baseline"}},{"type":"Feature","id":"513471f8-1893-50d8-bcfc-55988a97b1e8","geometry":{"coordinates":[[[-3.41478617,58.24025911],[-3.38127873,58.22736808],[-3.3779666,58.22630609],[-3.37660653,58.22559408],[-3.37241635,58.22395508],[-3.28044139,58.18857501],[-3.27890831,58.18775],[-3.26989692,58.18423699],[-3.25455027,58.17855299],[-3.25016507,58.17673798],[-3.23009021,58.16904997],[-3.2277601,58.16795096],[-3.22026079,58.16526696],[-3.20868328,58.16062294],[-3.19713079,58.15630194],[-3.19215657,58.15422293],[-3.16102323,58.14227991],[-3.15463695,58.1396219],[-3.1418374,58.13480789],[-3.11667431,58.12484886],[-3.11465623,58.12420686],[-3.10726597,58.1225919],[-3.10434087,58.12220793],[-3.10305682,58.12179193],[-3.10169175,58.12089391],[-3.10109869,58.11993289],[-3.10215256,58.11654375],[-3.10239055,58.11620874],[-3.10329354,58.1156187],[-3.10378752,58.11482167],[-3.10374749,58.11429865],[-3.10281644,58.11378764],[-3.10197641,58.11349764],[-3.10050636,58.11329566],[-3.0982383,58.11323968],[-3.09517524,58.11353973],[-3.09028016,58.11434283],[-3.08943313,58.11430584]]],"type":"MultiLineString"},"properties":{"desc_":"DUNBEATH POWER CABLE","diameter":4.0,"end_date":null,"exposed":null,"fluid":"FIBRE","id":510001889,"ins_date":"2017-11-15T00:00:00.000Z","location":"Offshore","operator":"REPSOL SINOPEC","pipe_dtino":"PL4331","pipe_name":"BEATRICE ALPHA TO DUNBEATH POWER CABLE","size_in":4.0,"start_date":"1980-06-01T00:00:00.000Z","status":"ACTIVE","units":"inch","untrenched":null,"upd_date":"2018-11-01T00:00:00.000Z","year":"1980","helmlore_id":"513471f8-1893-50d8-bcfc-55988a97b1e8","source_observation":"4dea6cc4-7298-5e5d-aceb-29f4f6da1604","source_external_id":"ukfibrecables.7","data_source":"emodnet:ukfibrecables","source_date":"unknown","retrieved_at":"2026-10-07T22:09:31.709648+00:00","correction_status":"source_baseline"}},{"type":"Feature","id":"694b4357-b62e-5b2f-8bdf-68c65621339a","geometry":{"coordinates":[[[0.69570665,58.32380368],[0.69544066,58.32341266]]],"type":"MultiLineString"},"properties":{"desc_":"WDC3 TO W10 POWER AND SIGNAL CABLE","diameter":39.7,"end_date":"2022-01-01T00:00:00.000Z","exposed":null,"fluid":"FIBRE","id":500008091,"ins_date":"2009-11-03T00:00:00.000Z","location":"Offshore","operator":"CONOCOPHILLIPS","pipe_dtino":"PLU1334JW10","pipe_name":"WDC3 TO W10 CABLE","size_in":1.56299297,"start_date":"2009-05-01T00:00:00.000Z","status":"ABANDONED","units":"mm","untrenched":null,"upd_date":"2018-11-13T00:00:00.000Z","year":"2009","helmlore_id":"694b4357-b62e-5b2f-8bdf-68c65621339a","source_observation":"078f4d62-764a-57de-8db9-4f15660dc499","source_external_id":"ukfibrecables.8","data_source":"emodnet:ukfibrecables","source_date":"unknown","retrieved_at":"2026-10-07T22:09:31.709648+00:00","correction_status":"source_baseline"}},{"type":"Feature","id":"ce4fea89-3172-5c21-81bb-5f43adba1a2d","geometry":{"coordinates":[[[1.76443523,53.096955],[1.76538726,53.096757],[1.7706514,53.09655106],[1.78192972,53.09498114],[1.78939892,53.0941982],[1.79498009,53.09308122],[1.79960421,53.09281427],[1.80477837,53.09181829],[1.83103209,53.0889125],[1.83905832,53.08775155],[1.84193641,53.08698556],[1.84375146,53.08690458],[1.84627351,53.08712762],[1.84759455,53.08702463],[1.84954861,53.08654564],[1.84981063,53.08629963]]],"type":"MultiLineString"},"properties":{"desc_":"48/29C TO 48/30-10 UMBILICAL","diameter":0.0,"end_date":null,"exposed":null,"fluid":"FIBRE","id":500007938,"ins_date":"2009-06-24T00:00:00.000Z","location":"Offshore","operator":"ENI","pipe_dtino":"U30-10","pipe_name":"48/29C TO 48/30-10 HYD WELL CONTROL","size_in":0.0,"start_date":"1986-01-01T00:00:00.000Z","status":"ACTIVE","units":null,"untrenched":null,"upd_date":"2017-01-19T00:00:00.000Z","year":"1986","helmlore_id":"ce4fea89-3172-5c21-81bb-5f43adba1a2d","source_observation":"32ba2634-0be5-5ebe-b3fb-e99634b3e076","source_external_id":"ukfibrecables.9","data_source":"emodnet:ukfibrecables","source_date":"unknown","retrieved_at":"2026-10-07T22:09:31.709648+00:00","correction_status":"source_baseline"}},{"type":"Feature","id":"e4c974af-2146-51eb-8c34-4b3438e788d8","geometry":{"coordinates":[[[1.94483421,60.55784251],[1.9444562,60.5577565],[1.94372416,60.5580435],[1.86834178,60.52200917],[1.86655769,60.52280218],[1.8669887,60.52286919]]],"type":"MultiLineString"},"properties":{"desc_":"ISLAY TO FORVIE FIBRE OPTIC PIP","diameter":0.0,"end_date":null,"exposed":null,"fluid":"FIBRE","id":510000491,"ins_date":"2012-10-18T00:00:00.000Z","location":"Offshore","operator":"TOTAL","pipe_dtino":"PL2816.2","pipe_name":"ISLAY TO FORVIE FIBRE OPTIC PIP","size_in":0.0,"start_date":"2012-01-31T00:00:00.000Z","status":"ACTIVE","units":null,"untrenched":null,"upd_date":"2017-01-19T00:00:00.000Z","year":"2012","helmlore_id":"e4c974af-2146-51eb-8c34-4b3438e788d8","source_observation":"277c4d53-08d8-5c50-a1e9-156a4c90d2c6","source_external_id":"ukfibrecables.12","data_source":"emodnet:ukfibrecables","source_date":"unknown","retrieved_at":"2026-10-07T22:09:31.709648+00:00","correction_status":"source_baseline"}},{"type":"Feature","id":"76f1a292-2ddd-56ec-91ca-3f07e82177d8","geometry":{"coordinates":[[[1.94483421,60.55784251],[1.9444562,60.5577565],[1.94372416,60.5580435],[1.86834178,60.52200917],[1.86655769,60.52280218],[1.8669887,60.52286919]]],"type":"MultiLineString"},"properties":{"desc_":"ISLAY TO FORVIE ELECTRICAL PIP","diameter":0.0,"end_date":null,"exposed":null,"fluid":"FIBRE","id":510000492,"ins_date":"2012-10-18T00:00:00.000Z","location":"Offshore","operator":"TOTAL","pipe_dtino":"PL2816.3","pipe_name":"ISLAY TO FORVIE ELECTRICAL PIP","size_in":0.0,"start_date":"2012-01-31T00:00:00.000Z","status":"ACTIVE","units":null,"untrenched":null,"upd_date":"2017-01-19T00:00:00.000Z","year":"2012","helmlore_id":"76f1a292-2ddd-56ec-91ca-3f07e82177d8","source_observation":"3593d0c3-6672-5cb0-be16-c0146bad0554","source_external_id":"ukfibrecables.13","data_source":"emodnet:ukfibrecables","source_date":"unknown","retrieved_at":"2026-10-07T22:09:31.709648+00:00","correction_status":"source_baseline"}},{"type":"Feature","id":"4bc9d689-568e-58f8-ba4a-a02078456b19","geometry":{"coordinates":[[[2.78424387,56.18586683],[2.76270284,56.19834202]]],"type":"MultiLineString"},"properties":{"desc_":"FPSO TURRET J-TUBE TO ALMA MANIFOLD","diameter":251.0,"end_date":null,"exposed":null,"fluid":"FIBRE","id":510001219,"ins_date":"2014-11-13T00:00:00.000Z","location":"Offshore","operator":"ENQUEST HEATHER","pipe_dtino":"PL3013","pipe_name":"ESP PRODUCTION POWER CABLE C","size_in":9.8818951,"start_date":"2013-06-01T00:00:00.000Z","status":"PRECOMMISSION","units":"mm","untrenched":null,"upd_date":"2018-11-21T00:00:00.000Z","year":"2013","helmlore_id":"4bc9d689-568e-58f8-ba4a-a02078456b19","source_observation":"660d60e7-56b2-5fe7-816b-1c441a30410a","source_external_id":"ukfibrecables.14","data_source":"emodnet:ukfibrecables","source_date":"unknown","retrieved_at":"2026-10-07T22:09:31.709648+00:00","correction_status":"source_baseline"}},{"type":"Feature","id":"9e6ac7f2-fc51-580b-b1bf-2eaf83a4020a","geometry":{"coordinates":[[[1.53560836,59.54650769],[1.67878889,59.43161311]]],"type":"MultiLineString"},"properties":{"desc_":"CALLATER ELECTRICAL UMBILICAL","diameter":2.0,"end_date":null,"exposed":null,"fluid":"FIBRE","id":510002085,"ins_date":"2019-04-18T00:00:00.000Z","location":"Offshore","operator":"APACHE","pipe_dtino":"PL4076.9","pipe_name":"PL4076.9","size_in":2.0,"start_date":"2017-02-13T00:00:00.000Z","status":"ACTIVE","units":"inch","untrenched":null,"upd_date":"2019-05-27T00:00:00.000Z","year":"2017","helmlore_id":"9e6ac7f2-fc51-580b-b1bf-2eaf83a4020a","source_observation":"09e7dd49-4391-5194-b471-a0569c3e520f","source_external_id":"ukfibrecables.15","data_source":"emodnet:ukfibrecables","source_date":"unknown","retrieved_at":"2026-10-07T22:09:31.709648+00:00","correction_status":"source_baseline"}},{"type":"Feature","id":"50443c2c-1781-51da-ab92-04b7ded86a67","geometry":{"coordinates":[[[1.6184364,59.44802699],[1.61897445,59.44743097]]],"type":"MultiLineString"},"properties":{"desc_":"CONTROLS TO CALLATER WELL CC2","diameter":3.0,"end_date":null,"exposed":null,"fluid":"FIBRE","id":510001985,"ins_date":"2018-11-02T00:00:00.000Z","location":"Offshore","operator":"APACHE","pipe_dtino":"PLU4432","pipe_name":"PLU4432","size_in":3.0,"start_date":"2018-09-01T00:00:00.000Z","status":"ACTIVE","units":"inch","untrenched":null,"upd_date":"2018-11-02T00:00:00.000Z","year":"2018","helmlore_id":"50443c2c-1781-51da-ab92-04b7ded86a67","source_observation":"fb19c033-0ce8-530b-9b6b-21ab8d3fa8b9","source_external_id":"ukfibrecables.16","data_source":"emodnet:ukfibrecables","source_date":"unknown","retrieved_at":"2026-10-07T22:09:31.709648+00:00","correction_status":"source_baseline"}},{"type":"Feature","id":"160e1ce1-d839-5bed-a265-71c7589b7fb6","geometry":{"coordinates":[[[1.61923642,59.448099],[1.61843041,59.44801299]]],"type":"MultiLineString"},"properties":{"desc_":"S211 POWER/SIGNAL JUMPER","diameter":2.0,"end_date":null,"exposed":null,"fluid":"FIBRE","id":510002091,"ins_date":"2019-04-18T00:00:00.000Z","location":"Offshore","operator":"APACHE","pipe_dtino":"PLU4092","pipe_name":"PLU4092","size_in":2.0,"start_date":"2017-05-12T00:00:00.000Z","status":"ACTIVE","units":"inch","untrenched":null,"upd_date":"2019-05-27T00:00:00.000Z","year":"2017","helmlore_id":"160e1ce1-d839-5bed-a265-71c7589b7fb6","source_observation":"feec9c6e-d84f-5678-a756-ea3eae32d2b0","source_external_id":"ukfibrecables.17","data_source":"emodnet:ukfibrecables","source_date":"unknown","retrieved_at":"2026-10-07T22:09:31.709648+00:00","correction_status":"source_baseline"}},{"type":"Feature","id":"bc432f71-98de-5886-8e5c-f30aa1d36c31","geometry":{"coordinates":[[[-3.67189374,53.62602479],[-3.57983961,53.53828015],[-3.57939058,53.53760113]]],"type":"MultiLineString"},"properties":{"desc_":"DOUGLAS TO CONWY UMBILICAL","diameter":1.0,"end_date":null,"exposed":null,"fluid":"FIBRE","id":510000642,"ins_date":"2013-05-08T00:00:00.000Z","location":"Offshore","operator":"TAILWIND","pipe_dtino":"PLU2942","pipe_name":"DOUGLAS TO CONWY UMBILICAL","size_in":1.0,"start_date":"2012-12-21T00:00:00.000Z","status":"ACTIVE","units":"inch","untrenched":null,"upd_date":"2018-11-29T00:00:00.000Z","year":"2012","helmlore_id":"bc432f71-98de-5886-8e5c-f30aa1d36c31","source_observation":"69c59d5b-c479-5ce6-9022-c5e575621c42","source_external_id":"ukfibrecables.18","data_source":"emodnet:ukfibrecables","source_date":"unknown","retrieved_at":"2026-10-07T22:09:31.709648+00:00","correction_status":"source_baseline"}},{"type":"Feature","id":"1a646dcd-55ac-5780-80ae-9619bde1039e","geometry":{"coordinates":[[[1.61799137,59.448438],[1.61843041,59.44801299]]],"type":"MultiLineString"},"properties":{"desc_":"S215 POWER/SIGNAL JUMPER","diameter":2.0,"end_date":null,"exposed":null,"fluid":"FIBRE","id":510002097,"ins_date":"2019-04-18T00:00:00.000Z","location":"Offshore","operator":"APACHE","pipe_dtino":"PLU4093","pipe_name":"PLU4093","size_in":2.0,"start_date":"2017-11-08T00:00:00.000Z","status":"ACTIVE","units":"inch","untrenched":null,"upd_date":"2019-05-27T00:00:00.000Z","year":"2017","helmlore_id":"1a646dcd-55ac-5780-80ae-9619bde1039e","source_observation":"0ab2f411-df67-5602-a6b5-592ebaedf52f","source_external_id":"ukfibrecables.19","data_source":"emodnet:ukfibrecables","source_date":"unknown","retrieved_at":"2026-10-07T22:09:31.709648+00:00","correction_status":"source_baseline"}},{"type":"Feature","id":"e220e157-a6de-5de3-a202-714879ab5df9","geometry":{"coordinates":[[[1.61788041,59.44768597],[1.61843041,59.44801299]]],"type":"MultiLineString"},"properties":{"desc_":"S214 POWER/SIGNAL JUMPER","diameter":2.0,"end_date":null,"exposed":null,"fluid":"FIBRE","id":510002104,"ins_date":"2019-04-18T00:00:00.000Z","location":"Offshore","operator":"APACHE","pipe_dtino":"PLU4094","pipe_name":"PLU4094","size_in":2.0,"start_date":"2019-07-19T00:00:00.000Z","status":"ACTIVE","units":"inch","untrenched":null,"upd_date":"2019-05-27T00:00:00.000Z","year":"2019","helmlore_id":"e220e157-a6de-5de3-a202-714879ab5df9","source_observation":"537d9d52-84dd-5e41-806a-ff065f6eead7","source_external_id":"ukfibrecables.20","data_source":"emodnet:ukfibrecables","source_date":"unknown","retrieved_at":"2026-10-07T22:09:31.709648+00:00","correction_status":"source_baseline"}},{"type":"Feature","id":"6898a7ce-855e-59a9-bcbe-d793e2d22e86","geometry":{"coordinates":[[[2.78424187,56.18586683],[2.76270284,56.19834202]]],"type":"MultiLineString"},"properties":{"desc_":"FPSO TURRET J-TUBE TO ALMA MANIFOLD","diameter":251.0,"end_date":null,"exposed":null,"fluid":"FIBRE","id":510001217,"ins_date":"2014-11-13T00:00:00.000Z","location":"Offshore","operator":"ENQUEST HEATHER","pipe_dtino":"PL3011","pipe_name":"ESP PRODUCTION POWER CABLE A","size_in":9.8818951,"start_date":"2013-06-01T00:00:00.000Z","status":"PRECOMMISSION","units":"mm","untrenched":null,"upd_date":"2018-11-21T00:00:00.000Z","year":"2013","helmlore_id":"6898a7ce-855e-59a9-bcbe-d793e2d22e86","source_observation":"83989072-fcf6-508b-aff7-541a6a3fc9bd","source_external_id":"ukfibrecables.21","data_source":"emodnet:ukfibrecables","source_date":"unknown","retrieved_at":"2026-10-07T22:09:31.709648+00:00","correction_status":"source_baseline"}},{"type":"Feature","id":"c32d168e-e034-5bb7-8d71-75a5e2bd80e8","geometry":{"coordinates":[[[2.78424387,56.18586683],[2.76270284,56.19834202]]],"type":"MultiLineString"},"properties":{"desc_":"FPSO TURRET J-TUBE TO ALMA MANIFOLD","diameter":251.0,"end_date":null,"exposed":null,"fluid":"FIBRE","id":510001218,"ins_date":"2014-11-13T00:00:00.000Z","location":"Offshore","operator":"ENQUEST HEATHER","pipe_dtino":"PL3012","pipe_name":"ESP PRODUCTION POWER CABLE B","size_in":9.8818951,"start_date":"2013-06-01T00:00:00.000Z","status":"PRECOMMISSION","units":"mm","untrenched":null,"upd_date":"2018-11-21T00:00:00.000Z","year":"2013","helmlore_id":"c32d168e-e034-5bb7-8d71-75a5e2bd80e8","source_observation":"74f9a688-c6e1-5ab3-9452-e3ec0f752c62","source_external_id":"ukfibrecables.22","data_source":"emodnet:ukfibrecables","source_date":"unknown","retrieved_at":"2026-10-07T22:09:31.709648+00:00","correction_status":"source_baseline"}},{"type":"Feature","id":"8f30b4ec-8717-5385-a958-34ab3f415cf8","geometry":{"coordinates":[[[2.76279682,56.19879204],[2.76270284,56.19834202]]],"type":"MultiLineString"},"properties":{"desc_":"ALMA P1 XMAS TREE TO ALMA MANIFOLD","diameter":54.0,"end_date":null,"exposed":null,"fluid":"FIBRE","id":510001220,"ins_date":"2014-11-13T00:00:00.000Z","location":"Offshore","operator":"ENQUEST HEATHER","pipe_dtino":"PL3011JAP1","pipe_name":"ESP PROD CABLE JUMPER AP1 01 AND 02","size_in":2.1259854,"start_date":"2013-06-01T00:00:00.000Z","status":"PRECOMMISSION","units":"mm","untrenched":null,"upd_date":"2018-11-21T00:00:00.000Z","year":"2013","helmlore_id":"8f30b4ec-8717-5385-a958-34ab3f415cf8","source_observation":"32e52b37-78c7-5ed7-a96c-8230150cd8b7","source_external_id":"ukfibrecables.23","data_source":"emodnet:ukfibrecables","source_date":"unknown","retrieved_at":"2026-10-07T22:09:31.709648+00:00","correction_status":"source_baseline"}},{"type":"Feature","id":"8d08fd6e-ca90-5b85-ab4c-3d3a744adf00","geometry":{"coordinates":[[[2.76245282,56.19860803],[2.76270284,56.19834202]]],"type":"MultiLineString"},"properties":{"desc_":"ALMA P2 XMAS TREE TO ALMA MANIFOLD","diameter":54.0,"end_date":null,"exposed":null,"fluid":"FIBRE","id":510001221,"ins_date":"2014-11-13T00:00:00.000Z","location":"Offshore","operator":"ENQUEST HEATHER","pipe_dtino":"PL3011JAP2","pipe_name":"ESP PROD CABLE JUMPER AP2 01 AND 02","size_in":2.1259854,"start_date":"2013-06-01T00:00:00.000Z","status":"PRECOMMISSION","units":"mm","untrenched":null,"upd_date":"2018-11-21T00:00:00.000Z","year":"2013","helmlore_id":"8d08fd6e-ca90-5b85-ab4c-3d3a744adf00","source_observation":"72c83774-ebd1-5f4b-a828-65f5ab5b7a86","source_external_id":"ukfibrecables.24","data_source":"emodnet:ukfibrecables","source_date":"unknown","retrieved_at":"2026-10-07T22:09:31.709648+00:00","correction_status":"source_baseline"}},{"type":"Feature","id":"6bf7388a-0812-59d5-894e-f4f92dc55a95","geometry":{"coordinates":[[[2.76211382,56.19841702],[2.76270284,56.19834202]]],"type":"MultiLineString"},"properties":{"desc_":"ALMA P3 XMAS TREE TO ALMA MANIFOLD","diameter":54.0,"end_date":null,"exposed":null,"fluid":"FIBRE","id":510001222,"ins_date":"2014-11-13T00:00:00.000Z","location":"Offshore","operator":"ENQUEST HEATHER","pipe_dtino":"PL3011JAP3","pipe_name":"ESP PROD CABLE JUMPER AP3 01 AND 03","size_in":2.1259854,"start_date":"2013-06-01T00:00:00.000Z","status":"PRECOMMISSION","units":"mm","untrenched":null,"upd_date":"2018-11-21T00:00:00.000Z","year":"2013","helmlore_id":"6bf7388a-0812-59d5-894e-f4f92dc55a95","source_observation":"7ea22984-0870-546c-9c49-3e1b338888e0","source_external_id":"ukfibrecables.25","data_source":"emodnet:ukfibrecables","source_date":"unknown","retrieved_at":"2026-10-07T22:09:31.709648+00:00","correction_status":"source_baseline"}},{"type":"Feature","id":"7f9665c8-c568-5d72-8ff7-db28631e2553","geometry":{"coordinates":[[[2.76284986,56.19801401],[2.76270284,56.19834202]]],"type":"MultiLineString"},"properties":{"desc_":"ALMA P4 XMAS TREE TO ALMA MANIFOLD","diameter":54.0,"end_date":null,"exposed":null,"fluid":"FIBRE","id":510001223,"ins_date":"2014-11-13T00:00:00.000Z","location":"Offshore","operator":"ENQUEST HEATHER","pipe_dtino":"PL3011JAP4","pipe_name":"ESP PROD CABLE JUMPER AP4 01 AND 04","size_in":2.1259854,"start_date":"2013-06-01T00:00:00.000Z","status":"PRECOMMISSION","units":"mm","untrenched":null,"upd_date":"2018-11-21T00:00:00.000Z","year":"2013","helmlore_id":"7f9665c8-c568-5d72-8ff7-db28631e2553","source_observation":"3c159183-54df-53bd-b268-2c9d181ff60d","source_external_id":"ukfibrecables.26","data_source":"emodnet:ukfibrecables","source_date":"unknown","retrieved_at":"2026-10-07T22:09:31.709648+00:00","correction_status":"source_baseline"}},{"type":"Feature","id":"833c9d88-0e0b-5be8-b18b-ba4e06c9a903","geometry":{"coordinates":[[[2.76318086,56.19820302],[2.76270284,56.19834202]]],"type":"MultiLineString"},"properties":{"desc_":"ALMA P5 XMAS TREE TO ALMA MANIFOLD","diameter":54.0,"end_date":null,"exposed":null,"fluid":"FIBRE","id":510001224,"ins_date":"2014-11-13T00:00:00.000Z","location":"Offshore","operator":"ENQUEST HEATHER","pipe_dtino":"PL3011JAP5","pipe_name":"ESP PROD CABLE JUMPER AP5 01 AND 05","size_in":2.1259854,"start_date":"2013-06-01T00:00:00.000Z","status":"PRECOMMISSION","units":"mm","untrenched":null,"upd_date":"2018-11-21T00:00:00.000Z","year":"2013","helmlore_id":"833c9d88-0e0b-5be8-b18b-ba4e06c9a903","source_observation":"52a78d0e-e055-5c03-bff8-2bce614e21f5","source_external_id":"ukfibrecables.27","data_source":"emodnet:ukfibrecables","source_date":"unknown","retrieved_at":"2026-10-07T22:09:31.709648+00:00","correction_status":"source_baseline"}},{"type":"Feature","id":"0ca55af8-31e6-579e-bf72-19d5a2f019c6","geometry":{"coordinates":[[[2.76352486,56.19839403],[2.76270284,56.19834202]]],"type":"MultiLineString"},"properties":{"desc_":"ALMA P6 XMAS TREE TO ALMA MANIFOLD","diameter":54.0,"end_date":null,"exposed":null,"fluid":"FIBRE","id":510001225,"ins_date":"2014-11-13T00:00:00.000Z","location":"Offshore","operator":"ENQUEST HEATHER","pipe_dtino":"PL3011JAP6","pipe_name":"ESP PROD CABLE JUMPER AP6 01 AND 06","size_in":2.1259854,"start_date":"2013-06-01T00:00:00.000Z","status":"PRECOMMISSION","units":"mm","untrenched":null,"upd_date":"2018-11-21T00:00:00.000Z","year":"2013","helmlore_id":"0ca55af8-31e6-579e-bf72-19d5a2f019c6","source_observation":"bf5c551b-7230-5c33-9f58-492ab8736bee","source_external_id":"ukfibrecables.28","data_source":"emodnet:ukfibrecables","source_date":"unknown","retrieved_at":"2026-10-07T22:09:31.709648+00:00","correction_status":"source_baseline"}},{"type":"Feature","id":"0d57cce9-ac21-5e1e-a1b3-33ab0ef2af25","geometry":{"coordinates":[[[2.68878636,56.18579972],[2.76270284,56.19834202]]],"type":"MultiLineString"},"properties":{"desc_":"GALIA GP1 XMAS TREE TO ALMA MANIFOLD","diameter":145.0,"end_date":null,"exposed":null,"fluid":"FIBRE","id":510001228,"ins_date":"2014-11-13T00:00:00.000Z","location":"Offshore","operator":"ENQUEST HEATHER","pipe_dtino":"PL3016","pipe_name":"ESP PRODUCTION POWER CABLE","size_in":5.7086645,"start_date":"2013-06-01T00:00:00.000Z","status":"PRECOMMISSION","units":"mm","untrenched":null,"upd_date":"2018-11-21T00:00:00.000Z","year":"2013","helmlore_id":"0d57cce9-ac21-5e1e-a1b3-33ab0ef2af25","source_observation":"0278b9b3-c77c-5e18-9d90-2ceb816e8dbd","source_external_id":"ukfibrecables.29","data_source":"emodnet:ukfibrecables","source_date":"unknown","retrieved_at":"2026-10-07T22:09:31.709648+00:00","correction_status":"source_baseline"}},{"type":"Feature","id":"7ad0674b-d7f4-5b70-a37e-61df10a53634","geometry":{"coordinates":[[[-1.03388784,54.64000243],[-1.02357866,54.64168761],[-0.99116817,54.64938126],[-0.96199774,54.65670886],[-0.9528966,54.65868604],[-0.94380644,54.6604122],[-0.93315625,54.66199239],[-0.92478708,54.66279951],[-0.91560088,54.66325664],[-0.90443161,54.66321178],[-0.89865546,54.66291184],[-0.88305304,54.66163498],[-0.71760158,54.64734452],[-0.70623528,54.64662163],[-0.52245363,54.63944162],[-0.4072687,54.63475986],[-0.2690642,54.62991636],[-0.25278677,54.62893953],[-0.2375414,54.6287437],[-0.22783916,54.62844481],[-0.17001668,54.62622043],[-0.15116221,54.62556564],[-0.14632209,54.62557569],[-0.14101595,54.62521075],[-0.10673807,54.62393312],[0.16663583,54.61577912],[0.36730893,54.6093433],[0.3737971,54.60893536],[0.38180433,54.60813843],[0.38737449,54.60736347],[0.39613476,54.60574852],[0.40548307,54.60339156],[0.41217031,54.60132857],[0.42050362,54.59830856],[0.42689386,54.59579056],[0.43047399,54.59475556]]],"type":"MultiLineString"},"properties":{"desc_":"FIBRE OPTIC CABLE LINK BETWEEN BREAGH PLATFORM AND SHORE","diameter":0.0,"end_date":null,"exposed":null,"fluid":"FIBRE","id":510000451,"ins_date":"2012-10-16T00:00:00.000Z","location":"Offshore","operator":"INEOS UK SNS","pipe_dtino":"PL2770","pipe_name":"BREAGH FIBRE OPTICE CABLE","size_in":0.0,"start_date":"2011-07-31T00:00:00.000Z","status":"ACTIVE","units":null,"untrenched":null,"upd_date":"2018-05-25T00:00:00.000Z","year":"2011","helmlore_id":"7ad0674b-d7f4-5b70-a37e-61df10a53634","source_observation":"cf6567d3-450d-55a7-b133-95b62c4308a2","source_external_id":"ukfibrecables.30","data_source":"emodnet:ukfibrecables","source_date":"unknown","retrieved_at":"2026-10-07T22:09:31.709648+00:00","correction_status":"source_baseline"}}]}